{
  "type": "FeatureCollection",
  "features": [
    {
      "type": "Feature",
      "properties": {
        "name": "Montereale Valcellina",
        "type": "capoluogo",
        "centroid_lon": 12.6621363,
        "centroid_lat": 46.1605087,
        "name_fur": "Montreâl"
      },
      "geometry": {
        "type": "Polygon",
        "coordinates": [
          [
            [
              12.662136,
              46.165449
            ],
            [
              12.663528,
              46.165354
            ],
            [
              12.664866,
              46.165073
            ],
            [
              12.666099,
              46.164617
            ],
            [
              12.66718,
              46.164002
            ],
            [
              12.668067,
              46.163254
            ],
            [
              12.668726,
              46.162399
            ],
            [
              12.669132,
              46.161473
            ],
            [
              12.669269,
              46.160509
            ],
            [
              12.669132,
              46.159545
            ],
            [
              12.668726,
              46.158618
            ],
            [
              12.668067,
              46.157764
            ],
            [
              12.66718,
              46.157015
            ],
            [
              12.666099,
              46.156401
            ],
            [
              12.664866,
              46.155944
            ],
            [
              12.663528,
              46.155663
            ],
            [
              12.662136,
              46.155568
            ],
            [
              12.660745,
              46.155663
            ],
            [
              12.659407,
              46.155944
            ],
            [
              12.658173,
              46.156401
            ],
            [
              12.657092,
              46.157015
            ],
            [
              12.656205,
              46.157764
            ],
            [
              12.655546,
              46.158618
            ],
            [
              12.65514,
              46.159545
            ],
            [
              12.655003,
              46.160509
            ],
            [
              12.65514,
              46.161473
            ],
            [
              12.655546,
              46.162399
            ],
            [
              12.656205,
              46.163254
            ],
            [
              12.657092,
              46.164002
            ],
            [
              12.658173,
              46.164617
            ],
            [
              12.659407,
              46.165073
            ],
            [
              12.660745,
              46.165354
            ],
            [
              12.662136,
              46.165449
            ]
          ]
        ]
      }
    },
    {
      "type": "Feature",
      "properties": {
        "name": "Grizzo",
        "type": "frazione",
        "centroid_lon": 12.64901,
        "centroid_lat": 46.15073,
        "name_fur": "Gris"
      },
      "geometry": {
        "type": "Polygon",
        "coordinates": [
          [
            [
              12.64901,
              46.154772
            ],
            [
              12.650148,
              46.154695
            ],
            [
              12.651243,
              46.154465
            ],
            [
              12.652252,
              46.154091
            ],
            [
              12.653136,
              46.153588
            ],
            [
              12.653862,
              46.152976
            ],
            [
              12.654401,
              46.152277
            ],
            [
              12.654733,
              46.151519
            ],
            [
              12.654845,
              46.15073
            ],
            [
              12.654733,
              46.149941
            ],
            [
              12.654401,
              46.149183
            ],
            [
              12.653862,
              46.148484
            ],
            [
              12.653136,
              46.147872
            ],
            [
              12.652252,
              46.147369
            ],
            [
              12.651243,
              46.146995
            ],
            [
              12.650148,
              46.146765
            ],
            [
              12.64901,
              46.146688
            ],
            [
              12.647872,
              46.146765
            ],
            [
              12.646777,
              46.146995
            ],
            [
              12.645768,
              46.147369
            ],
            [
              12.644884,
              46.147872
            ],
            [
              12.644158,
              46.148484
            ],
            [
              12.643619,
              46.149183
            ],
            [
              12.643287,
              46.149941
            ],
            [
              12.643175,
              46.15073
            ],
            [
              12.643287,
              46.151519
            ],
            [
              12.643619,
              46.152277
            ],
            [
              12.644158,
              46.152976
            ],
            [
              12.644884,
              46.153588
            ],
            [
              12.645768,
              46.154091
            ],
            [
              12.646777,
              46.154465
            ],
            [
              12.647872,
              46.154695
            ],
            [
              12.64901,
              46.154772
            ]
          ]
        ]
      }
    },
    {
      "type": "Feature",
      "properties": {
        "name": "Malnisio",
        "type": "frazione",
        "centroid_lon": 12.63721,
        "centroid_lat": 46.14404,
        "name_fur": "Malnîs"
      },
      "geometry": {
        "type": "Polygon",
        "coordinates": [
          [
            [
              12.63721,
              46.147633
            ],
            [
              12.638222,
              46.147564
            ],
            [
              12.639195,
              46.14736
            ],
            [
              12.640091,
              46.147028
            ],
            [
              12.640877,
              46.146581
            ],
            [
              12.641522,
              46.146036
            ],
            [
              12.642001,
              46.145415
            ],
            [
              12.642297,
              46.144741
            ],
            [
              12.642396,
              46.14404
            ],
            [
              12.642297,
              46.143339
            ],
            [
              12.642001,
              46.142665
            ],
            [
              12.641522,
              46.142044
            ],
            [
              12.640877,
              46.141499
            ],
            [
              12.640091,
              46.141052
            ],
            [
              12.639195,
              46.14072
            ],
            [
              12.638222,
              46.140516
            ],
            [
              12.63721,
              46.140447
            ],
            [
              12.636198,
              46.140516
            ],
            [
              12.635225,
              46.14072
            ],
            [
              12.634329,
              46.141052
            ],
            [
              12.633543,
              46.141499
            ],
            [
              12.632898,
              46.142044
            ],
            [
              12.632419,
              46.142665
            ],
            [
              12.632123,
              46.143339
            ],
            [
              12.632024,
              46.14404
            ],
            [
              12.632123,
              46.144741
            ],
            [
              12.632419,
              46.145415
            ],
            [
              12.632898,
              46.146036
            ],
            [
              12.633543,
              46.146581
            ],
            [
              12.634329,
              46.147028
            ],
            [
              12.635225,
              46.14736
            ],
            [
              12.636198,
              46.147564
            ],
            [
              12.63721,
              46.147633
            ]
          ]
        ]
      }
    },
    {
      "type": "Feature",
      "properties": {
        "name": "San Leonardo",
        "type": "frazione",
        "centroid_lon": 12.68226,
        "centroid_lat": 46.09697,
        "name_fur": "Salinart"
      },
      "geometry": {
        "type": "Polygon",
        "coordinates": [
          [
            [
              12.68226,
              46.100384
            ],
            [
              12.68322,
              46.100318
            ],
            [
              12.684144,
              46.100124
            ],
            [
              12.684995,
              46.099808
            ],
            [
              12.685741,
              46.099384
            ],
            [
              12.686353,
              46.098866
            ],
            [
              12.686808,
              46.098276
            ],
            [
              12.687088,
              46.097636
            ],
            [
              12.687183,
              46.09697
            ],
            [
              12.687088,
              46.096304
            ],
            [
              12.686808,
              46.095664
            ],
            [
              12.686353,
              46.095074
            ],
            [
              12.685741,
              46.094556
            ],
            [
              12.684995,
              46.094132
            ],
            [
              12.684144,
              46.093816
            ],
            [
              12.68322,
              46.093622
            ],
            [
              12.68226,
              46.093556
            ],
            [
              12.6813,
              46.093622
            ],
            [
              12.680376,
              46.093816
            ],
            [
              12.679525,
              46.094132
            ],
            [
              12.678779,
              46.094556
            ],
            [
              12.678167,
              46.095074
            ],
            [
              12.677712,
              46.095664
            ],
            [
              12.677432,
              46.096304
            ],
            [
              12.677337,
              46.09697
            ],
            [
              12.677432,
              46.097636
            ],
            [
              12.677712,
              46.098276
            ],
            [
              12.678167,
              46.098866
            ],
            [
              12.678779,
              46.099384
            ],
            [
              12.679525,
              46.099808
            ],
            [
              12.680376,
              46.100124
            ],
            [
              12.6813,
              46.100318
            ],
            [
              12.68226,
              46.100384
            ]
          ]
        ]
      }
    },
    {
      "type": "Feature",
      "properties": {
        "name": "Borgo Alzetta",
        "type": "borgata",
        "centroid_lon": 12.64381,
        "centroid_lat": 46.1537
      },
      "geometry": {
        "type": "Polygon",
        "coordinates": [
          [
            [
              12.64381,
              46.155497
            ],
            [
              12.644316,
              46.155462
            ],
            [
              12.644803,
              46.15536
            ],
            [
              12.645251,
              46.155194
            ],
            [
              12.645644,
              46.15497
            ],
            [
              12.645966,
              46.154698
            ],
            [
              12.646206,
              46.154388
            ],
            [
              12.646354,
              46.154051
            ],
            [
              12.646404,
              46.1537
            ],
            [
              12.646354,
              46.153349
            ],
            [
              12.646206,
              46.153012
            ],
            [
              12.645966,
              46.152702
            ],
            [
              12.645644,
              46.15243
            ],
            [
              12.645251,
              46.152206
            ],
            [
              12.644803,
              46.15204
            ],
            [
              12.644316,
              46.151938
            ],
            [
              12.64381,
              46.151903
            ],
            [
              12.643304,
              46.151938
            ],
            [
              12.642817,
              46.15204
            ],
            [
              12.642369,
              46.152206
            ],
            [
              12.641976,
              46.15243
            ],
            [
              12.641654,
              46.152702
            ],
            [
              12.641414,
              46.153012
            ],
            [
              12.641266,
              46.153349
            ],
            [
              12.641216,
              46.1537
            ],
            [
              12.641266,
              46.154051
            ],
            [
              12.641414,
              46.154388
            ],
            [
              12.641654,
              46.154698
            ],
            [
              12.641976,
              46.15497
            ],
            [
              12.642369,
              46.155194
            ],
            [
              12.642817,
              46.15536
            ],
            [
              12.643304,
              46.155462
            ],
            [
              12.64381,
              46.155497
            ]
          ]
        ]
      }
    },
    {
      "type": "Feature",
      "properties": {
        "name": "Cao Malnisio",
        "type": "borgata",
        "centroid_lon": 12.63001,
        "centroid_lat": 46.14309,
        "name_fur": "Cao Malnîs"
      },
      "geometry": {
        "type": "Polygon",
        "coordinates": [
          [
            [
              12.63001,
              46.145066
            ],
            [
              12.630566,
              46.145028
            ],
            [
              12.631102,
              46.144916
            ],
            [
              12.631595,
              46.144733
            ],
            [
              12.632027,
              46.144487
            ],
            [
              12.632382,
              46.144188
            ],
            [
              12.632645,
              46.143846
            ],
            [
              12.632808,
              46.143476
            ],
            [
              12.632862,
              46.14309
            ],
            [
              12.632808,
              46.142704
            ],
            [
              12.632645,
              46.142334
            ],
            [
              12.632382,
              46.141992
            ],
            [
              12.632027,
              46.141693
            ],
            [
              12.631595,
              46.141447
            ],
            [
              12.631102,
              46.141264
            ],
            [
              12.630566,
              46.141152
            ],
            [
              12.63001,
              46.141114
            ],
            [
              12.629454,
              46.141152
            ],
            [
              12.628918,
              46.141264
            ],
            [
              12.628425,
              46.141447
            ],
            [
              12.627993,
              46.141693
            ],
            [
              12.627638,
              46.141992
            ],
            [
              12.627375,
              46.142334
            ],
            [
              12.627212,
              46.142704
            ],
            [
              12.627158,
              46.14309
            ],
            [
              12.627212,
              46.143476
            ],
            [
              12.627375,
              46.143846
            ],
            [
              12.627638,
              46.144188
            ],
            [
              12.627993,
              46.144487
            ],
            [
              12.628425,
              46.144733
            ],
            [
              12.628918,
              46.144916
            ],
            [
              12.629454,
              46.145028
            ],
            [
              12.63001,
              46.145066
            ]
          ]
        ]
      }
    },
    {
      "type": "Feature",
      "properties": {
        "name": "San Rocco",
        "type": "borgata",
        "centroid_lon": 12.66098,
        "centroid_lat": 46.16649
      },
      "geometry": {
        "type": "Polygon",
        "coordinates": [
          [
            [
              12.66098,
              46.168287
            ],
            [
              12.661486,
              46.168252
            ],
            [
              12.661973,
              46.16815
            ],
            [
              12.662421,
              46.167984
            ],
            [
              12.662814,
              46.16776
            ],
            [
              12.663137,
              46.167488
            ],
            [
              12.663377,
              46.167178
            ],
            [
              12.663524,
              46.166841
            ],
            [
              12.663574,
              46.16649
            ],
            [
              12.663524,
              46.166139
            ],
            [
              12.663377,
              46.165802
            ],
            [
              12.663137,
              46.165492
            ],
            [
              12.662814,
              46.16522
            ],
            [
              12.662421,
              46.164996
            ],
            [
              12.661973,
              46.16483
            ],
            [
              12.661486,
              46.164728
            ],
            [
              12.66098,
              46.164693
            ],
            [
              12.660474,
              46.164728
            ],
            [
              12.659987,
              46.16483
            ],
            [
              12.659539,
              46.164996
            ],
            [
              12.659146,
              46.16522
            ],
            [
              12.658823,
              46.165492
            ],
            [
              12.658583,
              46.165802
            ],
            [
              12.658436,
              46.166139
            ],
            [
              12.658386,
              46.16649
            ],
            [
              12.658436,
              46.166841
            ],
            [
              12.658583,
              46.167178
            ],
            [
              12.658823,
              46.167488
            ],
            [
              12.659146,
              46.16776
            ],
            [
              12.659539,
              46.167984
            ],
            [
              12.659987,
              46.16815
            ],
            [
              12.660474,
              46.168252
            ],
            [
              12.66098,
              46.168287
            ]
          ]
        ]
      }
    }
  ]
}