{"type": "FeatureCollection", "features": [{"type": "Feature", "properties": {"class": "defibrillator", "name": null, "name:it": null, "source": "overpass", "osm_id": 6532816691, "emergency": "defibrillator", "opening_hours": "24/7"}, "geometry": {"type": "Point", "coordinates": [12.661542, 46.1598262]}}, {"type": "Feature", "properties": {"class": "defibrillator", "name": null, "name:it": null, "source": "overpass", "osm_id": 11627209469, "emergency": "defibrillator"}, "geometry": {"type": "Point", "coordinates": [12.6586468, 46.1520681]}}, {"type": "Feature", "properties": {"class": "defibrillator", "name": null, "name:it": null, "source": "overpass", "osm_id": 14142676519, "emergency": "defibrillator", "fixme": "posizione approssimata (geocodificata dall'indirizzo: Diga di Ravedis), da verificare sul posto"}, "geometry": {"type": "Point", "coordinates": [12.656892, 46.171965]}}, {"type": "Feature", "properties": {"class": "defibrillator", "name": null, "name:it": null, "source": "overpass", "osm_id": 14142676520, "emergency": "defibrillator", "fixme": "posizione approssimata (geocodificata dall'indirizzo: Via Roma 21), da verificare sul posto"}, "geometry": {"type": "Point", "coordinates": [12.661125, 46.162884]}}, {"type": "Feature", "properties": {"class": "defibrillator", "name": null, "name:it": null, "source": "overpass", "osm_id": 14142676521, "emergency": "defibrillator", "fixme": "posizione approssimata (geocodificata dall'indirizzo: Via Ponte Giulio 38), da verificare sul posto"}, "geometry": {"type": "Point", "coordinates": [12.66697, 46.153154]}}, {"type": "Feature", "properties": {"class": "defibrillator", "name": null, "name:it": null, "source": "overpass", "osm_id": 14142676522, "emergency": "defibrillator", "fixme": "posizione approssimata (geocodificata dall'indirizzo: Via Zona Industriale 5), da verificare sul posto"}, "geometry": {"type": "Point", "coordinates": [12.66223, 46.138885]}}, {"type": "Feature", "properties": {"class": "defibrillator", "name": null, "name:it": null, "source": "overpass", "osm_id": 14142676523, "emergency": "defibrillator", "fixme": "posizione approssimata (geocodificata dall'indirizzo: Via dell'Industria 1), da verificare sul posto"}, "geometry": {"type": "Point", "coordinates": [12.660094, 46.136072]}}, {"type": "Feature", "properties": {"class": "defibrillator", "name": null, "name:it": null, "source": "overpass", "osm_id": 14142676524, "emergency": "defibrillator", "fixme": "posizione approssimata (geocodificata dall'indirizzo: Piazza Giulio Cesare, San Leonardo Valcellina), da verificare sul posto"}, "geometry": {"type": "Point", "coordinates": [12.683641, 46.097546]}}, {"type": "Feature", "properties": {"class": "defibrillator", "name": null, "name:it": null, "source": "overpass", "osm_id": 14142676525, "emergency": "defibrillator", "fixme": "posizione approssimata (geocodificata dall'indirizzo: Via Alessandro Manzoni 13, Malnisio), da verificare sul posto"}, "geometry": {"type": "Point", "coordinates": [12.636475, 46.142978]}}, {"type": "Feature", "properties": {"class": "defibrillator", "name": null, "name:it": null, "source": "overpass", "osm_id": 14142676526, "emergency": "defibrillator", "fixme": "posizione approssimata (geocodificata dall'indirizzo: Centro Anziani Giacomello, Via Mazzini), da verificare sul posto"}, "geometry": {"type": "Point", "coordinates": [12.6505, 46.151945]}}, {"type": "Feature", "properties": {"class": "defibrillator", "name": null, "name:it": null, "source": "overpass", "osm_id": 14142676527, "emergency": "defibrillator", "fixme": "posizione approssimata (geocodificata dall'indirizzo: Via Marziano Ciotti 122), da verificare sul posto"}, "geometry": {"type": "Point", "coordinates": [12.656129, 46.155167]}}, {"type": "Feature", "properties": {"class": "defibrillator", "name": null, "name:it": null, "source": "overpass", "osm_id": 14142676528, "emergency": "defibrillator", "fixme": "posizione approssimata (geocodificata dall'indirizzo: Via Stazione 32), da verificare sul posto"}, "geometry": {"type": "Point", "coordinates": [12.657918, 46.153059]}}]}