{"type":"FeatureCollection","metadata":{"title":"Classe di pericolo incendi (SITFOR)","source":"Regione Autonoma Friuli-Venezia Giulia - IRDAT FVG (GeoServer ZONE_RISC)"},"features":[{"type":"Feature","id":1,"properties":{"grado":"medio"},"geometry":{"type":"MultiPolygon","coordinates":[[[[12.66110765,46.17299723],[12.66064654,46.17304666],[12.66028774,46.17301478],[12.66000783,46.1729534],[12.65968655,46.17303682],[12.65907913,46.17303909],[12.65861159,46.17289307],[12.65817335,46.1725839],[12.65805866,46.17244359],[12.65803801,46.17220623],[12.65779336,46.17196214],[12.65761038,46.17164034],[12.65746335,46.17126805],[12.65716887,46.17096744],[12.6567423,46.17066626],[12.65650939,46.1705078],[12.65640387,46.17031566],[12.65616826,46.17007603],[12.6559768,46.16980955],[12.65582056,46.16950964],[12.65568862,46.16914406],[12.65548456,46.16874071],[12.65535929,46.16843503],[12.65494317,46.16796116],[12.65453641,46.16762836],[12.65448852,46.1673819],[12.65440416,46.16705358],[12.65409828,46.16666094],[12.65360323,46.16621002],[12.6535309,46.16606015],[12.65307785,46.16580537],[12.65270896,46.16544986],[12.65251825,46.16523889],[12.65249339,46.16495662],[12.6522016,46.16489136],[12.65105817,46.16471577],[12.64950987,46.16476243],[12.64745171,46.16500954],[12.64633901,46.16509752],[12.64394076,46.16505004],[12.64216196,46.16503788],[12.64010349,46.16496105],[12.63713373,46.16489477],[12.63625133,46.16485058],[12.6357264,46.16478226],[12.63476716,46.1644288],[12.6335665,46.16394277],[12.63305237,46.1639125],[12.63221425,46.16369889],[12.63139542,46.16352983],[12.63073357,46.16348668],[12.62998413,46.16351038],[12.62890203,46.16368121],[12.62845333,46.16380733],[12.62778417,46.16446375],[12.62752212,46.16477411],[12.62709188,46.16525579],[12.626776,46.16537678],[12.62630849,46.16568973],[12.62589521,46.16566266],[12.62550131,46.16579185],[12.62525312,46.16625712],[12.62537343,46.16646622],[12.62542818,46.16674455],[12.62524157,46.16690503],[12.62482838,46.16698965],[12.62466018,46.16745223],[12.62437576,46.16766219],[12.62363922,46.16806572],[12.62310105,46.16819453],[12.6226848,46.16822755],[12.62241305,46.16847502],[12.62244334,46.16875529],[12.62238466,46.16896993],[12.62210643,46.16919963],[12.62199659,46.16929056],[12.62193255,46.16946585],[12.62184149,46.16981228],[12.62154557,46.17025257],[12.62096108,46.17070648],[12.62075735,46.17117321],[12.62055967,46.1713359],[12.61966277,46.17215616],[12.61959047,46.1725226],[12.6192346,46.17275068],[12.61883378,46.17287479],[12.61852786,46.17292729],[12.61821061,46.17297056],[12.6178125,46.17297616],[12.61726902,46.17296973],[12.61665738,46.17306981],[12.61635222,46.1734314],[12.61612594,46.1737652],[12.61590466,46.17426305],[12.61574667,46.17486114],[12.61572252,46.17541993],[12.61572007,46.17576922],[12.61574377,46.17601084],[12.61565487,46.17682164],[12.61541239,46.17717128],[12.61542498,46.17721121],[12.61545707,46.17731302],[12.61538833,46.17759614],[12.61506772,46.17789414],[12.61465638,46.17802731],[12.61430719,46.17791384],[12.61374996,46.17792008],[12.61275739,46.17784538],[12.61186122,46.17766476],[12.61072498,46.17764591],[12.60960397,46.17776474],[12.60898657,46.17815903],[12.60840649,46.17849808],[12.60790113,46.17854433],[12.60766452,46.17869907],[12.60765621,46.17904648],[12.60758613,46.17957108],[12.60762409,46.17994294],[12.60752959,46.18025097],[12.60710183,46.18076347],[12.60690885,46.18160863],[12.60672472,46.18243389],[12.60643188,46.18293079],[12.60636501,46.18323585],[12.60646235,46.18343413],[12.60645775,46.18386577],[12.60638512,46.1842371],[12.60606466,46.18462287],[12.60577089,46.18488164],[12.6057699,46.18522995],[12.60554332,46.18573052],[12.60551197,46.18612726],[12.6051273,46.1863645],[12.60465514,46.18650178],[12.60409124,46.18663714],[12.60374078,46.18689962],[12.60350263,46.18724201],[12.60338366,46.18727065],[12.60336605,46.18694955],[12.6033271818691,46.18646535839871],[12.6033451,46.1872961],[12.6032678,46.1876781],[12.6031907,46.1877776],[12.6031086,46.1878517],[12.6028493,46.1879516],[12.6025864,46.1879967],[12.6024032,46.1880224],[12.6021791,46.1880134],[12.6018825,46.1879946],[12.6014262,46.1880229],[12.6012042,46.1879635],[12.6010415,46.187939],[12.60057,46.1880345],[12.6002991,46.1879867],[12.5999681,46.1879207],[12.5995577,46.1878699],[12.599272,46.1878808],[12.5989007,46.1879067],[12.5987359,46.1879286],[12.5985895,46.1879465],[12.5984499,46.1879478],[12.5982569,46.1879185],[12.5979156,46.1878144],[12.5976694,46.1877544],[12.597409,46.1877405],[12.5971717,46.1877565],[12.5964142,46.1878713],[12.5959224,46.1878778],[12.5956786,46.1879022],[12.5952913,46.1880163],[12.5949241,46.1882277],[12.5948074,46.188398],[12.594754,46.1885065],[12.5947554,46.1886161],[12.5948886,46.1887623],[12.5949747,46.1888736],[12.5950897,46.1890193],[12.5951282,46.1891129],[12.5950936,46.1892091],[12.5949532,46.1893663],[12.5947377,46.1895767],[12.5945093,46.1898037],[12.5939927,46.1901006],[12.5937647,46.19018],[12.5935939,46.1902017],[12.5933994,46.1902061],[12.593182,46.1901804],[12.5930481,46.1901902],[12.5929855,46.1902352],[12.5928376,46.190426],[12.5927617,46.1906352],[12.5927128,46.1907817],[12.5926854,46.1908246],[12.5951972,46.1910642],[12.5956992,46.1911121],[12.5958198,46.1910642],[12.5980437,46.190182],[12.5991924,46.1902424],[12.6001532,46.1902739],[12.6004755,46.1902844],[12.6007194,46.1902924],[12.6011098,46.1904492],[12.6013155,46.1905318],[12.6019216,46.1906597],[12.6021434,46.1906794],[12.602345,46.1906974],[12.6030265,46.1907621],[12.6036649,46.190743],[12.6040299,46.1906931],[12.6043196,46.1905876],[12.6048702,46.1900843],[12.6055661,46.1895243],[12.6059123,46.1892457],[12.6066435,46.1888466],[12.6080466,46.1880808],[12.6091818,46.1873629],[12.6100272,46.186873],[12.6109689,46.186313],[12.6126052,46.1853932],[12.6141052,46.1843877],[12.6141889,46.1843714],[12.6143976,46.1843398],[12.6147249,46.1843214],[12.6150379,46.1842739],[12.6160725,46.1839607],[12.6167834,46.1837019],[12.6176485,46.183594],[12.6183406,46.1834104],[12.6193528,46.1831363],[12.6198843,46.1829493],[12.6199847,46.1829046],[12.6200486,46.1828663],[12.6204358,46.1827808],[12.6208849,46.1827037],[12.6211856,46.1825804],[12.6214882,46.1824139],[12.6218413,46.1821584],[12.6220362,46.1820869],[12.6223785,46.1819608],[12.622589,46.181886],[12.6228099,46.1818114],[12.6233236,46.1816781],[12.6237585,46.1815683],[12.6240536,46.1815356],[12.624232,46.1815524],[12.6244013,46.1815559],[12.6246053,46.1815209],[12.6251115,46.1813613],[12.6252778,46.1813255],[12.6255531,46.1811676],[12.6259328,46.1809415],[12.6260414,46.1808768],[12.6264861,46.1806113],[12.6272986,46.1802461],[12.6273697,46.1802141],[12.6279326,46.1800492],[12.6281978,46.1799041],[12.6282262,46.1799047],[12.6285952,46.1797521],[12.6287641,46.1796607],[12.6289481,46.1796515],[12.6291579,46.1797016],[12.62928,46.1797106],[12.6295012,46.1797152],[12.6296894,46.1797191],[12.6298068,46.1797249],[12.6299193,46.1797403],[12.6300609,46.1797302],[12.630151,46.1797189],[12.6302978,46.1796991],[12.6305148,46.1796904],[12.6306532,46.1796476],[12.6310301,46.1795343],[12.6314401,46.1794184],[12.6315732,46.1793765],[12.6318077,46.1793026],[12.6319271,46.179265],[12.6320909,46.179288],[12.6323857,46.1793334],[12.6324966,46.1793153],[12.6326913,46.1792837],[12.6327604,46.1792725],[12.6330645,46.1792101],[12.6332597,46.1791617],[12.6334632,46.1790285],[12.6336153,46.1791069],[12.6338509,46.1792132],[12.6340132,46.1792722],[12.6342511,46.1793262],[12.6346324,46.1793308],[12.6348535,46.1793354],[12.6350065,46.1792829],[12.6351067,46.1792334],[12.6351652,46.1792044],[12.6352149,46.1791989],[12.6353877,46.1791796],[12.6354879,46.179149],[12.635584,46.1791052],[12.6357456,46.178958],[12.6358234,46.178904],[12.6360765,46.1788242],[12.6361172,46.17878],[12.6361653,46.1787278],[12.6362512,46.1787002],[12.6363791,46.1787054],[12.6364158,46.1787068],[12.6369254,46.1787926],[12.6371038,46.1788094],[12.6374328,46.1788228],[12.6376215,46.1788168],[12.6378153,46.178798],[12.6378342,46.1787953],[12.6380001,46.1787723],[12.6380267,46.1789234],[12.6380151,46.178958],[12.6379779,46.1790696],[12.6379966,46.1791845],[12.6381297,46.179377],[12.6385918,46.1801324],[12.6388366,46.1800525],[12.6389214,46.1800248],[12.6396805,46.1797852],[12.6400287,46.1796845],[12.6401627,46.1796316],[12.6403055,46.1795986],[12.6404331,46.1795881],[12.6405526,46.179548],[12.6407358,46.1794472],[12.6408835,46.1794076],[12.6410101,46.1794201],[12.6412018,46.1794535],[12.6413237,46.1794659],[12.641428,46.1794516],[12.6415938,46.1794289],[12.6418122,46.1793876],[12.6419696,46.1793385],[12.6420922,46.1793377],[12.6421721,46.1793394],[12.6422625,46.1793184],[12.6424198,46.1792758],[12.6425488,46.1792326],[12.6426618,46.1792317],[12.6428124,46.1792381],[12.6429587,46.179228],[12.6431435,46.1792023],[12.6432764,46.179179],[12.643466,46.1791501],[12.6436614,46.1790953],[12.6438657,46.1790537],[12.6440927,46.1790322],[12.6443106,46.179004],[12.6445883,46.1788951],[12.6448239,46.1787823],[12.6449686,46.1787034],[12.645083,46.1786698],[12.6453541,46.17861],[12.6455693,46.1785327],[12.6457454,46.1784905],[12.6458877,46.178464],[12.6460455,46.1784116],[12.6462765,46.1782953],[12.646474,46.1781914],[12.6466901,46.1780944],[12.6468286,46.1780482],[12.6470601,46.1780301],[12.6473289,46.1780225],[12.6474651,46.1780319],[12.6477303,46.1779981],[12.6480142,46.1779679],[12.6483163,46.1779512],[12.6485386,46.1779263],[12.6487444,46.1778488],[12.6490704,46.1777149],[12.649247,46.1776596],[12.6494469,46.1776114],[12.6496482,46.1775271],[12.6498595,46.1774334],[12.6501189,46.1773143],[12.6503572,46.1772473],[12.6505517,46.1772121],[12.650743,46.177144],[12.6509058,46.1770819],[12.651118,46.1770765],[12.6512934,46.1770506],[12.6515171,46.176993],[12.65166,46.1769567],[12.6517412,46.176929],[12.6518358,46.1769211],[12.6520503,46.1768568],[12.6522831,46.1768125],[12.6524936,46.176735],[12.6527737,46.1766819],[12.6529828,46.1766371],[12.6532409,46.1765476],[12.653461,46.176467],[12.6536412,46.176438],[12.6537904,46.1763626],[12.6539472,46.1763298],[12.6541618,46.1762655],[12.6549817,46.1760336],[12.655231,46.1759309],[12.6553518,46.175858],[12.6554427,46.1757159],[12.6558342,46.1753674],[12.6561913,46.1749429],[12.6563556,46.1746223],[12.6564555,46.1742646],[12.6564705,46.174134],[12.656498,46.1739977],[12.6564829,46.1738268],[12.6565039,46.173685],[12.6564908,46.173553],[12.6565668,46.1734305],[12.6567881,46.1732981],[12.6572111,46.1731517],[12.6576149,46.1730191],[12.6578109,46.1735361],[12.6583127,46.1736876],[12.659542,46.1735164],[12.6605054,46.1735206],[12.6607626,46.1734976],[12.661281295966143,46.17345113321161],[12.66110765,46.17299723]]],[[[12.6032262,46.18351434],[12.603205436671566,46.18343140453798],[12.603215,46.1838668],[12.6032562,46.1847317],[12.6032838,46.1854951],[12.60330381077627,46.18591722052564],[12.6032262,46.18351434]]],[[[12.60187369,46.18069436],[12.601798311539191,46.18058969925697],[12.6019274,46.1809612],[12.6020823,46.18131],[12.6022869,46.1817652],[12.6025038,46.1820817],[12.602871273032342,46.1825951606474],[12.60187369,46.18069436]]],[[[12.60131115,46.17991329],[12.601276022393051,46.17988173016704],[12.601515409182788,46.18019689777883],[12.60131115,46.17991329]]],[[[12.60092037,46.1795622],[12.60033746,46.17917525],[12.600065493748547,46.17906802378895],[12.6005004,46.1793169],[12.6009074,46.1795826],[12.600990411623604,46.17962512776916],[12.60092037,46.1795622]]],[[[12.59871489,46.1777498],[12.598563474384061,46.17736333460452],[12.5985996,46.1775405],[12.5986675,46.1779339],[12.59878760096095,46.178230614158295],[12.59871489,46.1777498]]],[[[12.59845713,46.17684418],[12.598443267987584,46.176836636073055],[12.59845831230851,46.176852686594515],[12.59845713,46.17684418]]],[[[12.597537295405138,46.17634359142877],[12.5975708,46.1763683],[12.597741852256314,46.17645491451059],[12.597537295405138,46.17634359142877]]],[[[12.597194643955614,46.17586057943251],[12.5974531,46.1762815],[12.59748027649059,46.17630154179595],[12.597194643955614,46.17586057943251]]],[[[12.59606731,46.17412019],[12.59599730510938,46.17403759260036],[12.5960091,46.1740553],[12.596077310258169,46.17413562849855],[12.59606731,46.17412019]]],[[[12.59522039003664,46.17298354122554],[12.5952235,46.1730104],[12.595320095156914,46.173127913202116],[12.59522039003664,46.17298354122554]]],[[[12.59408288,46.17156158],[12.59424458021034,46.17106994651837],[12.5940499,46.1715442],[12.5941381,46.1716051],[12.594287800787061,46.171630661557316],[12.59408288,46.17156158]]],[[[12.59410402,46.16929543],[12.59379852,46.16917616],[12.59374484,46.16891215],[12.593734764205676,46.168904852865516],[12.5937469,46.1691691],[12.5937818,46.1692036],[12.59401,46.169259],[12.5941627,46.1695109],[12.594241110699869,46.169709078767475],[12.59410402,46.16929543]]],[[[12.59341323,46.16867199],[12.59309677,46.16845161],[12.592993699646883,46.16771107345532],[12.5930087,46.1678766],[12.5930317,46.1684586],[12.593677426934459,46.168863327823885],[12.59341323,46.16867199]]],[[[12.59253979,46.16711456],[12.59191707,46.16665897],[12.59129351,46.16622391],[12.59097811,46.16551905],[12.590858119621728,46.16528464370935],[12.5908586,46.165294],[12.5909588,46.1656417],[12.5910309,46.165795],[12.5911172,46.1660413],[12.5913883,46.1663631],[12.5916296,46.1665325],[12.5921196,46.1668421],[12.5926132,46.1672065],[12.592760942258028,46.16731909258895],[12.59253979,46.16711456]]],[[[12.59069398,46.16496399],[12.58925794,46.16348827],[12.58809847,46.1624439],[12.58707897,46.16166405],[12.5858352,46.16088387],[12.58521039222837,46.16048490012658],[12.5859039,46.1609705],[12.5866811,46.1615053],[12.5875649,46.1621014],[12.5882627,46.1626514],[12.5890258,46.1633713],[12.5897036,46.1639631],[12.5905562,46.1648577],[12.590735787793808,46.16504566329754],[12.59069398,46.16496399]]],[[[12.58189252,46.15803847],[12.581228226095822,46.15743535397466],[12.5816666,46.1578674],[12.5823894,46.1585359],[12.5824105,46.158608],[12.582619300295056,46.158750037789275],[12.58189252,46.15803847]]],[[[12.57946942,46.15585284],[12.57535679,46.15300032],[12.57252001,46.15093567],[12.57166524,46.15032071],[12.56970363,46.14943213],[12.56913202,46.14916718],[12.56707959,46.14763371],[12.56605154,46.14683009],[12.56488078268472,46.145989392801255],[12.5647599,46.146004],[12.5650424,46.1461746],[12.5655739,46.1465652],[12.5658062,46.1467282],[12.5670923,46.1476787],[12.5674517,46.1479182],[12.5682494,46.1485294],[12.5690249,46.149098],[12.569112,46.1491842],[12.569938,46.1495727],[12.5714596,46.1502709],[12.5722421,46.1508186],[12.5731365,46.1514403],[12.5738592,46.1519698],[12.5747666,46.1525749],[12.5754776,46.1530916],[12.5763186,46.153691],[12.5771434,46.1542439],[12.5780553,46.1548828],[12.5787794,46.1553828],[12.5795558,46.1559345],[12.57958264343441,46.15595330794881],[12.57946942,46.15585284]]]]}},{"type":"Feature","id":2,"properties":{"grado":"alta"},"geometry":{"type":"Polygon","coordinates":[[[12.68812167,46.12945141],[12.68430332,46.12829475],[12.68232657,46.13117869],[12.68115425,46.13288184],[12.68043436,46.13389259],[12.67888528,46.13616208],[12.67798826,46.13772243],[12.67648269,46.14058522],[12.67611708,46.14124477],[12.67536473,46.14226282],[12.67398899,46.14417223],[12.67332187,46.1449289],[12.67225663,46.14658998],[12.67107469,46.14783657],[12.66999002,46.14945308],[12.66954389,46.14998855],[12.66913508,46.15047572],[12.66901687,46.15076767],[12.66924495,46.15134906],[12.66910946,46.15158397],[12.66397586,46.14983354],[12.65838742,46.14790599],[12.65445404,46.14645162],[12.65335085,46.14600214],[12.65220023,46.14534072],[12.65134582,46.14468537],[12.65051191,46.14338284],[12.65009422,46.14241757],[12.64865222,46.138988],[12.6472489,46.13581433],[12.64577862,46.13239395],[12.64494932,46.13097664],[12.64324064,46.12836772],[12.64208118,46.12660214],[12.64091264,46.12488542],[12.63956934,46.12280204],[12.63845504,46.12114038],[12.63576189,46.1173021],[12.633735285220327,46.11477271109947],[12.6336771,46.1148175],[12.6336383,46.1148623],[12.6336179,46.1149587],[12.6335864,46.1152118],[12.6335565,46.1153366],[12.6335226,46.1154584],[12.6334647,46.1155684],[12.633202,46.1160532],[12.6327578,46.1168592],[12.6326732,46.1169173],[12.6325169,46.117219],[12.6324348,46.117414],[12.6323779,46.1175952],[12.6323243,46.1178877],[12.632276,46.1180577],[12.6320281,46.1183917],[12.6319955,46.1184851],[12.6319272,46.1187374],[12.6318865,46.1191128],[12.6318505,46.1192859],[12.6317304,46.1194088],[12.6314491,46.1195654],[12.6309721,46.1197922],[12.6306322,46.1199789],[12.6302301,46.1203696],[12.6296815,46.1208342],[12.6292606,46.1210906],[12.6284082,46.1214662],[12.6279878,46.1216171],[12.6277934,46.1216558],[12.6270543,46.121783],[12.6268849,46.1218137],[12.626583,46.1218786],[12.6262541,46.1219973],[12.6260329,46.1220867],[12.625259,46.1223557],[12.6251066,46.1223724],[12.6250169,46.122362],[12.624872,46.122302],[12.6246425,46.1222032],[12.624404,46.122127],[12.6241642,46.1220792],[12.6240311,46.1220651],[12.6239296,46.1221217],[12.6236873,46.1222282],[12.6235263,46.1223128],[12.6233709,46.1224104],[12.6232817,46.1224751],[12.6231857,46.1225546],[12.622887,46.1228274],[12.6227655,46.1229257],[12.6226253,46.12303],[12.6224601,46.1231382],[12.622372,46.1231793],[12.622278,46.1232138],[12.6221655,46.1232436],[12.6216858,46.1233495],[12.6213214,46.1234299],[12.6209469,46.1235001],[12.6214108,46.1242452],[12.6220774,46.1253633],[12.6225936,46.1261427],[12.6226814,46.1262591],[12.6227996,46.1264596],[12.6227981,46.1265015],[12.6227727,46.1265444],[12.6222176,46.1268303],[12.6218325,46.1270457],[12.6211916,46.1273824],[12.6211198,46.1274104],[12.6210163,46.1274235],[12.6209159,46.1274354],[12.6206012,46.1274577],[12.6204766,46.1274949],[12.620431,46.1275103],[12.6196135,46.1279569],[12.619153,46.1281705],[12.618645,46.1283929],[12.6179931,46.128721],[12.617463,46.1289811],[12.6173184,46.1290686],[12.6172476,46.1291068],[12.6166839,46.1293745],[12.6159611,46.1297344],[12.6154806,46.1300067],[12.6149181,46.1302961],[12.6148986,46.1303141],[12.6149177,46.1303475],[12.6150955,46.1305766],[12.6150709,46.1306187],[12.6147321,46.1308181],[12.6146824,46.1308433],[12.6142908,46.1309796],[12.6137296,46.1313436],[12.6126095,46.1319163],[12.6118885,46.1323306],[12.6109183,46.1330005],[12.6102557,46.1333901],[12.6092087,46.1338067],[12.6089731,46.1338825],[12.6086513,46.1340334],[12.6083397,46.1342039],[12.608115,46.1342799],[12.6077634,46.1344802],[12.6074674,46.134674],[12.6072787,46.1348162],[12.607134,46.1349632],[12.6070481,46.1350306],[12.6067836,46.1351327],[12.6064912,46.135242],[12.6062815,46.1353568],[12.6059924,46.13552],[12.6057747,46.1356924],[12.6055753,46.1358266],[12.6054567,46.1360087],[12.6053507,46.1361565],[12.6051268,46.1363441],[12.6048991,46.1364931],[12.6044601,46.1366648],[12.6038711,46.1368524],[12.6029405,46.1372635],[12.6015782,46.1378042],[12.6011725,46.1379726],[12.6006029,46.1383491],[12.599553,46.1390847],[12.599314,46.1392373],[12.5991065,46.1393022],[12.5989432,46.139368],[12.5988185,46.1394384],[12.5987094,46.1395285],[12.5986399,46.1396001],[12.5985867,46.1396797],[12.5985722,46.1397684],[12.5985641,46.1398177],[12.5984996,46.1399009],[12.5983919,46.1399602],[12.5983914,46.1399717],[12.5981952,46.1400292],[12.5979654,46.1400974],[12.5977694,46.1401548],[12.597368,46.1402233],[12.5970722,46.1402824],[12.5967824,46.1403302],[12.5965094,46.1403744],[12.5962809,46.1404119],[12.5960524,46.1404533],[12.5957719,46.1405396],[12.5952127,46.1406779],[12.5948991,46.1407637],[12.5946093,46.1408114],[12.5943741,46.1408756],[12.594178,46.1409331],[12.5938857,46.1410384],[12.5936554,46.1411182],[12.5934147,46.1411823],[12.5931801,46.1412351],[12.5929626,46.1412728],[12.5928023,46.1412694],[12.5926484,46.1412469],[12.5924892,46.1412167],[12.5923352,46.141198],[12.5921572,46.1412212],[12.5920229,46.141253],[12.5918875,46.1413117],[12.5917298,46.1413776],[12.5916268,46.1414562],[12.591359,46.1416314],[12.5912115,46.1417166],[12.5910762,46.1417753],[12.5909747,46.1418194],[12.5908128,46.1418544],[12.5906726,46.1418937],[12.5905438,46.1419333],[12.5904035,46.1419765],[12.5902735,46.1420391],[12.5900944,46.1420854],[12.5899385,46.142109],[12.5898168,46.1421103],[12.589654,46.1421607],[12.5894465,46.1422256],[12.589277,46.1423066],[12.5891307,46.1423612],[12.5889917,46.1423775],[12.5888858,46.1423945],[12.588834,46.1424434],[12.5887621,46.1425688],[12.5886395,46.1427162],[12.5885193,46.142806],[12.5884053,46.1428843],[12.5882652,46.1429236],[12.5880983,46.1429432],[12.5878644,46.1429806],[12.587657,46.1430416],[12.5875044,46.1431153],[12.5873158,46.1432536],[12.5870929,46.1434142],[12.5869571,46.1434845],[12.5867715,46.1435536],[12.5865917,46.1436153],[12.5863991,46.1437188],[12.5861881,46.1438605],[12.5860353,46.1439419],[12.5858761,46.1442924],[12.5852541,46.1443446],[12.5846484,46.1444048],[12.5841756,46.1444603],[12.5823557,46.1445709],[12.5819378,46.1446521],[12.5805697,46.144904],[12.5794016,46.1450844],[12.5783922,46.1453079],[12.5773695,46.1453618],[12.5761647,46.1454334],[12.5749663,46.1454764],[12.5736181,46.1455126],[12.5725231,46.1455614],[12.5700688,46.1456604],[12.5693216,46.1456913],[12.5681587,46.145753],[12.5665866,46.1458131],[12.5662495,46.145824],[12.56488078268472,46.145989392801255],[12.56605154,46.14683009],[12.56707959,46.14763371],[12.56913202,46.14916718],[12.56970363,46.14943213],[12.57166524,46.15032071],[12.57252001,46.15093567],[12.57535679,46.15300032],[12.57946942,46.15585284],[12.57958264343441,46.15595330794881],[12.5800148,46.1562561],[12.5810154,46.1572256],[12.581228226095822,46.15743535397466],[12.58189252,46.15803847],[12.582619300295056,46.158750037789275],[12.5831586,46.1591169],[12.5841897,46.1598089],[12.5849916,46.1603317],[12.58521039222837,46.16048490012658],[12.5858352,46.16088387],[12.58707897,46.16166405],[12.58809847,46.1624439],[12.58925794,46.16348827],[12.59069398,46.16496399],[12.590735787793808,46.16504566329754],[12.5908521,46.1651674],[12.590858119621728,46.16528464370935],[12.59097811,46.16551905],[12.59129351,46.16622391],[12.59191707,46.16665897],[12.59253979,46.16711456],[12.592760942258028,46.16731909258895],[12.5929772,46.1674839],[12.59298,46.1675599],[12.592993699646883,46.16771107345532],[12.59309677,46.16845161],[12.59341323,46.16867199],[12.593677426934459,46.168863327823885],[12.5937345,46.1688991],[12.593734764205676,46.168904852865516],[12.59374484,46.16891215],[12.59379852,46.16917616],[12.59410402,46.16929543],[12.594241110699869,46.169709078767475],[12.5944469,46.1702292],[12.5945113,46.1704202],[12.59424458021034,46.17106994651837],[12.59408288,46.17156158],[12.594287800787061,46.171630661557316],[12.5943911,46.1716483],[12.5945715,46.1716859],[12.5948035,46.1723482],[12.5952191,46.1729724],[12.59522039003664,46.17298354122554],[12.595320095156914,46.173127913202116],[12.5956959,46.1735851],[12.59599730510938,46.17403759260036],[12.59606731,46.17412019],[12.596077310258169,46.17413562849855],[12.5962168,46.1742999],[12.5969943,46.1755343],[12.597194643955614,46.17586057943251],[12.59748027649059,46.17630154179595],[12.597537295405138,46.17634359142877],[12.597741852256314,46.17645491451059],[12.5983959,46.1767861],[12.598443267987584,46.176836636073055],[12.59845713,46.17684418],[12.59845831230851,46.176852686594515],[12.5984886,46.176885],[12.5985297,46.1771977],[12.598563474384061,46.17736333460452],[12.59871489,46.1777498],[12.59878760096095,46.178230614158295],[12.598788,46.1782316],[12.5988711,46.1784145],[12.5989677,46.178564],[12.5992187,46.1786536],[12.5995295,46.1787613],[12.600065493748547,46.17906802378895],[12.60033746,46.17917525],[12.60092037,46.1795622],[12.600990411623604,46.17962512776916],[12.6011389,46.1797012],[12.601276022393051,46.17988173016704],[12.60131115,46.17991329],[12.601515409182788,46.18019689777883],[12.6016497,46.1803737],[12.601771,46.1805111],[12.601798311539191,46.18058969925697],[12.60187369,46.18069436],[12.602871273032342,46.1825951606474],[12.6028927,46.1826251],[12.6031717,46.1830482],[12.6031987,46.1831247],[12.603205436671566,46.18343140453798],[12.6032262,46.18351434],[12.60330381077627,46.18591722052564],[12.603325,46.1863642],[12.6033271818691,46.18646535839871],[12.60336605,46.18694955],[12.60338366,46.18727065],[12.60350263,46.18724201],[12.60374078,46.18689962],[12.60409124,46.18663714],[12.60465514,46.18650178],[12.6051273,46.1863645],[12.60551197,46.18612726],[12.60554332,46.18573052],[12.6057699,46.18522995],[12.60577089,46.18488164],[12.60606466,46.18462287],[12.60638512,46.1842371],[12.60645775,46.18386577],[12.60646235,46.18343413],[12.60636501,46.18323585],[12.60643188,46.18293079],[12.60672472,46.18243389],[12.60690885,46.18160863],[12.60710183,46.18076347],[12.60752959,46.18025097],[12.60762409,46.17994294],[12.60758613,46.17957108],[12.60765621,46.17904648],[12.60766452,46.17869907],[12.60790113,46.17854433],[12.60840649,46.17849808],[12.60898657,46.17815903],[12.60960397,46.17776474],[12.61072498,46.17764591],[12.61186122,46.17766476],[12.61275739,46.17784538],[12.61374996,46.17792008],[12.61430719,46.17791384],[12.61465638,46.17802731],[12.61506772,46.17789414],[12.61538833,46.17759614],[12.61545707,46.17731302],[12.61542498,46.17721121],[12.61541239,46.17717128],[12.61565487,46.17682164],[12.61574377,46.17601084],[12.61572007,46.17576922],[12.61572252,46.17541993],[12.61574667,46.17486114],[12.61590466,46.17426305],[12.61612594,46.1737652],[12.61635222,46.1734314],[12.61665738,46.17306981],[12.61726902,46.17296973],[12.6178125,46.17297616],[12.61821061,46.17297056],[12.61852786,46.17292729],[12.61883378,46.17287479],[12.6192346,46.17275068],[12.61959047,46.1725226],[12.61966277,46.17215616],[12.62055967,46.1713359],[12.62075735,46.17117321],[12.62096108,46.17070648],[12.62154557,46.17025257],[12.62184149,46.16981228],[12.62193255,46.16946585],[12.62199659,46.16929056],[12.62210643,46.16919963],[12.62238466,46.16896993],[12.62244334,46.16875529],[12.62241305,46.16847502],[12.6226848,46.16822755],[12.62310105,46.16819453],[12.62363922,46.16806572],[12.62437576,46.16766219],[12.62466018,46.16745223],[12.62482838,46.16698965],[12.62524157,46.16690503],[12.62542818,46.16674455],[12.62537343,46.16646622],[12.62525312,46.16625712],[12.62550131,46.16579185],[12.62589521,46.16566266],[12.62630849,46.16568973],[12.626776,46.16537678],[12.62709188,46.16525579],[12.62752212,46.16477411],[12.62778417,46.16446375],[12.62845333,46.16380733],[12.62890203,46.16368121],[12.62998413,46.16351038],[12.63073357,46.16348668],[12.63139542,46.16352983],[12.63221425,46.16369889],[12.63305237,46.1639125],[12.6335665,46.16394277],[12.63476716,46.1644288],[12.6357264,46.16478226],[12.63625133,46.16485058],[12.63713373,46.16489477],[12.64010349,46.16496105],[12.64216196,46.16503788],[12.64394076,46.16505004],[12.64633901,46.16509752],[12.64745171,46.16500954],[12.64950987,46.16476243],[12.65105817,46.16471577],[12.6522016,46.16489136],[12.65249339,46.16495662],[12.65251825,46.16523889],[12.65270896,46.16544986],[12.65307785,46.16580537],[12.6535309,46.16606015],[12.65360323,46.16621002],[12.65409828,46.16666094],[12.65440416,46.16705358],[12.65448852,46.1673819],[12.65453641,46.16762836],[12.65494317,46.16796116],[12.65535929,46.16843503],[12.65548456,46.16874071],[12.65568862,46.16914406],[12.65582056,46.16950964],[12.6559768,46.16980955],[12.65616826,46.17007603],[12.65640387,46.17031566],[12.65650939,46.1705078],[12.6567423,46.17066626],[12.65716887,46.17096744],[12.65746335,46.17126805],[12.65761038,46.17164034],[12.65779336,46.17196214],[12.65803801,46.17220623],[12.65805866,46.17244359],[12.65817335,46.1725839],[12.65861159,46.17289307],[12.65907913,46.17303909],[12.65968655,46.17303682],[12.66000783,46.1729534],[12.66028774,46.17301478],[12.66064654,46.17304666],[12.66110765,46.17299723],[12.661281295966143,46.17345113321161],[12.6619425,46.1733919],[12.6633904,46.1729217],[12.665261,46.1716405],[12.6666499,46.1700446],[12.6671502,46.1690308],[12.6679446,46.1670696],[12.6681162,46.1664812],[12.6681302,46.165964],[12.668488,46.1638322],[12.668879,46.1617922],[12.6694802,46.1608565],[12.6704019,46.1594221],[12.6726503,46.1567138],[12.6732026,46.1556657],[12.675779,46.152399],[12.6782554,46.1481481],[12.679748,46.1462862],[12.680656,46.1451535],[12.6830374,46.1416708],[12.6851858,46.1388895],[12.6876651,46.1354793],[12.6885124,46.1344959],[12.6901205,46.1326335],[12.691483907292305,46.130495781053185],[12.68812167,46.12945141]]]}}]}
