{"type":"FeatureCollection","metadata":{"title":"Perimetro degli incendi boschivi","source":"Regione Autonoma Friuli-Venezia Giulia - IRDAT FVG (GeoServer ZONE_RISC)"},"features":[{"type":"Feature","id":21,"properties":{"codice":"PNMAN199009","anno":1990,"comune":"Montereale Valcellina","localita":"NALE","data_inizio":"1990-03-12","durata":"3 ore","luogo_inizio":"Sentieri","vincoli_naturali":"Assenti","stato_vegetazione":"Secca","causa":"Dolose (volontarie)","causa_classe":"dolosa"},"geometry":{"type":"Polygon","coordinates":[[[12.62015258,46.16467123,0],[12.61991229,46.16460566,0],[12.61968377,46.16447978,0],[12.61961635,46.16434133,0],[12.6194888,46.16421436,0],[12.61934811,46.16417956,0],[12.61934586,46.16412533,0],[12.61942597,46.164076,0],[12.61962139,46.16411832,0],[12.61990301,46.16407638,0],[12.62013976,46.16401119,0],[12.62028367,46.16407793,0],[12.62046957,46.16423479,0],[12.62073313,46.1641861,0],[12.62099313,46.16422019,0],[12.62110106,46.16427025,0],[12.62083222,46.16433477,0],[12.62094973,46.16437547,0],[12.62101587,46.1644374,0],[12.62100108,46.16456778,0],[12.62110696,46.16463882,0],[12.62132249,46.1646669,0],[12.62131974,46.16473059,0],[12.62115912,46.1648388,0],[12.62109336,46.16498086,0],[12.62095853,46.16502267,0],[12.62089038,46.16511369,0],[12.62078291,46.16515926,0],[12.62065,46.16515649,0],[12.62047689,46.16502221,0],[12.62033944,46.1648058,0],[12.62015258,46.16467123,0]]]}},{"type":"Feature","id":6,"properties":{"codice":"PNMAN199014","anno":1990,"comune":"Montereale Valcellina","localita":"MONTE SPIA","data_inizio":"1990-03-21","durata":"7 ore 15 minuti","luogo_inizio":"Bosco","vincoli_naturali":"Assenti","stato_vegetazione":"Secca","causa":"Dolose (volontarie)","causa_classe":"dolosa"},"geometry":{"type":"Polygon","coordinates":[[[12.65392459,46.15851838,0],[12.65409742,46.15853054,0],[12.65419565,46.1586229,0],[12.65428762,46.15864415,0],[12.65436545,46.15863392,0],[12.65446055,46.15865416,0],[12.6545042,46.15871959,0],[12.65450119,46.15879051,0],[12.65455958,46.15887346,0],[12.65479391,46.15889548,0],[12.65494291,46.15895877,0],[12.65507369,46.15915936,0],[12.65512025,46.15922915,0],[12.65511788,46.15928504,0],[12.65501107,46.15932156,0],[12.65497759,46.15938111,0],[12.65504623,46.15958688,0],[12.65496817,46.15967563,0],[12.65483662,46.15971165,0],[12.65466451,46.1596823,0],[12.65456963,46.15965669,0],[12.65450642,46.15954138,0],[12.65436043,46.15948031,0],[12.65416886,46.15939893,0],[12.65416041,46.15930626,0],[12.65423138,46.15923888,0],[12.65421465,46.15919551,0],[12.654038,46.15912735,0],[12.6539847,46.15907032,0],[12.65381188,46.15898503,0],[12.65373894,46.15888027,0],[12.6536147,46.15874435,0],[12.65365148,46.15860743,0],[12.65379449,46.15859316,0],[12.65392459,46.15851838,0]]]}},{"type":"Feature","id":15,"properties":{"codice":"PNMAN199107","anno":1991,"comune":"Montereale Valcellina","localita":"SS 251 KM 60+600","data_inizio":"1991-12-16","durata":"15 minuti","luogo_inizio":"Strade","vincoli_naturali":"Assenti","stato_vegetazione":"Secca","causa":"Ignote (non classif.)","causa_classe":"ignota"},"geometry":{"type":"Polygon","coordinates":[[[12.64000593,46.16506354,0],[12.64000586,46.16515183,0],[12.63978485,46.16514862,0],[12.63956153,46.16519927,0],[12.63931788,46.16522658,0],[12.63905817,46.16522122,0],[12.63899482,46.16511477,0],[12.63905288,46.16503117,0],[12.63920673,46.16503891,0],[12.63969494,46.165049,0],[12.64000593,46.16506354,0]]]}},{"type":"Feature","id":16,"properties":{"codice":"PNMAN199202","anno":1992,"comune":"Montereale Valcellina","localita":"NALE","data_inizio":"1992-01-03","durata":"1 giorno 2 ore 30 minuti","luogo_inizio":"Strade","vincoli_naturali":"Assenti","stato_vegetazione":"Seccaginosa","causa":"Ignote (non classif.)","causa_classe":"ignota"},"geometry":{"type":"Polygon","coordinates":[[[12.61962124,46.17212658,0],[12.61953745,46.17208941,0],[12.61955378,46.17203574,0],[12.61960272,46.17196503,0],[12.61972986,46.17194105,0],[12.61975666,46.172001,0],[12.61962124,46.17212658,0]]]}},{"type":"Feature","id":18,"properties":{"codice":"PNMAN199216","anno":1992,"comune":"Montereale Valcellina","localita":"CAO MALNISIO","data_inizio":"1992-03-06","durata":"1 ora  40 minuti","luogo_inizio":"Strade","vincoli_naturali":"Assenti","stato_vegetazione":"Secca","causa":"Ignote (non classif.)","causa_classe":"ignota"},"geometry":{"type":"Polygon","coordinates":[[[12.63129838,46.14404505,0],[12.63125618,46.14402165,0],[12.63111386,46.14397545,0],[12.63106311,46.14405894,0],[12.63076924,46.14404159,0],[12.6307388,46.14432827,0],[12.63063265,46.14437265,0],[12.63050291,46.14433028,0],[12.63057266,46.14411331,0],[12.63063474,46.14390365,0],[12.63106522,46.14395201,0],[12.63118643,46.14388505,0],[12.63129838,46.14404505,0]]]}},{"type":"Feature","id":17,"properties":{"codice":"PNMAN199220","anno":1992,"comune":"Montereale Valcellina","localita":"COLLINA","data_inizio":"1992-03-20","durata":"24 minuti","luogo_inizio":"Altro","vincoli_naturali":"Assenti","stato_vegetazione":"Secca","causa":"Dolose (volontarie)","causa_classe":"dolosa"},"geometry":{"type":"Polygon","coordinates":[[[12.64870387,46.14912869,0],[12.64872278,46.14910894,0],[12.64782062,46.14892208,0],[12.64781703,46.14853631,0],[12.6484359,46.14839504,0],[12.64911873,46.1484381,0],[12.64933212,46.14872105,0],[12.64922475,46.14928176,0],[12.64889594,46.14935624,0],[12.64870387,46.14912869,0]]]}},{"type":"Feature","id":3,"properties":{"codice":"PNMAN199302","anno":1993,"comune":"Montereale Valcellina","localita":"MARIANE","data_inizio":"1993-01-06","durata":"19 ore 55 minuti","luogo_inizio":"Prati - Pascoli","vincoli_naturali":"Assenti","stato_vegetazione":"Secca","causa":"Dolose (volontarie)","causa_classe":"dolosa"},"geometry":{"type":"Polygon","coordinates":[[[12.62231515,46.13948941,0],[12.62114898,46.14026425,0],[12.62151684,46.14157863,0],[12.62043837,46.14324468,0],[12.62002227,46.14502087,0],[12.62009466,46.14587385,0],[12.62143817,46.14565735,0],[12.62304273,46.14698903,0],[12.62204873,46.14753319,0],[12.62200846,46.14846813,0],[12.62238697,46.1489734,0],[12.62211927,46.14899312,0],[12.62036962,46.14793661,0],[12.61991116,46.14759828,0],[12.61928658,46.14773702,0],[12.61852177,46.14718996,0],[12.61824888,46.14789243,0],[12.6179675,46.14851042,0],[12.61879282,46.14962358,0],[12.61903694,46.1509944,0],[12.61855313,46.15068082,0],[12.61830374,46.15140065,0],[12.61797833,46.15135171,0],[12.61748338,46.1507344,0],[12.6172204,46.15064461,0],[12.61663117,46.15024452,0],[12.61608811,46.15046081,0],[12.61578987,46.150345,0],[12.61528868,46.14874961,0],[12.61497483,46.14815293,0],[12.61542421,46.14701576,0],[12.61548385,46.14647746,0],[12.61528403,46.14632997,0],[12.61483748,46.1462785,0],[12.61448605,46.14627116,0],[12.61433128,46.14676533,0],[12.61322353,46.14713842,0],[12.61205427,46.14809193,0],[12.60973827,46.14835543,0],[12.60755483,46.147838,0],[12.6050135,46.14858801,0],[12.6041972,46.14830683,0],[12.6038021,46.14846715,0],[12.60228985,46.14837642,0],[12.60180721,46.14999337,0],[12.60118878,46.14998882,0],[12.60065336,46.15002816,0],[12.59941392,46.1497998,0],[12.5993115,46.15020231,0],[12.59835482,46.14988714,0],[12.59718668,46.15025038,0],[12.59663363,46.15041579,0],[12.5959164,46.15017308,0],[12.59567475,46.14987293,0],[12.59768752,46.14907557,0],[12.59814022,46.14840729,0],[12.59888009,46.14757137,0],[12.59893436,46.14688121,0],[12.5995662,46.14573951,0],[12.6002996,46.14644621,0],[12.60043465,46.14585048,0],[12.60020694,46.14550848,0],[12.60051794,46.14532954,0],[12.60088391,46.1444436,0],[12.60117693,46.14439917,0],[12.60131031,46.14495838,0],[12.60133243,46.14556584,0],[12.60156272,46.14584888,0],[12.60167882,46.14624755,0],[12.60173067,46.14672917,0],[12.60185821,46.14742315,0],[12.60220245,46.14619952,0],[12.60232261,46.14454967,0],[12.6029133,46.14379489,0],[12.60397921,46.14354747,0],[12.60472526,46.14312473,0],[12.6056637,46.14273973,0],[12.60583029,46.14225426,0],[12.6062109,46.14158779,0],[12.60723114,46.14099374,0],[12.60712624,46.14145522,0],[12.60791172,46.14040099,0],[12.60785939,46.14104904,0],[12.60821151,46.14103955,0],[12.60855472,46.1406758,0],[12.60858689,46.14021279,0],[12.60941883,46.14116599,0],[12.61055435,46.14183045,0],[12.61217752,46.14201492,0],[12.61238421,46.14186882,0],[12.61509976,46.14104865,0],[12.61599273,46.14023165,0],[12.61689318,46.13883513,0],[12.61849534,46.13852288,0],[12.61964908,46.13876611,0],[12.62042032,46.13916155,0],[12.62095766,46.13879337,0],[12.62231515,46.13948941,0]]]}},{"type":"Feature","id":1,"properties":{"codice":"PNMAN199303","anno":1993,"comune":"Montereale Valcellina","localita":"PRALUNC","data_inizio":"1993-01-08","durata":"15 minuti","luogo_inizio":"Prati - Pascoli","vincoli_naturali":"Assenti","stato_vegetazione":"Secca","causa":"Dolose (volontarie)","causa_classe":"dolosa"},"geometry":{"type":"Polygon","coordinates":[[[12.61765931,46.1305044,0],[12.61799559,46.13068485,0],[12.61802044,46.13090664,0],[12.61768854,46.13122266,0],[12.61645074,46.13180087,0],[12.61624294,46.13183242,0],[12.61607123,46.1316255,0],[12.61599483,46.13140263,0],[12.61615305,46.13112485,0],[12.61651546,46.13089918,0],[12.6168177,46.13067224,0],[12.61718355,46.13056625,0],[12.61765931,46.1305044,0]]]}},{"type":"Feature","id":5,"properties":{"codice":"PNMAN199311","anno":1993,"comune":"Montereale Valcellina","localita":"BUSA D'ALZETTA","data_inizio":"1993-04-18","durata":"35 minuti","luogo_inizio":"Strade","vincoli_naturali":"Assenti","stato_vegetazione":"Seccaginosa","causa":"Dolose (volontarie)","causa_classe":"dolosa"},"geometry":{"type":"Polygon","coordinates":[[[12.65078566,46.15725299,0],[12.65076097,46.15705634,0],[12.65089225,46.15705682,0],[12.65097225,46.15709324,0],[12.65089945,46.15723601,0],[12.65093868,46.15740297,0],[12.65086733,46.1573809,0],[12.65078566,46.15725299,0]]]}},{"type":"Feature","id":4,"properties":{"codice":"PNMAN199314","anno":1993,"comune":"Montereale Valcellina","localita":"SU PEL ROS","data_inizio":"1993-06-07","durata":"1 giorno 17 ore 30 minuti","luogo_inizio":"Bosco","vincoli_naturali":"Assenti","stato_vegetazione":"Seccaginosa","causa":"Naturali (fulmini)","causa_classe":"naturale"},"geometry":{"type":"Polygon","coordinates":[[[12.64068135,46.16270417,0],[12.640534,46.16239027,0],[12.64069027,46.16249549,0],[12.64105385,46.16347444,0],[12.64117088,46.16399657,0],[12.64096831,46.16416726,0],[12.64047298,46.1643076,0],[12.639944,46.16428835,0],[12.6395382,46.16409887,0],[12.63944363,46.16336833,0],[12.63951243,46.16339404,0],[12.63999191,46.16378766,0],[12.64020545,46.16353464,0],[12.64044844,46.16357366,0],[12.64051496,46.16365275,0],[12.64078264,46.16360485,0],[12.6408119,46.16341116,0],[12.64069704,46.16299107,0],[12.64068135,46.16270417,0]]]}},{"type":"Feature","id":13,"properties":{"codice":"PNMAN199401","anno":1994,"comune":"Montereale Valcellina","localita":"TEIS","data_inizio":"1994-01-23","durata":"24 minuti","luogo_inizio":"Bosco","vincoli_naturali":"Assenti","stato_vegetazione":"Secca","causa":"Ignote (non classif.)","causa_classe":"ignota"},"geometry":{"type":"Polygon","coordinates":[[[12.62641067,46.14202442,0],[12.62634652,46.14202309,0],[12.6262768,46.1420514,0],[12.62621629,46.14206502,0],[12.62616509,46.14206098,0],[12.62614058,46.14203369,0],[12.62615066,46.14199819,0],[12.62618967,46.1419871,0],[12.62624176,46.14197032,0],[12.62629283,46.14197734,0],[12.62638769,46.14196145,0],[12.62642944,46.14198613,0],[12.62644578,46.14200432,0],[12.62641067,46.14202442,0]]]}},{"type":"Feature","id":29,"properties":{"codice":"PNMAN199402","anno":1994,"comune":"Montereale Valcellina","localita":"BORGO ALZETTA-CULUSIT","data_inizio":"1994-02-07","durata":"29 minuti","luogo_inizio":"Prati - Pascoli","vincoli_naturali":"Assenti","stato_vegetazione":"Secca","causa":"Dolose (volontarie)","causa_classe":"dolosa"},"geometry":{"type":"MultiPolygon","coordinates":[[[[12.63703478,46.15223901,0],[12.63709579,46.15218584,0],[12.63720265,46.15212908,0],[12.63738143,46.15206927,0],[12.63766338,46.15203881,0],[12.63784364,46.15209697,0],[12.63788082,46.1521431,0],[12.63777894,46.15223625,0],[12.63767783,46.15231127,0],[12.63757252,46.15233178,0],[12.63743539,46.15233348,0],[12.63719217,46.15237381,0],[12.63709036,46.15231273,0],[12.63703478,46.15223901,0]]],[[[12.63814302,46.15211677,0],[12.63819615,46.15209519,0],[12.6382746,46.15209227,0],[12.63839598,46.15215375,0],[12.63841954,46.1522132,0],[12.63839746,46.15227172,0],[12.63831862,46.15228369,0],[12.63823366,46.15228647,0],[12.63820241,46.15225408,0],[12.63817271,46.15218542,0],[12.63814302,46.15211677,0]]]]}},{"type":"Feature","id":30,"properties":{"codice":"PNMAN199404","anno":1994,"comune":"Montereale Valcellina","localita":"MARIANNE","data_inizio":"1994-03-09","durata":"4 ore 30 minuti","luogo_inizio":"Bosco","vincoli_naturali":"Assenti","stato_vegetazione":"Secca","causa":"Ignote (non classif.)","causa_classe":"ignota"},"geometry":{"type":"Polygon","coordinates":[[[12.6230893,46.14352021,0],[12.62258017,46.14368098,0],[12.62223433,46.14365475,0],[12.62180319,46.14372936,0],[12.62164047,46.14408667,0],[12.6215743,46.1443187,0],[12.6213316,46.14447375,0],[12.62075476,46.14491932,0],[12.62041262,46.14545743,0],[12.62008768,46.1457934,0],[12.61981135,46.14606056,0],[12.61929881,46.14608796,0],[12.61880808,46.14603331,0],[12.61836487,46.14593522,0],[12.61802385,46.14622007,0],[12.61795461,46.14655501,0],[12.61717795,46.14698945,0],[12.61666112,46.14732775,0],[12.61649288,46.14762889,0],[12.61620349,46.14714049,0],[12.61684842,46.14637327,0],[12.61764159,46.14576781,0],[12.61793617,46.14550104,0],[12.61826812,46.14500897,0],[12.61856171,46.14480762,0],[12.6188553,46.14460628,0],[12.61957152,46.14435715,0],[12.62021469,46.1442291,0],[12.62056534,46.14403255,0],[12.6196893,46.14414271,0],[12.61911148,46.14432871,0],[12.61846668,46.14449445,0],[12.61816604,46.14454476,0],[12.61822059,46.1441995,0],[12.61937699,46.14383444,0],[12.61973916,46.14361566,0],[12.62008696,46.14341544,0],[12.62072143,46.14317403,0],[12.62117847,46.14295722,0],[12.621486,46.14274673,0],[12.62166261,46.14274098,0],[12.62173282,46.14268586,0],[12.62180221,46.14264958,0],[12.62243272,46.14244026,0],[12.62265314,46.14262256,0],[12.62294966,46.14294608,0],[12.62301866,46.14325217,0],[12.6230893,46.14352021,0]]]}},{"type":"Feature","id":33,"properties":{"codice":"PNMAN199405","anno":1994,"comune":"Montereale Valcellina","localita":"BUSA D'ALZETTA","data_inizio":"1994-04-06","durata":"","luogo_inizio":"Bosco","vincoli_naturali":"Assenti","stato_vegetazione":"Seccaginosa","causa":"Ignote (non classif.)","causa_classe":"ignota"},"geometry":{"type":"Polygon","coordinates":[[[12.64938594,46.15806301,0],[12.64934955,46.15796029,0],[12.64940131,46.15789338,0],[12.64950768,46.15788424,0],[12.64958026,46.15790273,0],[12.64962696,46.15795467,0],[12.64956802,46.15799878,0],[12.6495469,46.15811164,0],[12.64953587,46.15817939,0],[12.64947047,46.15818371,0],[12.64941562,46.1581316,0],[12.64938594,46.15806301,0]]]}},{"type":"Feature","id":31,"properties":{"codice":"PNMAN199502","anno":1995,"comune":"Montereale Valcellina","localita":"CAO-MALNISIO","data_inizio":"1995-01-17","durata":"40 minuti","luogo_inizio":"Poligoni Militari","vincoli_naturali":"Assenti","stato_vegetazione":"Seccaginosa","causa":"Colpose","causa_classe":"colposa"},"geometry":{"type":"Polygon","coordinates":[[[12.61801273,46.12888036,0],[12.61808145,46.12881864,0],[12.61811816,46.12873328,0],[12.61818762,46.12865435,0],[12.61832135,46.12861695,0],[12.61851564,46.12870712,0],[12.61862916,46.12875542,0],[12.61869095,46.12885431,0],[12.61868502,46.12899197,0],[12.61861432,46.12909958,0],[12.61858982,46.12909333,0],[12.61848835,46.12914863,0],[12.61835074,46.12918021,0],[12.61818962,46.12918259,0],[12.61804813,46.12920835,0],[12.61793189,46.12922315,0],[12.61784163,46.12920978,0],[12.61777934,46.12912236,0],[12.6177828,46.12904206,0],[12.61786827,46.12897495,0],[12.61801273,46.12888036,0]]]}},{"type":"Feature","id":26,"properties":{"codice":"PNMAN199504","anno":1995,"comune":"Montereale Valcellina","localita":"GHIREL","data_inizio":"1995-02-05","durata":"-15 minuti","luogo_inizio":"Prati - Pascoli","vincoli_naturali":"Assenti","stato_vegetazione":"Secca","causa":"Ignote (non classif.)","causa_classe":"ignota"},"geometry":{"type":"Polygon","coordinates":[[[12.64067415,46.13593303,0],[12.64062917,46.13587259,0],[12.64068663,46.13582639,0],[12.64090238,46.13576747,0],[12.6409445,46.1357463,0],[12.64095682,46.13568042,0],[12.64097715,46.13570564,0],[12.64100146,46.13573039,0],[12.64100061,46.13575021,0],[12.64100121,46.13577337,0],[12.64098904,46.13579846,0],[12.64097615,46.13582189,0],[12.64096037,46.13583865,0],[12.64095102,46.13585334,0],[12.64094397,46.13588846,0],[12.64091187,46.13589771,0],[12.6408893,46.13590662,0],[12.64087064,46.1359167,0],[12.64086909,46.1359343,0],[12.64084293,46.13593431,0],[12.64085073,46.13595597,0],[12.64085489,46.13596983,0],[12.6408043,46.13596658,0],[12.64078593,46.13595132,0],[12.64077435,46.13596265,0],[12.64077459,46.13599407,0],[12.64076357,46.13599219,0],[12.64072296,46.13597812,0],[12.64067415,46.13593303,0]]]}},{"type":"Feature","id":27,"properties":{"codice":"PNMAN199506","anno":1995,"comune":"Montereale Valcellina","localita":"AVANTI SPIA","data_inizio":"1995-03-10","durata":"-20 minuti","luogo_inizio":"Prati - Pascoli","vincoli_naturali":"Assenti","stato_vegetazione":"Secca","causa":"Ignote (non classif.)","causa_classe":"ignota"},"geometry":{"type":"Polygon","coordinates":[[[12.64959439,46.15794636,0],[12.6496061,46.15793367,0],[12.64965327,46.15793292,0],[12.64969782,46.15793556,0],[12.6497097,46.15794787,0],[12.64968575,46.15795686,0],[12.64967032,46.15796948,0],[12.64965249,46.15798032,0],[12.6496393,46.1579697,0],[12.6496261,46.15795908,0],[12.64961025,46.15795272,0],[12.64959439,46.15794636,0]]]}},{"type":"Feature","id":19,"properties":{"codice":"PNMAN199507","anno":1995,"comune":"Montereale Valcellina","localita":"AVANTI SPIA","data_inizio":"1995-03-11","durata":"2 ore 10 minuti","luogo_inizio":"Prati - Pascoli","vincoli_naturali":"Assenti","stato_vegetazione":"Secca","causa":"Ignote (non classif.)","causa_classe":"ignota"},"geometry":{"type":"Polygon","coordinates":[[[12.64958007,46.16056154,0],[12.64937727,46.16047669,0],[12.64940419,46.16045035,0],[12.6493301,46.16037262,0],[12.64921542,46.16033888,0],[12.64909827,46.16036337,0],[12.64902188,46.16033938,0],[12.6489908,46.16031185,0],[12.6489347,46.16026587,0],[12.64868019,46.16003203,0],[12.64865026,46.15997762,0],[12.64874239,46.15993469,0],[12.64877046,46.15988148,0],[12.64880913,46.15988228,0],[12.64883529,46.15987385,0],[12.64886413,46.15980272,0],[12.64882775,46.15974819,0],[12.64878569,46.1596756,0],[12.6487167,46.15962936,0],[12.648686,46.15959287,0],[12.64870724,46.15954848,0],[12.64870309,46.1594946,0],[12.64871259,46.15942308,0],[12.64892111,46.15937358,0],[12.64884683,46.15930033,0],[12.64912964,46.15932408,0],[12.64920736,46.15931671,0],[12.64923543,46.1592635,0],[12.6493014,46.159229,0],[12.64941078,46.15923573,0],[12.64942138,46.15928974,0],[12.64943823,46.15934836,0],[12.64955801,46.15941358,0],[12.64984868,46.15985884,0],[12.64981435,46.15990744,0],[12.64985093,46.1599575,0],[12.64980409,46.15999688,0],[12.64976352,46.16004087,0],[12.64977393,46.16009935,0],[12.64984311,46.16014112,0],[12.64990603,46.16017827,0],[12.64993253,46.16031329,0],[12.64987243,46.16036136,0],[12.64977915,46.16043116,0],[12.64971165,46.1605015,0],[12.64958007,46.16056154,0]]]}},{"type":"Feature","id":25,"properties":{"codice":"PNMAN199508","anno":1995,"comune":"Montereale Valcellina","localita":"COLLINA QUOTA 355 IGM","data_inizio":"1995-03-22","durata":"15 minuti","luogo_inizio":"Bosco","vincoli_naturali":"Assenti","stato_vegetazione":"Secca","causa":"Ignote (non classif.)","causa_classe":"ignota"},"geometry":{"type":"Polygon","coordinates":[[[12.64717089,46.14520802,0],[12.64719115,46.14539936,0],[12.64726181,46.14551931,0],[12.64727765,46.14559206,0],[12.64715519,46.14557637,0],[12.64696508,46.1455922,0],[12.64671848,46.14560029,0],[12.64653342,46.14549773,0],[12.64621945,46.14553076,0],[12.64607918,46.14548837,0],[12.64603523,46.14540847,0],[12.64614101,46.14537114,0],[12.64637009,46.14532978,0],[12.64664761,46.14526308,0],[12.64697132,46.14522366,0],[12.64717089,46.14520802,0]]]}},{"type":"Feature","id":46,"properties":{"codice":"PNMAN199601","anno":1996,"comune":"Montereale Valcellina","localita":"COL MARCIAN","data_inizio":"1996-02-02","durata":"1 ora  15 minuti","luogo_inizio":"Prati - Pascoli","vincoli_naturali":"Assenti","stato_vegetazione":"Seccaginosa","causa":"Dolose (volontarie)","causa_classe":"dolosa"},"geometry":{"type":"MultiPolygon","coordinates":[[[[12.62443428,46.13997616,0],[12.62442972,46.13987876,0],[12.62444585,46.13983425,0],[12.62452924,46.13982762,0],[12.62460992,46.13988403,0],[12.62462505,46.13993907,0],[12.62451703,46.1400098,0],[12.62443428,46.13997616,0]]],[[[12.62356981,46.14004104,0],[12.62355653,46.14004456,0],[12.62353581,46.14004337,0],[12.62350333,46.14003585,0],[12.62345359,46.14002266,0],[12.62337325,46.14003467,0],[12.62328829,46.14002682,0],[12.62325472,46.14001928,0],[12.62321774,46.14001471,0],[12.62319846,46.14000519,0],[12.62318919,46.13999207,0],[12.62317918,46.13997058,0],[12.62317185,46.13995028,0],[12.62314176,46.1399508,0],[12.62312216,46.13994887,0],[12.62310831,46.13994022,0],[12.62310112,46.13992943,0],[12.6230986,46.13991189,0],[12.62310057,46.13989141,0],[12.6231147,46.13986814,0],[12.62314806,46.13985515,0],[12.62317531,46.13985724,0],[12.62320017,46.13986384,0],[12.62323804,46.1398479,0],[12.62328587,46.13982913,0],[12.62331781,46.13982371,0],[12.6233484,46.13982435,0],[12.62338108,46.13982731,0],[12.62341206,46.13981883,0],[12.62343013,46.13980553,0],[12.62344923,46.13979376,0],[12.62351538,46.13980654,0],[12.62353592,46.13983737,0],[12.62354799,46.13986195,0],[12.62361673,46.13989074,0],[12.62362118,46.13996533,0],[12.62358167,46.13999415,0],[12.6235748,46.1400267,0],[12.62356981,46.14004104,0]]]]}},{"type":"Feature","id":38,"properties":{"codice":"PNMAN199605","anno":1996,"comune":"Montereale Valcellina","localita":"MARCIAN","data_inizio":"1996-03-02","durata":"5 ore 58 minuti","luogo_inizio":"Strade","vincoli_naturali":"Assenti","stato_vegetazione":"Secca","causa":"Dolose (volontarie)","causa_classe":"dolosa"},"geometry":{"type":"Polygon","coordinates":[[[12.61414717,46.14535879,0],[12.61407089,46.14542359,0],[12.61400078,46.14534552,0],[12.61383259,46.14532668,0],[12.61371602,46.14530382,0],[12.61361412,46.14528126,0],[12.61363443,46.14515145,0],[12.61370524,46.14504312,0],[12.61370121,46.14496642,0],[12.61378322,46.14476894,0],[12.61374872,46.14471715,0],[12.61377361,46.14465127,0],[12.61367817,46.14464928,0],[12.61355183,46.14468239,0],[12.61347775,46.14469617,0],[12.61348128,46.14461452,0],[12.61357057,46.14459972,0],[12.61367741,46.1445873,0],[12.61377802,46.14454922,0],[12.61369881,46.14451181,0],[12.61330481,46.1444474,0],[12.61314462,46.14441341,0],[12.61297909,46.14433334,0],[12.61318518,46.14398523,0],[12.61347782,46.14367469,0],[12.61583572,46.14335107,0],[12.61600728,46.1434619,0],[12.61586312,46.14237612,0],[12.61589999,46.14118176,0],[12.61579495,46.1410621,0],[12.61565291,46.14077822,0],[12.61544179,46.14073296,0],[12.61492842,46.14045246,0],[12.61573103,46.13981966,0],[12.61722507,46.13959035,0],[12.61740859,46.13959417,0],[12.61794145,46.13984533,0],[12.61802131,46.13986743,0],[12.61862839,46.13993116,0],[12.61875024,46.13983155,0],[12.61897002,46.13984634,0],[12.6192174,46.13990257,0],[12.61942588,46.14000906,0],[12.61956007,46.14013444,0],[12.61968627,46.14027497,0],[12.62006174,46.14025725,0],[12.62021084,46.14037783,0],[12.62037212,46.14038629,0],[12.62057032,46.14039042,0],[12.62074759,46.14036857,0],[12.62106861,46.14042122,0],[12.62127951,46.14047158,0],[12.62137789,46.14057578,0],[12.62136527,46.14069809,0],[12.62138496,46.14092323,0],[12.62143841,46.14104692,0],[12.62158773,46.14116239,0],[12.62173464,46.14133399,0],[12.62180212,46.1414733,0],[12.62173886,46.14174778,0],[12.6216982,46.14183887,0],[12.62162347,46.14186796,0],[12.62127876,46.14202422,0],[12.62110081,46.14206137,0],[12.62087281,46.14206684,0],[12.62081012,46.14215747,0],[12.62088889,46.14220508,0],[12.62124214,46.142192,0],[12.62178758,46.14204382,0],[12.6220927,46.14191142,0],[12.62224877,46.14185033,0],[12.62239045,46.1418022,0],[12.62256148,46.14175469,0],[12.62268606,46.14176239,0],[12.62270325,46.14187511,0],[12.62255314,46.14194859,0],[12.62243414,46.14198187,0],[12.62226847,46.14207546,0],[12.62217532,46.142191,0],[12.62223471,46.14217691,0],[12.62240223,46.14214333,0],[12.62262516,46.14203371,0],[12.62275344,46.14198114,0],[12.6228757,46.14196552,0],[12.62297965,46.14204298,0],[12.62302041,46.14218815,0],[12.62295817,46.14226857,0],[12.62274735,46.14238677,0],[12.62259055,46.14244479,0],[12.62246726,46.14248413,0],[12.62207295,46.14252085,0],[12.6217197,46.14253392,0],[12.62150131,46.14265706,0],[12.6211911,46.14286512,0],[12.62087477,46.14300111,0],[12.6205904,46.14316416,0],[12.62043837,46.14324468,0],[12.61997053,46.14339641,0],[12.61980793,46.14341856,0],[12.61956633,46.1433982,0],[12.6194767,46.14343209,0],[12.61927637,46.14364753,0],[12.61914269,46.1436805,0],[12.61894381,46.14369168,0],[12.61886424,46.14383303,0],[12.61899242,46.14392763,0],[12.61910768,46.14398111,0],[12.61929283,46.14411776,0],[12.61931648,46.14425104,0],[12.61833247,46.14457784,0],[12.61782225,46.14482258,0],[12.61726358,46.14516845,0],[12.61698557,46.14519769,0],[12.61681106,46.14509772,0],[12.61669977,46.14495239,0],[12.61659244,46.14471521,0],[12.61645941,46.14473287,0],[12.61628014,46.14480063,0],[12.61609528,46.14482742,0],[12.61611202,46.14495035,0],[12.61603156,46.14511211,0],[12.6157945,46.14532678,0],[12.61571558,46.14545282,0],[12.61562704,46.14546118,0],[12.61555517,46.14542393,0],[12.61555921,46.14550063,0],[12.61550605,46.14554038,0],[12.61541238,46.14549756,0],[12.61532759,46.14541918,0],[12.61527128,46.14536183,0],[12.61517115,46.14529845,0],[12.61505318,46.14513766,0],[12.61495095,46.14512275,0],[12.61414717,46.14535879,0]]]}},{"type":"Feature","id":39,"properties":{"codice":"PNMAN199606","anno":1996,"comune":"Montereale Valcellina","localita":"BLEVA","data_inizio":"1996-03-14","durata":"2 ore","luogo_inizio":"Strade","vincoli_naturali":"Assenti","stato_vegetazione":"Secca","causa":"Ignote (non classif.)","causa_classe":"ignota"},"geometry":{"type":"Polygon","coordinates":[[[12.65582916,46.16364733,0],[12.65566714,46.16365026,0],[12.6555385,46.16371428,0],[12.65538877,46.16374558,0],[12.65521015,46.16368046,0],[12.65513018,46.16358716,0],[12.6550227,46.16348727,0],[12.65480442,46.16335133,0],[12.65475484,46.16324823,0],[12.65479168,46.16315733,0],[12.65494463,46.16308548,0],[12.65513405,46.1630727,0],[12.6552787,46.16312566,0],[12.65545154,46.16322087,0],[12.65556826,46.16329617,0],[12.65569556,46.1633342,0],[12.65584313,46.16331848,0],[12.65610955,46.16325728,0],[12.65621421,46.16326359,0],[12.65625059,46.16332475,0],[12.65619869,46.16341743,0],[12.65615128,46.16347479,0],[12.65603911,46.16357456,0],[12.65582916,46.16364733,0]]]}},{"type":"Feature","id":40,"properties":{"codice":"PNMAN199610","anno":1996,"comune":"Montereale Valcellina","localita":"CAO MALNISIO","data_inizio":"1996-06-11","durata":"1 ora  30 minuti","luogo_inizio":"Poligoni Militari","vincoli_naturali":"Assenti","stato_vegetazione":"Seccaginosa","causa":"Colpose","causa_classe":"colposa"},"geometry":{"type":"Polygon","coordinates":[[[12.61473258,46.13335241,0],[12.6146222,46.13315282,0],[12.6146169,46.13306362,0],[12.61469473,46.13295705,0],[12.61485239,46.13290943,0],[12.61503585,46.13290054,0],[12.61518967,46.13294193,0],[12.61533911,46.13308505,0],[12.6154761,46.13330429,0],[12.61568598,46.1335314,0],[12.61573674,46.13362792,0],[12.61573427,46.13368514,0],[12.61560349,46.13374605,0],[12.61511658,46.1337868,0],[12.61501873,46.13372112,0],[12.61485987,46.13358416,0],[12.61473258,46.13335241,0]]]}},{"type":"Feature","id":12,"properties":{"codice":"PNAVI199707","anno":1997,"comune":"Montereale Valcellina","localita":"POLIGONO CAOMALNISIO","data_inizio":"1997-02-20","durata":"2 ore 30 minuti","luogo_inizio":"Prati - Pascoli","vincoli_naturali":"Assenti","stato_vegetazione":"Secca","causa":"Colpose","causa_classe":"colposa"},"geometry":{"type":"Polygon","coordinates":[[[12.61407404,46.13162807,0],[12.61370124,46.13188029,0],[12.61312319,46.1321366,0],[12.61237059,46.13252346,0],[12.61166465,46.13266806,0],[12.61120783,46.13291012,0],[12.61083501,46.13316232,0],[12.61040736,46.13328757,0],[12.60915548,46.13378139,0],[12.60873952,46.13391526,0],[12.6087793,46.13383222,0],[12.60872122,46.13378069,0],[12.6088954,46.13365852,0],[12.60883731,46.13360699,0],[12.60867248,46.13323451,0],[12.60841937,46.13322921,0],[12.60813192,46.13318126,0],[12.60781084,46.13307389,0],[12.60762562,46.13289388,0],[12.60751568,46.13153287,0],[12.60751415,46.13128962,0],[12.60775076,46.13111844,0],[12.60820287,46.13098532,0],[12.6084808,46.13097437,0],[12.60868859,46.13091162,0],[12.6088131,46.13082197,0],[12.60904556,46.13018941,0],[12.60917152,46.13006624,0],[12.60997231,46.12968042,0],[12.61038244,46.12968061,0],[12.61080173,46.12974809,0],[12.61182661,46.1300379,0],[12.61209331,46.1302867,0],[12.61248705,46.13038718,0],[12.61306964,46.13058387,0],[12.61365478,46.1307219,0],[12.61400104,46.13080461,0],[12.61429102,46.1307939,0],[12.61453423,46.13074865,0],[12.61480481,46.13062849,0],[12.61513312,46.13056825,0],[12.61519157,46.1306114,0],[12.61499559,46.13095957,0],[12.61495328,46.13110127,0],[12.61473309,46.13117216,0],[12.61438548,46.13139974,0],[12.61407404,46.13162807,0]]]}},{"type":"Feature","id":28,"properties":{"codice":"PNMAN199702","anno":1997,"comune":"Montereale Valcellina","localita":"COLLINA DI GRIZZO","data_inizio":"1997-02-02","durata":"","luogo_inizio":"Prati - Pascoli","vincoli_naturali":"Assenti","stato_vegetazione":"Secca","causa":"Ignote (non classif.)","causa_classe":"ignota"},"geometry":{"type":"Polygon","coordinates":[[[12.64691338,46.14941591,0],[12.64684708,46.14941915,0],[12.64676931,46.14938076,0],[12.64668075,46.14936284,0],[12.64663663,46.14931134,0],[12.64670653,46.14930128,0],[12.64674387,46.14927906,0],[12.64677519,46.14924291,0],[12.64683606,46.14921198,0],[12.64691199,46.14921584,0],[12.64696164,46.14929274,0],[12.64702716,46.14930789,0],[12.64706458,46.14936154,0],[12.64703005,46.14939532,0],[12.64696812,46.14941244,0],[12.64691338,46.14941591,0]]]}},{"type":"Feature","id":32,"properties":{"codice":"PNMAN199705","anno":1997,"comune":"Montereale Valcellina","localita":"MARCIAN MARIANE","data_inizio":"1997-02-23","durata":"15 ore","luogo_inizio":"Prati - Pascoli","vincoli_naturali":"Assenti","stato_vegetazione":"Secca","causa":"Dolose (volontarie)","causa_classe":"dolosa"},"geometry":{"type":"Polygon","coordinates":[[[12.61334197,46.144831,0],[12.61322313,46.14498451,0],[12.61305224,46.14485837,0],[12.61299818,46.14499653,0],[12.61267425,46.14507333,0],[12.61263054,46.14497213,0],[12.61258249,46.14497113,0],[12.61230155,46.14516582,0],[12.61204626,46.1451382,0],[12.61226362,46.14493104,0],[12.61210779,46.1448275,0],[12.61177158,46.14518817,0],[12.61156097,46.14523948,0],[12.61159191,46.14489471,0],[12.61125269,46.14495448,0],[12.61101004,46.14500512,0],[12.61113516,46.14470689,0],[12.61108602,46.14436044,0],[12.61038964,46.14452416,0],[12.61049308,46.14472689,0],[12.6105858,46.14480682,0],[12.61061109,46.14496335,0],[12.61049512,46.14505006,0],[12.61032641,46.1456148,0],[12.61022538,46.14535641,0],[12.61017577,46.1450211,0],[12.61008605,46.14524207,0],[12.61003174,46.14538579,0],[12.60996527,46.14544011,0],[12.60978753,46.14510212,0],[12.60976562,46.14486767,0],[12.60983836,46.14466863,0],[12.60978056,46.14452256,0],[12.60946217,46.14447133,0],[12.60947674,46.14450507,0],[12.60940593,46.14465958,0],[12.60927636,46.1446903,0],[12.608866,46.14380146,0],[12.60884977,46.14306572,0],[12.60911073,46.14259205,0],[12.60930339,46.14258494,0],[12.60960479,46.1426581,0],[12.60979938,46.14260646,0],[12.60936338,46.14193993,0],[12.60896327,46.14118502,0],[12.60915774,46.14076568,0],[12.60947118,46.14056053,0],[12.60990009,46.1402798,0],[12.61206612,46.1394894,0],[12.6117451,46.13875843,0],[12.6118159,46.13860392,0],[12.61197363,46.13866293,0],[12.61219494,46.13873441,0],[12.61239866,46.13847124,0],[12.61282321,46.13829069,0],[12.6134351,46.13822548,0],[12.61345944,46.13840427,0],[12.61358226,46.1385294,0],[12.6138103,46.13844502,0],[12.61425182,46.13824253,0],[12.61468549,46.13785046,0],[12.61501938,46.13791314,0],[12.61519857,46.13821773,0],[12.61546456,46.13836813,0],[12.61542628,46.13851218,0],[12.6156146,46.13860525,0],[12.61594242,46.13806611,0],[12.61622475,46.13783801,0],[12.6163479,46.13758431,0],[12.61663214,46.13731167,0],[12.61690726,46.13725056,0],[12.6176262,46.13730455,0],[12.61788282,46.13767203,0],[12.61771212,46.1379136,0],[12.61735165,46.13809551,0],[12.61689942,46.13817522,0],[12.61645743,46.13838885,0],[12.61659867,46.13845865,0],[12.61801303,46.13799787,0],[12.61821335,46.13781263,0],[12.61849279,46.13765132,0],[12.61886591,46.13754767,0],[12.61931382,46.13756814,0],[12.6196735,46.1377762,0],[12.61957516,46.13805231,0],[12.61947727,46.13809073,0],[12.6194247,46.13811174,0],[12.61925264,46.1380467,0],[12.61900349,46.13807423,0],[12.61863325,46.13811108,0],[12.61857513,46.13834386,0],[12.6186552,46.13834553,0],[12.61909831,46.13847733,0],[12.61945896,46.13866313,0],[12.61939748,46.13897383,0],[12.61934752,46.13901736,0],[12.61943065,46.13931994,0],[12.61955618,46.13901057,0],[12.61978935,46.13899314,0],[12.61985662,46.13910596,0],[12.6198909,46.13924039,0],[12.62002126,46.13937681,0],[12.62045461,46.13936355,0],[12.62082246,46.13938236,0],[12.62089486,46.13956214,0],[12.62112836,46.139723,0],[12.62111589,46.14001244,0],[12.62112567,46.1401575,0],[12.62029291,46.14014016,0],[12.61940971,46.14017747,0],[12.61927326,46.13999635,0],[12.61971957,46.13968252,0],[12.61959625,46.13956852,0],[12.61928046,46.13982936,0],[12.61867016,46.14022892,0],[12.61847702,46.14024718,0],[12.61842113,46.14005659,0],[12.618195,46.14009645,0],[12.6181436,46.14017337,0],[12.61824706,46.14037609,0],[12.61772738,46.14053239,0],[12.6176992,46.14044267,0],[12.61767437,46.14027501,0],[12.61753617,46.14050612,0],[12.61751775,46.14056145,0],[12.61666913,46.14091145,0],[12.61665581,46.14131233,0],[12.61660924,46.14155647,0],[12.61627035,46.14235165,0],[12.61605398,46.14253656,0],[12.61558567,46.14373017,0],[12.6153086,46.14383581,0],[12.61480442,46.14400357,0],[12.6141585,46.14411265,0],[12.61355245,46.14441198,0],[12.6135321,46.14451184,0],[12.61334197,46.144831,0]],[[12.61594059,46.14079298,0],[12.6162319,46.14074487,0],[12.61635481,46.1405689,0],[12.61626687,46.14034403,0],[12.61599273,46.14023165,0],[12.61578116,46.14053064,0],[12.61577051,46.14060703,0],[12.61594059,46.14079298,0]]]}},{"type":"Feature","id":14,"properties":{"codice":"PNMAN199712","anno":1997,"comune":"Montereale Valcellina","localita":"COLLINA","data_inizio":"1997-10-30","durata":"2 ore 10 minuti","luogo_inizio":"Prati - Pascoli","vincoli_naturali":"Assenti","stato_vegetazione":"Seccaginosa","causa":"Ignote (non classif.)","causa_classe":"ignota"},"geometry":{"type":"Polygon","coordinates":[[[12.64829851,46.14805726,0],[12.64836235,46.14806415,0],[12.64870487,46.14792634,0],[12.64897508,46.14779262,0],[12.64915302,46.14784921,0],[12.64923913,46.14780363,0],[12.64947536,46.1479032,0],[12.64960349,46.14790583,0],[12.64956862,46.14797197,0],[12.64962112,46.14805662,0],[12.649333,46.14823454,0],[12.64922865,46.14823796,0],[12.64919965,46.14835436,0],[12.6491624,46.14847616,0],[12.64906179,46.14857995,0],[12.64869974,46.1486115,0],[12.64828471,46.14856953,0],[12.64811985,46.14848814,0],[12.64808217,46.14843165,0],[12.64806805,46.14838679,0],[12.64810625,46.14824272,0],[12.6482389,46.1481396,0],[12.64829851,46.14805726,0]]]}},{"type":"Feature","id":22,"properties":{"codice":"PNMAN199801","anno":1998,"comune":"Montereale Valcellina","localita":"COMUNAI","data_inizio":"1998-02-10","durata":"1 ora  15 minuti","luogo_inizio":"Prati - Pascoli","vincoli_naturali":"Assenti","stato_vegetazione":"Secca","causa":"Ignote (non classif.)","causa_classe":"ignota"},"geometry":{"type":"Polygon","coordinates":[[[12.63576001,46.11936383,0],[12.6357429,46.11940149,0],[12.63557384,46.11953433,0],[12.63549722,46.11979783,0],[12.63553233,46.11999549,0],[12.63561453,46.1201108,0],[12.63557962,46.12016309,0],[12.63545454,46.12003175,0],[12.63525406,46.11962617,0],[12.63512509,46.11958563,0],[12.63510138,46.11963058,0],[12.63513297,46.11976364,0],[12.63508663,46.11995582,0],[12.63500426,46.12005013,0],[12.63485189,46.12008329,0],[12.63472414,46.12004692,0],[12.63455067,46.12002819,0],[12.63434961,46.12014521,0],[12.63420042,46.12017606,0],[12.63412077,46.12014804,0],[12.63403084,46.12006651,0],[12.63400768,46.11997136,0],[12.63407802,46.11987449,0],[12.63406973,46.11981373,0],[12.63401773,46.11973677,0],[12.63398304,46.11965652,0],[12.63415576,46.11956542,0],[12.63429396,46.11939029,0],[12.63446473,46.1193446,0],[12.63456737,46.1192369,0],[12.63474877,46.11907024,0],[12.63486565,46.11898523,0],[12.635008,46.11900723,0],[12.63505941,46.11908438,0],[12.63515184,46.11921505,0],[12.63527951,46.11928586,0],[12.63544276,46.11933857,0],[12.63573493,46.11933316,0],[12.63576001,46.11936383,0]]]}},{"type":"Feature","id":7,"properties":{"codice":"PNMAN199802","anno":1998,"comune":"Montereale Valcellina","localita":"POLIGONO CAO MALNISIO","data_inizio":"1998-02-15","durata":"1 ora  45 minuti","luogo_inizio":"Prati - Pascoli","vincoli_naturali":"Assenti","stato_vegetazione":"Secca","causa":"Dolose (volontarie)","causa_classe":"dolosa"},"geometry":{"type":"Polygon","coordinates":[[[12.61977445,46.13790394,0],[12.61976618,46.1380958,0],[12.61976342,46.13815976,0],[12.61929194,46.13816018,0],[12.61925048,46.13809283,0],[12.61925264,46.1380467,0],[12.61924414,46.1378981,0],[12.61933903,46.13775148,0],[12.61964417,46.13785001,0],[12.61977445,46.13790394,0]]]}},{"type":"Feature","id":23,"properties":{"codice":"PNMAN199804","anno":1998,"comune":"Montereale Valcellina","localita":"SAMONS","data_inizio":"1998-03-21","durata":"1 ora  19 minuti","luogo_inizio":"Sentieri","vincoli_naturali":"Assenti","stato_vegetazione":"Secca","causa":"Dolose (volontarie)","causa_classe":"dolosa"},"geometry":{"type":"MultiPolygon","coordinates":[[[[12.6556829,46.15654348,0],[12.65561766,46.15653563,0],[12.65568072,46.15637418,0],[12.65602343,46.15646584,0],[12.65594248,46.15660739,0],[12.6556829,46.15654348,0]]],[[[12.65629395,46.15659164,0],[12.65630911,46.15645524,0],[12.6564711,46.15650088,0],[12.6566331,46.15654651,0],[12.65656042,46.15657537,0],[12.65658216,46.15664312,0],[12.65629395,46.15659164,0]]]]}},{"type":"Feature","id":24,"properties":{"codice":"PNMAN199805","anno":1998,"comune":"Montereale Valcellina","localita":"SAMONS","data_inizio":"1998-03-28","durata":"1 ora","luogo_inizio":"Prati - Pascoli","vincoli_naturali":"Assenti","stato_vegetazione":"Secca","causa":"Colpose","causa_classe":"colposa"},"geometry":{"type":"Polygon","coordinates":[[[12.65651558,46.15651343,0],[12.65630911,46.15645524,0],[12.65621935,46.15644845,0],[12.6561016,46.15646317,0],[12.6559838,46.15644255,0],[12.65587407,46.15641352,0],[12.65581049,46.15638651,0],[12.65579673,46.15634767,0],[12.65588419,46.15631535,0],[12.65601906,46.1563019,0],[12.65614066,46.15630546,0],[12.65620162,46.15631394,0],[12.65635515,46.15629915,0],[12.65645636,46.15642011,0],[12.65651558,46.15651343,0]]]}},{"type":"Feature","id":11,"properties":{"codice":"PNMAN199902","anno":1999,"comune":"Montereale Valcellina","localita":"MARCIAN","data_inizio":"1999-01-31","durata":"1 ora","luogo_inizio":"Prati - Pascoli","vincoli_naturali":"Assenti","stato_vegetazione":"Secca","causa":"Dolose (volontarie)","causa_classe":"dolosa"},"geometry":{"type":"Polygon","coordinates":[[[12.6194247,46.13811174,0],[12.6193724,46.13808842,0],[12.61939206,46.13803193,0],[12.61947854,46.13794352,0],[12.61958425,46.13787296,0],[12.61969134,46.13794436,0],[12.61957516,46.13805231,0],[12.61947727,46.13809073,0],[12.6194247,46.13811174,0]]]}},{"type":"Feature","id":10,"properties":{"codice":"PNMAN199904","anno":1999,"comune":"Montereale Valcellina","localita":"MADONNA DELLA SALUTE","data_inizio":"1999-02-27","durata":"1 ora  30 minuti","luogo_inizio":"Bosco","vincoli_naturali":"Assenti","stato_vegetazione":"Secca","causa":"Dolose (volontarie)","causa_classe":"dolosa"},"geometry":{"type":"Polygon","coordinates":[[[12.64518142,46.14891289,0],[12.64511564,46.1489304,0],[12.64505304,46.14891912,0],[12.64502511,46.14889821,0],[12.64508981,46.14883954,0],[12.64517072,46.14883604,0],[12.64521594,46.14886521,0],[12.64521184,46.1488961,0],[12.64518142,46.14891289,0]]]}},{"type":"Feature","id":9,"properties":{"codice":"PNMAN199906","anno":1999,"comune":"Montereale Valcellina","localita":"CESARILE","data_inizio":"1999-02-27","durata":"2 ore","luogo_inizio":"Sentieri","vincoli_naturali":"Assenti","stato_vegetazione":"Secca","causa":"Dolose (volontarie)","causa_classe":"dolosa"},"geometry":{"type":"Polygon","coordinates":[[[12.63693185,46.15249188,0],[12.63698486,46.15243975,0],[12.63694587,46.15241419,0],[12.63692196,46.15234869,0],[12.63685322,46.15231008,0],[12.6368384,46.15220602,0],[12.6367892,46.15214874,0],[12.63659007,46.15209112,0],[12.6365812,46.1520692,0],[12.63664518,46.15205203,0],[12.63680072,46.15209451,0],[12.63712288,46.15206685,0],[12.63718748,46.15199955,0],[12.63726589,46.15189822,0],[12.63740486,46.15182387,0],[12.63751734,46.15179188,0],[12.63759588,46.15173524,0],[12.63770265,46.15169319,0],[12.63778545,46.15171505,0],[12.63782323,46.15166618,0],[12.63786381,46.15156963,0],[12.63792933,46.151517,0],[12.63800405,46.15153959,0],[12.63806809,46.15158313,0],[12.63835122,46.15173136,0],[12.63850549,46.15185361,0],[12.63851175,46.15191564,0],[12.63857651,46.15196341,0],[12.63890625,46.15206308,0],[12.63898409,46.1521173,0],[12.63892413,46.15216558,0],[12.63874655,46.15215263,0],[12.63847513,46.15214702,0],[12.63831487,46.15219445,0],[12.63820912,46.15224221,0],[12.63818905,46.15231474,0],[12.63811166,46.15232752,0],[12.63780037,46.15238973,0],[12.63771293,46.15241366,0],[12.63752719,46.15242698,0],[12.63744497,46.15251117,0],[12.63739835,46.15255301,0],[12.63727317,46.15259332,0],[12.63711356,46.15257286,0],[12.63693185,46.15249188,0]]]}},{"type":"Feature","id":44,"properties":{"codice":"PNMAN200001","anno":2000,"comune":"Montereale Valcellina","localita":"CIALCIARIA","data_inizio":"2000-01-23","durata":"1 ora  19 minuti","luogo_inizio":"Prati - Pascoli","vincoli_naturali":"Assenti","stato_vegetazione":"Secca","causa":"Dolose (volontarie)","causa_classe":"dolosa"},"geometry":{"type":"Polygon","coordinates":[[[12.62193789,46.13591824,0],[12.62181373,46.13594037,0],[12.62170174,46.13590015,0],[12.62163363,46.1358312,0],[12.62161148,46.13574015,0],[12.62167629,46.13566573,0],[12.62178042,46.13561354,0],[12.62190386,46.13560787,0],[12.62197869,46.13563084,0],[12.62208539,46.13568413,0],[12.62220049,46.13576229,0],[12.62219957,46.13578368,0],[12.62206095,46.13586645,0],[12.62193789,46.13591824,0]]]}},{"type":"Feature","id":47,"properties":{"codice":"PNMAN200002","anno":2000,"comune":"Montereale Valcellina","localita":"MARCIAN","data_inizio":"2000-01-27","durata":"1 ora  19 minuti","luogo_inizio":"Prati - Pascoli","vincoli_naturali":"Assenti","stato_vegetazione":"Secca","causa":"Ignote (non classif.)","causa_classe":"ignota"},"geometry":{"type":"Polygon","coordinates":[[[12.62245922,46.13896679,0],[12.62243409,46.13892686,0],[12.62244735,46.13889603,0],[12.62248672,46.13888233,0],[12.62252503,46.13889349,0],[12.62256751,46.13894623,0],[12.62262418,46.13901585,0],[12.62264869,46.13907028,0],[12.62264753,46.13909722,0],[12.62261114,46.13911098,0],[12.62257871,46.13910201,0],[12.62250993,46.13903629,0],[12.62245922,46.13896679,0]]]}},{"type":"Feature","id":35,"properties":{"codice":"PNMAN200003","anno":2000,"comune":"Montereale Valcellina","localita":"PRA MANZON CUOSTA","data_inizio":"2000-01-28","durata":"2 ore 30 minuti","luogo_inizio":"Bosco","vincoli_naturali":"Assenti","stato_vegetazione":"Secca","causa":"Dolose (volontarie)","causa_classe":"dolosa"},"geometry":{"type":"Polygon","coordinates":[[[12.62857298,46.13053598,0],[12.62861367,46.13055302,0],[12.62865398,46.13057906,0],[12.62868985,46.13064822,0],[12.62867845,46.1307295,0],[12.62864785,46.13078236,0],[12.62764982,46.13111088,0],[12.62747341,46.13081739,0],[12.62790686,46.13061216,0],[12.6281176,46.13052833,0],[12.62826818,46.13051885,0],[12.62839996,46.13052519,0],[12.62850846,46.13053104,0],[12.62857298,46.13053598,0]]]}},{"type":"Feature","id":42,"properties":{"codice":"PNMAN200006","anno":2000,"comune":"Montereale Valcellina","localita":"CIALCIARIE","data_inizio":"2000-02-20","durata":"2 ore 15 minuti","luogo_inizio":"Prati - Pascoli","vincoli_naturali":"Assenti","stato_vegetazione":"Secca","causa":"Dolose (volontarie)","causa_classe":"dolosa"},"geometry":{"type":"Polygon","coordinates":[[[12.62311884,46.13547049,0],[12.62330169,46.13516282,0],[12.62342182,46.13497398,0],[12.62352362,46.1349138,0],[12.62376139,46.13493263,0],[12.62405588,46.13501212,0],[12.62432606,46.13512868,0],[12.6245521,46.13525779,0],[12.62455156,46.13547487,0],[12.62435057,46.13592549,0],[12.62427063,46.13592383,0],[12.62411759,46.13583611,0],[12.62398364,46.135751,0],[12.62386162,46.13568617,0],[12.62367613,46.13560889,0],[12.6234202,46.13553238,0],[12.62311884,46.13547049,0]]]}},{"type":"Feature","id":43,"properties":{"codice":"PNMAN200008","anno":2000,"comune":"Montereale Valcellina","localita":"samons","data_inizio":"2000-02-27","durata":"49 minuti","luogo_inizio":"Strade","vincoli_naturali":"Assenti","stato_vegetazione":"Secca","causa":"Ignote (non classif.)","causa_classe":"ignota"},"geometry":{"type":"Polygon","coordinates":[[[12.65323295,46.15658715,0],[12.65280874,46.15671745,0],[12.65285778,46.15644012,0],[12.65288211,46.15638694,0],[12.65292145,46.1563516,0],[12.65310164,46.1562838,0],[12.65331856,46.15624363,0],[12.65337016,46.15625345,0],[12.65323295,46.15658715,0]]]}},{"type":"Feature","id":50,"properties":{"codice":"PNMAN200009","anno":2000,"comune":"Montereale Valcellina","localita":"SAMONS MONTE SPIA","data_inizio":"2000-02-27","durata":"1 ora  30 minuti","luogo_inizio":"Prati - Pascoli","vincoli_naturali":"Assenti","stato_vegetazione":"Secca","causa":"Dolose (volontarie)","causa_classe":"dolosa"},"geometry":{"type":"Polygon","coordinates":[[[12.65631862,46.15674304,0],[12.65653881,46.15684573,0],[12.65657586,46.1568842,0],[12.65656347,46.15692785,0],[12.65650623,46.15696535,0],[12.65642494,46.15696682,0],[12.65630304,46.15693296,0],[12.65620735,46.15688396,0],[12.65615957,46.15687566,0],[12.65599221,46.15695585,0],[12.65593647,46.15695784,0],[12.65589546,46.15693191,0],[12.65592583,46.15688968,0],[12.65611073,46.15682135,0],[12.65623835,46.15675602,0],[12.65631862,46.15674304,0]]]}},{"type":"Feature","id":51,"properties":{"codice":"PNMAN200010","anno":2000,"comune":"Montereale Valcellina","localita":"SAMONS    MONTE SPIA","data_inizio":"2000-03-06","durata":"2 ore","luogo_inizio":"Prati - Pascoli","vincoli_naturali":"Assenti","stato_vegetazione":"Secca","causa":"Dolose (volontarie)","causa_classe":"dolosa"},"geometry":{"type":"MultiPolygon","coordinates":[[[[12.65505671,46.15690543,0],[12.65495968,46.15680976,0],[12.65499122,46.15672844,0],[12.65505304,46.1566614,0],[12.65513673,46.15660847,0],[12.65523168,46.15662495,0],[12.65528581,46.15666485,0],[12.65532,46.15672348,0],[12.65525438,46.15681386,0],[12.65516697,46.15688818,0],[12.65505671,46.15690543,0]]],[[[12.65400159,46.15535831,0],[12.6539666,46.15530586,0],[12.65392913,46.15522147,0],[12.65435095,46.15500959,0],[12.65459255,46.15520581,0],[12.65471928,46.15532941,0],[12.65416428,46.15550342,0],[12.65406997,46.15540976,0],[12.65400159,46.15535831,0]]]]}},{"type":"Feature","id":52,"properties":{"codice":"PNMAN200012","anno":2000,"comune":"Montereale Valcellina","localita":"CIALCIARIA","data_inizio":"2000-03-19","durata":"45 minuti","luogo_inizio":"Bosco","vincoli_naturali":"Assenti","stato_vegetazione":"Secca","causa":"Dolose (volontarie)","causa_classe":"dolosa"},"geometry":{"type":"Polygon","coordinates":[[[12.61934244,46.13811025,0],[12.61924005,46.13806808,0],[12.61922366,46.13800292,0],[12.61927585,46.13793728,0],[12.61935446,46.13789507,0],[12.61948713,46.13787114,0],[12.61967295,46.13788645,0],[12.61977236,46.13793428,0],[12.61976425,46.13799512,0],[12.61965918,46.13807872,0],[12.61950618,46.13812891,0],[12.61934244,46.13811025,0]]]}},{"type":"Feature","id":41,"properties":{"codice":"PNMAN200013","anno":2000,"comune":"Montereale Valcellina","localita":"MARCIAN","data_inizio":"2000-03-19","durata":"1 ora  15 minuti","luogo_inizio":"Altro","vincoli_naturali":"Assenti","stato_vegetazione":"Secca","causa":"Dolose (volontarie)","causa_classe":"dolosa"},"geometry":{"type":"Polygon","coordinates":[[[12.62399397,46.13857428,0],[12.62383183,46.13866789,0],[12.62368037,46.1387294,0],[12.62353002,46.13876507,0],[12.62334028,46.13885164,0],[12.62330561,46.13879273,0],[12.62320311,46.13879706,0],[12.6231991,46.13867413,0],[12.62326014,46.13855255,0],[12.62330855,46.1385083,0],[12.62339385,46.13847128,0],[12.62346986,46.13843407,0],[12.62363629,46.13845693,0],[12.62381991,46.13851247,0],[12.62399397,46.13857428,0]]]}},{"type":"Feature","id":49,"properties":{"codice":"PNMAN200014","anno":2000,"comune":"Montereale Valcellina","localita":"su pel ros","data_inizio":"2000-03-21","durata":"3 ore 10 minuti","luogo_inizio":"Sentieri","vincoli_naturali":"Assenti","stato_vegetazione":"Secca","causa":"Ignote (non classif.)","causa_classe":"ignota"},"geometry":{"type":"Polygon","coordinates":[[[12.63712096,46.16050728,0],[12.63732832,46.1607118,0],[12.63739374,46.16069814,0],[12.63756198,46.16080674,0],[12.63799944,46.16102102,0],[12.63846,46.16120073,0],[12.63853069,46.16123223,0],[12.63849784,46.16132666,0],[12.63827263,46.16170745,0],[12.6382635,46.16175231,0],[12.63827683,46.16177762,0],[12.63834139,46.16178396,0],[12.63842206,46.16175058,0],[12.63848028,46.16173677,0],[12.63853152,46.1617178,0],[12.63858084,46.16174385,0],[12.63860093,46.16177931,0],[12.63857043,46.16181872,0],[12.63858354,46.16184903,0],[12.63881571,46.16197897,0],[12.63881477,46.16216917,0],[12.63883487,46.16220463,0],[12.63897518,46.16229263,0],[12.63907167,46.16239473,0],[12.63902043,46.1624137,0],[12.63905471,46.16245445,0],[12.63902485,46.16247887,0],[12.63896007,46.16247753,0],[12.63883436,46.16238483,0],[12.63874229,46.16234788,0],[12.63868557,46.16232669,0],[12.63849123,46.16232267,0],[12.63822342,46.16235218,0],[12.63805025,46.16235861,0],[12.63794207,46.16236138,0],[12.63786439,46.16232473,0],[12.63777232,46.16228779,0],[12.63771817,46.16220658,0],[12.63768655,46.16193561,0],[12.637527,46.16179215,0],[12.63748424,46.16178126,0],[12.63738476,46.16174916,0],[12.63728442,46.16173708,0],[12.63720525,46.16173544,0],[12.63714767,46.16173425,0],[12.63702767,46.16167671,0],[12.637008,46.16163125,0],[12.6367898,46.1615116,0],[12.63666895,46.16147406,0],[12.63652457,46.16148109,0],[12.63641789,46.16144885,0],[12.63636245,46.16139764,0],[12.63637985,46.16132792,0],[12.63646309,46.16123453,0],[12.63658275,46.16113189,0],[12.63665095,46.1610532,0],[12.6366315,46.16100274,0],[12.63658262,46.16096669,0],[12.63653609,46.16087563,0],[12.63658249,46.1608015,0],[12.63699497,46.16058977,0],[12.63712096,46.16050728,0]]]}},{"type":"Feature","id":36,"properties":{"codice":"PNMAN200101","anno":2001,"comune":"Montereale Valcellina","localita":"TEIS","data_inizio":"2001-02-27","durata":"3 ore","luogo_inizio":"Prati - Pascoli","vincoli_naturali":"Assenti","stato_vegetazione":"Secca","causa":"Ignote (non classif.)","causa_classe":"ignota"},"geometry":{"type":"Polygon","coordinates":[[[12.6216023,46.14204039,0],[12.62182392,46.14209691,0],[12.62202102,46.14221707,0],[12.622052,46.14231876,0],[12.62197088,46.1424681,0],[12.62175328,46.14263347,0],[12.62146987,46.14275028,0],[12.62120824,46.14283451,0],[12.62101812,46.14280123,0],[12.6209438,46.14266854,0],[12.62094332,46.14252222,0],[12.62112286,46.1422947,0],[12.62135342,46.14214376,0],[12.6216023,46.14204039,0]]]}},{"type":"Feature","id":37,"properties":{"codice":"PNMAN200102","anno":2001,"comune":"Montereale Valcellina","localita":"COLLINE GRIZZO","data_inizio":"2001-06-05","durata":"1 ora","luogo_inizio":"Prati - Pascoli","vincoli_naturali":"Assenti","stato_vegetazione":"Verde","causa":"Ignote (non classif.)","causa_classe":"ignota"},"geometry":{"type":"Polygon","coordinates":[[[12.64937239,46.14813868,0],[12.64928074,46.14813679,0],[12.64921778,46.14811017,0],[12.64919099,46.14806293,0],[12.64920986,46.14803052,0],[12.6492595,46.14801582,0],[12.6493526,46.14801337,0],[12.64943069,46.14803856,0],[12.64945971,46.14806926,0],[12.64942137,46.14810999,0],[12.64937239,46.14813868,0]]]}},{"type":"Feature","id":8,"properties":{"codice":"PNMAN200203","anno":2002,"comune":"Montereale Valcellina","localita":"Malnisio \"da Gino\"","data_inizio":"2002-02-24","durata":"49 minuti","luogo_inizio":"Prati - Pascoli","vincoli_naturali":"Assenti","stato_vegetazione":"Secca","causa":"Ignote (non classif.)","causa_classe":"ignota"},"geometry":{"type":"Polygon","coordinates":[[[12.62482847,46.12962949,0],[12.624345,46.12885904,0],[12.6248309,46.12867808,0],[12.62531406,46.12945617,0],[12.62482847,46.12962949,0]]]}},{"type":"Feature","id":34,"properties":{"codice":"PNMAN200301","anno":2003,"comune":"Montereale Valcellina","localita":"COLLINA DI GRIZZO","data_inizio":"2003-03-23","durata":"1 ora  49 minuti","luogo_inizio":"Sentieri","vincoli_naturali":"Assenti","stato_vegetazione":"Secca","causa":"Ignote (non classif.)","causa_classe":"ignota"},"geometry":{"type":"Polygon","coordinates":[[[12.64635239,46.14930841,0],[12.64634352,46.14925856,0],[12.64651295,46.14915315,0],[12.64678729,46.14910148,0],[12.64705119,46.14910118,0],[12.64719181,46.14915566,0],[12.64723112,46.14926537,0],[12.64719619,46.14937547,0],[12.64711516,46.14940628,0],[12.64699206,46.14939228,0],[12.64683347,46.14943678,0],[12.64664687,46.14942911,0],[12.64650365,46.14943572,0],[12.64643379,46.14939798,0],[12.64642307,46.14932707,0],[12.64635239,46.14930841,0]]]}},{"type":"Feature","id":20,"properties":{"codice":"PNMAN200303","anno":2003,"comune":"Montereale Valcellina","localita":"Prà Manzon","data_inizio":"2003-06-17","durata":"1 ora  19 minuti","luogo_inizio":"Prati - Pascoli","vincoli_naturali":"Assenti","stato_vegetazione":"Seccaginosa","causa":"Ignote (non classif.)","causa_classe":"ignota"},"geometry":{"type":"Polygon","coordinates":[[[12.62482847,46.12962949,0],[12.624345,46.12885904,0],[12.6248309,46.12867808,0],[12.62531406,46.12945617,0],[12.62482847,46.12962949,0]]]}},{"type":"Feature","id":2,"properties":{"codice":"PNMAN200401","anno":2004,"comune":"Montereale Valcellina","localita":"Marcian","data_inizio":"2004-02-09","durata":"1 ora  45 minuti","luogo_inizio":"Altro","vincoli_naturali":"Assenti","stato_vegetazione":"Secca","causa":"Colpose","causa_classe":"colposa"},"geometry":{"type":"Polygon","coordinates":[[[12.62264693,46.13924168,0],[12.6227162,46.13922293,0],[12.62275366,46.13926841,0],[12.6229449,46.13929884,0],[12.62299394,46.1393528,0],[12.62308907,46.13936463,0],[12.62313601,46.13941858,0],[12.6232164,46.139451,0],[12.62321259,46.13953956,0],[12.62319576,46.13964262,0],[12.62302884,46.13976969,0],[12.62298377,46.1398253,0],[12.6226399,46.13959775,0],[12.62252219,46.13961507,0],[12.62266323,46.13946534,0],[12.62268147,46.13942505,0],[12.622627,46.1394018,0],[12.62256937,46.13926025,0],[12.62264693,46.13924168,0]]]}},{"type":"Feature","id":53,"properties":{"codice":"PNMAN200402","anno":2004,"comune":"Montereale Valcellina","localita":"Marcian","data_inizio":"2004-03-03","durata":"24 minuti","luogo_inizio":"Prati - Pascoli","vincoli_naturali":"Assenti","stato_vegetazione":"Secca","causa":"Colpose","causa_classe":"colposa"},"geometry":{"type":"Polygon","coordinates":[[[12.62251347,46.13885837,0],[12.62259675,46.13883617,0],[12.62266514,46.13884696,0],[12.62270477,46.13889981,0],[12.62277115,46.13895738,0],[12.6227961,46.13900368,0],[12.62276232,46.13905812,0],[12.62261864,46.13909259,0],[12.62254956,46.13906306,0],[12.62247114,46.13893761,0],[12.62251347,46.13885837,0]]]}},{"type":"Feature","id":48,"properties":{"codice":"PNMAN200404","anno":2004,"comune":"Montereale Valcellina","localita":"BOSCH","data_inizio":"2004-12-11","durata":"2 ore 4 minuti","luogo_inizio":"Altro","vincoli_naturali":"Assenti","stato_vegetazione":"Secca","causa":"Ignote (non classif.)","causa_classe":"ignota"},"geometry":{"type":"Polygon","coordinates":[[[12.63184295,46.14471416,0],[12.63192657,46.14478452,0],[12.63205978,46.14485828,0],[12.63195152,46.14500523,0],[12.63158303,46.14509508,0],[12.63131681,46.14520717,0],[12.6315547,46.14495722,0],[12.6316173,46.14487398,0],[12.63156693,46.14479709,0],[12.63184295,46.14471416,0]]]}},{"type":"Feature","id":54,"properties":{"codice":"PNMAN200501","anno":2005,"comune":"Montereale Valcellina","localita":"PRAMANZON","data_inizio":"2005-02-06","durata":"54 minuti","luogo_inizio":"Altro","vincoli_naturali":"Assenti","stato_vegetazione":"Secca","causa":"Ignote (non classif.)","causa_classe":"ignota"},"geometry":{"type":"Polygon","coordinates":[[[12.62785866,46.12648638,0],[12.62770886,46.1263517,0],[12.62762945,46.12636127,0],[12.62725508,46.12583611,0],[12.62753415,46.12609632,0],[12.62765089,46.12611973,0],[12.62810047,46.12593806,0],[12.62831271,46.12627633,0],[12.62786675,46.12648283,0],[12.62785866,46.12648638,0]]]}},{"type":"Feature","id":45,"properties":{"codice":"PNMAN200502","anno":2005,"comune":"Montereale Valcellina","localita":"COLLINA","data_inizio":"2005-02-14","durata":"2 ore 55 minuti","luogo_inizio":"Sentieri","vincoli_naturali":"Assenti","stato_vegetazione":"Secca","causa":"Ignote (non classif.)","causa_classe":"ignota"},"geometry":{"type":"Polygon","coordinates":[[[12.6470922,46.14410012,0],[12.64707556,46.1439691,0],[12.64695078,46.14400862,0],[12.64690253,46.14400512,0],[12.64689879,46.14400238,0],[12.64684098,46.14395976,0],[12.64685791,46.14383989,0],[12.64688338,46.14380729,0],[12.64685926,46.14377185,0],[12.64690431,46.14366141,0],[12.64695705,46.14362902,0],[12.64697316,46.14349086,0],[12.64702752,46.14344371,0],[12.64698735,46.1433648,0],[12.64705411,46.14332654,0],[12.64721023,46.14333564,0],[12.64731395,46.14334944,0],[12.64734338,46.1433869,0],[12.64741126,46.1434112,0],[12.64751659,46.14349479,0],[12.64763625,46.14363699,0],[12.64766611,46.1436943,0],[12.64765583,46.14377433,0],[12.64762085,46.14391133,0],[12.6476396,46.14394733,0],[12.64765382,46.14404411,0],[12.64761069,46.14410509,0],[12.64751944,46.14421968,0],[12.64742702,46.1439795,0],[12.64734176,46.14405645,0],[12.64726179,46.14407199,0],[12.64723501,46.14412585,0],[12.6470922,46.14410012,0]]]}},{"type":"Feature","id":57,"properties":{"codice":"PNMAN200801","anno":2008,"comune":"Montereale Valcellina","localita":"PRALUNC","data_inizio":"2008-02-11","durata":"54 minuti","luogo_inizio":"Poligoni Militari","vincoli_naturali":"Assenti","stato_vegetazione":"Secca","causa":"Colpose","causa_classe":"colposa"},"geometry":{"type":"Polygon","coordinates":[[[12.61133393,46.13406707,0],[12.61109393,46.13404707,0],[12.61103393,46.13402707,0],[12.61096393,46.13397707,0],[12.61103393,46.13393707,0],[12.61107393,46.13384707,0],[12.61126392,46.13357708,0],[12.61137392,46.13350708,0],[12.61154391,46.13333708,0],[12.61161391,46.13327708,0],[12.61169391,46.13318708,0],[12.61174391,46.13316708,0],[12.61176391,46.13314708,0],[12.61180391,46.13309708,0],[12.6118649,46.13309808,0],[12.61187691,46.13312908,0],[12.61187591,46.13314308,0],[12.61184391,46.13322708,0],[12.61172792,46.13371107,0],[12.61167392,46.13372707,0],[12.61163392,46.13378707,0],[12.61152392,46.13384707,0],[12.61154392,46.13387707,0],[12.61152392,46.13393707,0],[12.61141393,46.13395707,0],[12.61133393,46.13406707,0]]]}},{"type":"Feature","id":62,"properties":{"codice":"PNMAN200902","anno":2009,"comune":"Montereale Valcellina","localita":"SERBATOIO DI RAVEDIS-MONTE FARA","data_inizio":"2009-03-21","durata":"6 ore 15 minuti","luogo_inizio":"Altro","vincoli_naturali":"Assenti","stato_vegetazione":"Secca","causa":"Ignote (non classif.)","causa_classe":"ignota"},"geometry":{"type":"Polygon","coordinates":[[[12.62626858,46.16721667,0],[12.62636357,46.16706065,0],[12.62678629,46.16715597,0],[12.62698457,46.16687388,0],[12.62745994,46.16686998,0],[12.62751309,46.16661142,0],[12.62762761,46.1662888,0],[12.62774777,46.16590447,0],[12.62820037,46.16559297,0],[12.62834722,46.16541992,0],[12.62864991,46.1653934,0],[12.62871863,46.16523205,0],[12.62899385,46.16520887,0],[12.6301135,46.16532705,0],[12.63079586,46.16534858,0],[12.63197955,46.16559988,0],[12.63241932,46.16585933,0],[12.63275517,46.16657411,0],[12.63291836,46.16760113,0],[12.63292702,46.16866927,0],[12.63253345,46.17078174,0],[12.63228535,46.17199594,0],[12.63189622,46.17330515,0],[12.63174883,46.17368892,0],[12.63141846,46.17359126,0],[12.63118842,46.17307123,0],[12.63068043,46.17188312,0],[12.63031661,46.17090094,0],[12.63012809,46.17041467,0],[12.62998502,46.17004337,0],[12.62969842,46.1692725,0],[12.62929798,46.16878169,0],[12.62822864,46.16781937,0],[12.62754822,46.16774051,0],[12.62693893,46.16784459,0],[12.62645934,46.16795406,0],[12.62611429,46.16796822,0],[12.62600346,46.16770204,0],[12.62610281,46.16752752,0],[12.62626858,46.16721667,0]]]}},{"type":"Feature","id":55,"properties":{"codice":"PNMAN201003","anno":2010,"comune":"Montereale Valcellina","localita":"Poligono di tiro Cao Malnisio","data_inizio":"2010-06-11","durata":"1 ora  4 minuti","luogo_inizio":"Poligoni Militari","vincoli_naturali":"Assenti","stato_vegetazione":"Seccaginosa","causa":"Colpose","causa_classe":"colposa"},"geometry":{"type":"Polygon","coordinates":[[[12.61270455,46.13179378,0],[12.61270706,46.13179249,0],[12.61277998,46.13182075,0],[12.6127568,46.13185787,0],[12.61279057,46.13188458,0],[12.61265587,46.13196119,0],[12.61265909,46.13198345,0],[12.61252742,46.13205495,0],[12.61255647,46.13209089,0],[12.61262566,46.13209806,0],[12.61269581,46.13213719,0],[12.6126939,46.13219524,0],[12.61265096,46.13224666,0],[12.61257913,46.13230174,0],[12.61249979,46.13232323,0],[12.61236794,46.13235075,0],[12.61219265,46.13244414,0],[12.61206892,46.13244778,0],[12.61201025,46.13247642,0],[12.61190528,46.1324718,0],[12.61176348,46.13251008,0],[12.61171755,46.13246069,0],[12.61170079,46.13238113,0],[12.61159307,46.1325166,0],[12.61167999,46.13253564,0],[12.6117143,46.13258451,0],[12.61168598,46.13261737,0],[12.61169208,46.13264475,0],[12.61148341,46.13273978,0],[12.61146086,46.13272681,0],[12.61140558,46.13275443,0],[12.61122173,46.13271946,0],[12.61110919,46.13274542,0],[12.61106276,46.13271539,0],[12.61103813,46.13262802,0],[12.61111928,46.13255565,0],[12.61106888,46.13251955,0],[12.61106081,46.13249534,0],[12.61090845,46.13245358,0],[12.6110374,46.13234991,0],[12.611039,46.13234963,0],[12.61109003,46.13221797,0],[12.61107385,46.13218789,0],[12.61110052,46.13216722,0],[12.61110909,46.13206093,0],[12.61123073,46.13205356,0],[12.61131523,46.13202184,0],[12.61141124,46.13190231,0],[12.61143932,46.13195039,0],[12.61153482,46.13194021,0],[12.61160387,46.13189806,0],[12.61169272,46.13192124,0],[12.61166308,46.13185442,0],[12.61177168,46.13181017,0],[12.61185804,46.13181603,0],[12.61189967,46.1317872,0],[12.61202224,46.13190866,0],[12.6121488,46.13184599,0],[12.61225401,46.13181098,0],[12.61231366,46.13185198,0],[12.6123913,46.1318143,0],[12.61249192,46.1318083,0],[12.61258883,46.13184634,0],[12.61270455,46.13179378,0]]]}},{"type":"Feature","id":56,"properties":{"codice":"PNMAN201004","anno":2010,"comune":"Montereale Valcellina","localita":"Centrale di Malnisio","data_inizio":"2010-07-11","durata":"15 minuti","luogo_inizio":"Altro","vincoli_naturali":"Assenti","stato_vegetazione":"Seccaginosa","causa":"Colpose","causa_classe":"colposa"},"geometry":{"type":"Polygon","coordinates":[[[12.63367991,46.14884051,0],[12.63363604,46.14885855,0],[12.6336036,46.14881406,0],[12.6335886,46.14878757,0],[12.63356486,46.14876733,0],[12.63359279,46.14874283,0],[12.6336089,46.14873459,0],[12.63365409,46.14875258,0],[12.63367507,46.14875296,0],[12.63365346,46.14878277,0],[12.63365187,46.14880526,0],[12.63368265,46.14883519,0],[12.63367991,46.14884051,0]]]}},{"type":"Feature","id":59,"properties":{"codice":"PNMAN201204","anno":2012,"comune":"Montereale Valcellina","localita":"Grizzo, Via Ciotti","data_inizio":"2012-03-27","durata":"14 ore 15 minuti","luogo_inizio":"Strade","vincoli_naturali":"Assenti","stato_vegetazione":"Secca","causa":"Dolose (volontarie)","causa_classe":"dolosa"},"geometry":{"type":"Polygon","coordinates":[[[12.65281074,46.1537691,-46.12818281],[12.65296882,46.15374137,-46.1280706],[12.653078,46.15378272,-46.12836694],[12.65328744,46.15390535,-46.1292029],[12.65346101,46.15401688,-46.12995684],[12.65350799,46.15409211,-46.13043918],[12.65355829,46.15418804,-46.13105068],[12.6536616,46.15429336,-46.13174003],[12.65377646,46.15440052,-46.13244508],[12.6539553,46.1545385,-46.13336443],[12.65409214,46.15461757,-46.13390414],[12.65413506,46.15480002,-46.13504742],[12.65421682,46.15492957,-46.13587843],[12.65424902,46.15515071,-46.13725673],[12.65413737,46.15528193,-46.13802571],[12.65403127,46.1553493,-46.13840226],[12.65386822,46.15521495,-46.1375112],[12.65379004,46.15521273,-46.13746828],[12.65374399,46.15525912,-46.13773768],[12.65363685,46.15530709,-46.137994],[12.65367679,46.15538066,-46.13846345],[12.6536385,46.15539115,-46.13851398],[12.653638,46.15539035,-46.13850885],[12.65349488,46.15526513,-46.13768167],[12.65362442,46.15513691,-46.13693789],[12.65369162,46.15506938,-46.13654578],[12.65348206,46.15500151,-46.13604809],[12.65349911,46.15490433,-46.1354541],[12.65334251,46.15473324,-46.13433844],[12.65334349,46.15473415,-46.13434444],[12.65319948,46.15458812,-46.13338839],[12.65319939,46.15458869,-46.13339186],[12.65308567,46.15446739,-46.13259994],[12.65303176,46.15425953,-46.13129553],[12.65287262,46.15417753,-46.13072938],[12.65266332,46.15396234,-46.12932165],[12.65254288,46.15395421,-46.12922634],[12.65258439,46.1538185,-46.12840344],[12.65281074,46.1537691,-46.12818281]]]}},{"type":"Feature","id":63,"properties":{"codice":"PNMAN201301","anno":2013,"comune":"Montereale Valcellina","localita":"Ravedis","data_inizio":"2013-07-25","durata":"2 ore 10 minuti","luogo_inizio":"Strade","vincoli_naturali":"Assenti","stato_vegetazione":"Verde","causa":"Colpose","causa_classe":"colposa"},"geometry":{"type":"Polygon","coordinates":[[[12.65581782,46.16940297,0],[12.65581231,46.16936658,0],[12.65587511,46.16935309,0],[12.65588947,46.16929415,0],[12.65580902,46.16921163,0],[12.65576538,46.16910977,0],[12.65580398,46.16906449,0],[12.65579483,46.16901901,0],[12.65580684,46.1689515,0],[12.65583448,46.16892095,0],[12.65587646,46.16891873,0],[12.6559158,46.1689312,0],[12.65600026,46.16906134,0],[12.65607483,46.16919846,0],[12.65615642,46.16938687,0],[12.65616397,46.16941513,0],[12.65607182,46.16940229,0],[12.65595199,46.16939984,0],[12.65589391,46.16940551,0],[12.65581782,46.16940297,0]]]}},{"type":"Feature","id":58,"properties":{"codice":"PNMAN201501","anno":2015,"comune":"Montereale Valcellina","localita":"Cao Malnisio Poligono Militare","data_inizio":"2015-02-10","durata":"1 ora  19 minuti","luogo_inizio":"Poligoni Militari","vincoli_naturali":"Assenti","stato_vegetazione":"Secca","causa":"Colpose","causa_classe":"colposa"},"geometry":{"type":"Polygon","coordinates":[[[12.61681372,46.13086025,0],[12.61692797,46.13106211,0],[12.61757652,46.13146746,0],[12.61751993,46.13254202,0],[12.61672917,46.13329493,0],[12.61638077,46.13329479,0],[12.61579015,46.13344632,0],[12.61522491,46.13348439,0],[12.61522614,46.13345592,0],[12.61472141,46.13351663,0],[12.61340858,46.1337813,0],[12.61469573,46.13292479,0],[12.61585466,46.1319516,0],[12.61637054,46.13115734,0],[12.61681372,46.13086025,0]]]}},{"type":"Feature","id":60,"properties":{"codice":"PNMAN201503","anno":2015,"comune":"Montereale Valcellina","localita":"Poligono Cao Malnisio","data_inizio":"2015-03-24","durata":"1 ora  34 minuti","luogo_inizio":"Prati - Pascoli","vincoli_naturali":"Assenti","stato_vegetazione":"Secca","causa":"Colpose","causa_classe":"colposa"},"geometry":{"type":"Polygon","coordinates":[[[12.6118652,46.13223154,0],[12.61169455,46.13234388,0],[12.61173618,46.13238781,0],[12.61145386,46.13264827,0],[12.61073749,46.13310646,0],[12.60986091,46.13341793,0],[12.609754,46.13333315,0],[12.60976644,46.13324684,0],[12.61031143,46.13268517,0],[12.61047395,46.13242327,0],[12.61098332,46.13216698,0],[12.61126689,46.1320989,0],[12.61145055,46.13198708,0],[12.61157627,46.13182503,0],[12.61184142,46.13197457,0],[12.6118652,46.13223154,0]]]}},{"type":"Feature","id":61,"properties":{"codice":"PNMAN201504","anno":2015,"comune":"Montereale Valcellina","localita":"Poligono Cao Malnisio","data_inizio":"2015-03-24","durata":"2 ore 55 minuti","luogo_inizio":"Poligoni Militari","vincoli_naturali":"Assenti","stato_vegetazione":"Secca","causa":"Colpose","causa_classe":"colposa"},"geometry":{"type":"Polygon","coordinates":[[[12.61183865,46.13498128,0],[12.61221485,46.13472739,0],[12.61248481,46.13462775,0],[12.61276288,46.13452787,0],[12.61291411,46.13453885,0],[12.61299545,46.13460696,0],[12.61284549,46.13482651,0],[12.61281523,46.13487667,0],[12.61312589,46.13496911,0],[12.61309702,46.13511696,0],[12.61321481,46.13519774,0],[12.61314764,46.13537587,0],[12.61304428,46.13555733,0],[12.61321325,46.13567806,0],[12.61315619,46.13595815,0],[12.61310694,46.13618763,0],[12.61302227,46.1363265,0],[12.61288518,46.13637833,0],[12.61276716,46.1365087,0],[12.61260385,46.136517,0],[12.61234236,46.13645685,0],[12.61213659,46.13666742,0],[12.6119629,46.13665597,0],[12.61173547,46.13671764,0],[12.61163733,46.13677809,0],[12.6113173,46.13664248,0],[12.61115487,46.13664773,0],[12.61104259,46.13675785,0],[12.61097696,46.13684633,0],[12.61067212,46.13687902,0],[12.61065321,46.13679659,0],[12.61090562,46.13667685,0],[12.61080744,46.13660838,0],[12.61092424,46.13637641,0],[12.61078456,46.13635787,0],[12.61102495,46.13586673,0],[12.61114343,46.13559574,0],[12.61127352,46.13544609,0],[12.61142551,46.1351797,0],[12.61156957,46.13509676,0],[12.61178711,46.13500364,0],[12.61183865,46.13498128,0]]]}},{"type":"Feature","id":64,"properties":{"codice":"PNBAR202102","anno":2021,"comune":"Montereale Valcellina","localita":"Sentiero del Pellegrin","data_inizio":"2021-08-05","durata":"1 ora  19 minuti","luogo_inizio":"Altro","stato_vegetazione":"Seccaginosa","causa":"Ignote (non classif.)","causa_classe":"ignota"},"geometry":{"type":"Polygon","coordinates":[[[12.68883389,46.12273905,0],[12.68881663,46.12269982,0],[12.68884881,46.12267459,0],[12.68885049,46.12267233,0],[12.68886139,46.1226673,0],[12.68887195,46.12265581,0],[12.6889235,46.12263595,0],[12.68896331,46.12265271,0],[12.68896373,46.12265439,0],[12.68901855,46.12263142,0],[12.68903799,46.12261164,0],[12.68904654,46.12262086,0],[12.68905191,46.1226196,0],[12.68905677,46.12259731,0],[12.68904126,46.12254182,0],[12.68902617,46.12247015,0],[12.68899701,46.12243671,0],[12.68897647,46.12243822,0],[12.68896993,46.12243839,0],[12.6889753,46.12239019,0],[12.68898762,46.12239522,0],[12.68900949,46.12239639,0],[12.68908158,46.12239396,0],[12.68907018,46.12240016,0],[12.68908284,46.12239832,0],[12.68909315,46.12239296,0],[12.68917152,46.12237418,0],[12.68924746,46.12235842,0],[12.68924721,46.12235448,0],[12.68919021,46.12232531,0],[12.68917998,46.1223171,0],[12.68919926,46.12230101,0],[12.68925559,46.12228332,0],[12.68932097,46.12231232,0],[12.68935558,46.12234476,0],[12.68935022,46.12238399,0],[12.68934938,46.12241684,0],[12.68935047,46.12241601,0],[12.68935625,46.12245557,0],[12.68942264,46.12249463,0],[12.68942817,46.1224927,0],[12.68943588,46.12249492,0],[12.68944376,46.12250234,0],[12.68944485,46.12250184,0],[12.68944426,46.12250133,0],[12.68944351,46.12249882,0],[12.68947394,46.12253813,0],[12.68946044,46.1226082,0],[12.68941769,46.12264416,0],[12.68933798,46.12272949,0],[12.68929766,46.12274583,0],[12.68923321,46.12277257,0],[12.6892286,46.12277391,0],[12.68914319,46.12281532,0],[12.68913732,46.12282102,0],[12.68911167,46.12282764,0],[12.68900765,46.12280107,0],[12.68896985,46.12278431,0],[12.68894923,46.12277919,0],[12.68894311,46.12277819,0],[12.68888301,46.12271884,0],[12.68885736,46.12273385,0],[12.68883389,46.12273905,0]]]}},{"type":"Feature","id":65,"properties":{"codice":"PNBAR202201","anno":2022,"comune":"Montereale Valcellina","localita":"Col de Miu","data_inizio":"2022-07-23","durata":"11 ore 42 minuti","luogo_inizio":"Bosco","stato_vegetazione":"Secca","causa":"Naturali (fulmini)","causa_classe":"naturale"},"geometry":{"type":"Polygon","coordinates":[[[12.62203756,46.14604841,0],[12.62198351,46.14597315,0],[12.62198933,46.1459324,0],[12.62208289,46.14588042,0],[12.62216439,46.14590662,0],[12.62218768,46.14595277,0],[12.62218953,46.14595341,0],[12.62225213,46.14597481,0],[12.62218934,46.14598562,0],[12.62215316,46.14601723,0],[12.62212489,46.14603469,0],[12.62204471,46.14604691,0],[12.62203892,46.1460481,0],[12.62203756,46.14604841,0]]]}}]}
