{"type":"FeatureCollection","metadata":{"title":"Punti di innesco incendi","source":"Regione Autonoma Friuli-Venezia Giulia - IRDAT FVG (GeoServer ZONE_RISC)"},"features":[{"type":"Feature","id":56,"properties":{"anno":1990,"sigla_staz":"PNMAN","num_fnib":14},"geometry":{"type":"Point","coordinates":[12.65436679,46.15903949]}},{"type":"Feature","id":167,"properties":{"anno":1990,"sigla_staz":"PNMAN","num_fnib":9},"geometry":{"type":"Point","coordinates":[12.62088598,46.16489691]}},{"type":"Feature","id":129,"properties":{"anno":1991,"sigla_staz":"PNMAN","num_fnib":7},"geometry":{"type":"Point","coordinates":[12.63995353,46.16511153]}},{"type":"Feature","id":134,"properties":{"anno":1992,"sigla_staz":"PNMAN","num_fnib":2},"geometry":{"type":"Point","coordinates":[12.61963697,46.17205051]}},{"type":"Feature","id":141,"properties":{"anno":1992,"sigla_staz":"PNMAN","num_fnib":20},"geometry":{"type":"Point","coordinates":[12.64895977,46.14922993]}},{"type":"Feature","id":146,"properties":{"anno":1992,"sigla_staz":"PNMAN","num_fnib":16},"geometry":{"type":"Point","coordinates":[12.6311518,46.14393694]}},{"type":"Feature","id":164,"properties":{"anno":1992,"sigla_staz":"PNMAN","num_fnib":3},"geometry":{"type":"Point","coordinates":[12.63174381,46.1446343]}},{"type":"Feature","id":5,"properties":{"anno":1993,"sigla_staz":"PNMAN","num_fnib":3},"geometry":{"type":"Point","coordinates":[12.61694543,46.13150025]}},{"type":"Feature","id":25,"properties":{"anno":1993,"sigla_staz":"PNMAN","num_fnib":2},"geometry":{"type":"Point","coordinates":[12.62134851,46.14126325]}},{"type":"Feature","id":28,"properties":{"anno":1993,"sigla_staz":"PNMAN","num_fnib":14},"geometry":{"type":"Point","coordinates":[12.64063316,46.1625235]}},{"type":"Feature","id":53,"properties":{"anno":1993,"sigla_staz":"PNMAN","num_fnib":11},"geometry":{"type":"Point","coordinates":[12.65082744,46.15713921]}},{"type":"Feature","id":101,"properties":{"anno":1994,"sigla_staz":"PNMAN","num_fnib":1},"geometry":{"type":"Point","coordinates":[12.62640742,46.14200059]}},{"type":"Feature","id":219,"properties":{"anno":1994,"sigla_staz":"PNMAN","num_fnib":2},"geometry":{"type":"Point","coordinates":[12.63765815,46.15216122]}},{"type":"Feature","id":221,"properties":{"anno":1994,"sigla_staz":"PNMAN","num_fnib":4},"geometry":{"type":"Point","coordinates":[12.62213621,46.14276974]}},{"type":"Feature","id":247,"properties":{"anno":1994,"sigla_staz":"PNMAN","num_fnib":5},"geometry":{"type":"Point","coordinates":[12.64943939,46.15795652]}},{"type":"Feature","id":154,"properties":{"anno":1995,"sigla_staz":"PNMAN","num_fnib":7},"geometry":{"type":"Point","coordinates":[12.64908754,46.15940394]}},{"type":"Feature","id":210,"properties":{"anno":1995,"sigla_staz":"PNMAN","num_fnib":8},"geometry":{"type":"Point","coordinates":[12.64628212,46.14539385]}},{"type":"Feature","id":213,"properties":{"anno":1995,"sigla_staz":"PNMAN","num_fnib":4},"geometry":{"type":"Point","coordinates":[12.64073612,46.13587429]}},{"type":"Feature","id":215,"properties":{"anno":1995,"sigla_staz":"PNMAN","num_fnib":6},"geometry":{"type":"Point","coordinates":[12.64962696,46.15795472]}},{"type":"Feature","id":227,"properties":{"anno":1995,"sigla_staz":"PNMAN","num_fnib":2},"geometry":{"type":"Point","coordinates":[12.61832491,46.12872616]}},{"type":"Feature","id":277,"properties":{"anno":1996,"sigla_staz":"PNMAN","num_fnib":5},"geometry":{"type":"Point","coordinates":[12.6212337,46.14161589]}},{"type":"Feature","id":278,"properties":{"anno":1996,"sigla_staz":"PNMAN","num_fnib":6},"geometry":{"type":"Point","coordinates":[12.6561083,46.16335709]}},{"type":"Feature","id":280,"properties":{"anno":1996,"sigla_staz":"PNMAN","num_fnib":10},"geometry":{"type":"Point","coordinates":[12.61505844,46.13322561]}},{"type":"Feature","id":297,"properties":{"anno":1996,"sigla_staz":"PNMAN","num_fnib":1},"geometry":{"type":"Point","coordinates":[12.62351838,46.13994043]}},{"type":"Feature","id":100,"properties":{"anno":1997,"sigla_staz":"PNAVI","num_fnib":7},"geometry":{"type":"Point","coordinates":[12.61071429,46.13037533]}},{"type":"Feature","id":105,"properties":{"anno":1997,"sigla_staz":"PNMAN","num_fnib":12},"geometry":{"type":"Point","coordinates":[12.64891334,46.14792511]}},{"type":"Feature","id":217,"properties":{"anno":1997,"sigla_staz":"PNMAN","num_fnib":2},"geometry":{"type":"Point","coordinates":[12.6467915,46.14932607]}},{"type":"Feature","id":240,"properties":{"anno":1997,"sigla_staz":"PNMAN","num_fnib":5},"geometry":{"type":"Point","coordinates":[12.61899852,46.13781789]}},{"type":"Feature","id":75,"properties":{"anno":1998,"sigla_staz":"PNMAN","num_fnib":2},"geometry":{"type":"Point","coordinates":[12.61971962,46.13792728]}},{"type":"Feature","id":202,"properties":{"anno":1998,"sigla_staz":"PNMAN","num_fnib":1},"geometry":{"type":"Point","coordinates":[12.63484794,46.1191708]}},{"type":"Feature","id":208,"properties":{"anno":1998,"sigla_staz":"PNMAN","num_fnib":4},"geometry":{"type":"Point","coordinates":[12.6557256,46.15646135]}},{"type":"Feature","id":209,"properties":{"anno":1998,"sigla_staz":"PNMAN","num_fnib":5},"geometry":{"type":"Point","coordinates":[12.65631798,46.15633673]}},{"type":"Feature","id":91,"properties":{"anno":1999,"sigla_staz":"PNMAN","num_fnib":6},"geometry":{"type":"Point","coordinates":[12.63839795,46.15197573]}},{"type":"Feature","id":92,"properties":{"anno":1999,"sigla_staz":"PNMAN","num_fnib":4},"geometry":{"type":"Point","coordinates":[12.6450647,46.14889584]}},{"type":"Feature","id":95,"properties":{"anno":1999,"sigla_staz":"PNMAN","num_fnib":2},"geometry":{"type":"Point","coordinates":[12.61961313,46.13794525]}},{"type":"Feature","id":255,"properties":{"anno":2000,"sigla_staz":"PNMAN","num_fnib":3},"geometry":{"type":"Point","coordinates":[12.62830155,46.1305862]}},{"type":"Feature","id":256,"properties":{"anno":2000,"sigla_staz":"PNMAN","num_fnib":4},"geometry":{"type":"Point","coordinates":[12.65556117,46.15648332]}},{"type":"Feature","id":290,"properties":{"anno":2000,"sigla_staz":"PNMAN","num_fnib":13},"geometry":{"type":"Point","coordinates":[12.62374826,46.13850521]}},{"type":"Feature","id":292,"properties":{"anno":2000,"sigla_staz":"PNMAN","num_fnib":6},"geometry":{"type":"Point","coordinates":[12.62440493,46.13523935]}},{"type":"Feature","id":294,"properties":{"anno":2000,"sigla_staz":"PNMAN","num_fnib":8},"geometry":{"type":"Point","coordinates":[12.65294325,46.15665445]}},{"type":"Feature","id":295,"properties":{"anno":2000,"sigla_staz":"PNMAN","num_fnib":1},"geometry":{"type":"Point","coordinates":[12.62198127,46.13573636]}},{"type":"Feature","id":301,"properties":{"anno":2000,"sigla_staz":"PNMAN","num_fnib":2},"geometry":{"type":"Point","coordinates":[12.62256353,46.13901907]}},{"type":"Feature","id":306,"properties":{"anno":2000,"sigla_staz":"PNMAN","num_fnib":14},"geometry":{"type":"Point","coordinates":[12.63767172,46.16141746]}},{"type":"Feature","id":308,"properties":{"anno":2000,"sigla_staz":"PNMAN","num_fnib":9},"geometry":{"type":"Point","coordinates":[12.65646108,46.1568244]}},{"type":"Feature","id":309,"properties":{"anno":2000,"sigla_staz":"PNMAN","num_fnib":10},"geometry":{"type":"Point","coordinates":[12.65501085,46.15679524]}},{"type":"Feature","id":311,"properties":{"anno":2000,"sigla_staz":"PNMAN","num_fnib":12},"geometry":{"type":"Point","coordinates":[12.61974198,46.13793941]}},{"type":"Feature","id":272,"properties":{"anno":2001,"sigla_staz":"PNMAN","num_fnib":1},"geometry":{"type":"Point","coordinates":[12.62172449,46.14219872]}},{"type":"Feature","id":273,"properties":{"anno":2001,"sigla_staz":"PNMAN","num_fnib":2},"geometry":{"type":"Point","coordinates":[12.64942017,46.14804974]}},{"type":"Feature","id":76,"properties":{"anno":2002,"sigla_staz":"PNMAN","num_fnib":3},"geometry":{"type":"Point","coordinates":[12.62472811,46.12927973]}},{"type":"Feature","id":155,"properties":{"anno":2003,"sigla_staz":"PNMAN","num_fnib":3},"geometry":{"type":"Point","coordinates":[12.6246292,46.12915158]}},{"type":"Feature","id":251,"properties":{"anno":2003,"sigla_staz":"PNMAN","num_fnib":1},"geometry":{"type":"Point","coordinates":[12.64655175,46.14933931]}},{"type":"Feature","id":6,"properties":{"anno":2004,"sigla_staz":"PNMAN","num_fnib":1},"geometry":{"type":"Point","coordinates":[12.62288009,46.13936772]}},{"type":"Feature","id":303,"properties":{"anno":2004,"sigla_staz":"PNMAN","num_fnib":4},"geometry":{"type":"Point","coordinates":[12.63191006,46.14479688]}},{"type":"Feature","id":313,"properties":{"anno":2004,"sigla_staz":"PNMAN","num_fnib":2},"geometry":{"type":"Point","coordinates":[12.62264355,46.13889557]}},{"type":"Feature","id":296,"properties":{"anno":2005,"sigla_staz":"PNMAN","num_fnib":2},"geometry":{"type":"Point","coordinates":[12.64720923,46.14369084]}},{"type":"Feature","id":314,"properties":{"anno":2005,"sigla_staz":"PNMAN","num_fnib":1},"geometry":{"type":"Point","coordinates":[12.6281131,46.12600908]}},{"type":"Feature","id":334,"properties":{"anno":2008,"sigla_staz":"PNMAN","num_fnib":1},"geometry":{"type":"Point","coordinates":[12.61177208,46.13316377]}},{"type":"Feature","id":372,"properties":{"anno":2009,"sigla_staz":"PNMAN","num_fnib":2},"geometry":{"type":"Point","coordinates":[12.63168466,46.16573282]}},{"type":"Feature","id":319,"properties":{"anno":2010,"sigla_staz":"PNMAN","num_fnib":3},"geometry":{"type":"Point","coordinates":[12.6127667,46.13188251]}},{"type":"Feature","id":330,"properties":{"anno":2010,"sigla_staz":"PNMAN","num_fnib":4},"geometry":{"type":"Point","coordinates":[12.63363261,46.14875736]}},{"type":"Feature","id":364,"properties":{"anno":2012,"sigla_staz":"PNMAN","num_fnib":4},"geometry":{"type":"Point","coordinates":[12.65320223,46.15394464]}},{"type":"Feature","id":373,"properties":{"anno":2013,"sigla_staz":"PNMAN","num_fnib":1},"geometry":{"type":"Point","coordinates":[12.65604353,46.16917135]}},{"type":"Feature","id":339,"properties":{"anno":2015,"sigla_staz":"PNMAN","num_fnib":1},"geometry":{"type":"Point","coordinates":[12.61729097,46.13159791]}},{"type":"Feature","id":370,"properties":{"anno":2015,"sigla_staz":"PNMAN","num_fnib":3},"geometry":{"type":"Point","coordinates":[12.6114483,46.13264826]}},{"type":"Feature","id":371,"properties":{"anno":2015,"sigla_staz":"PNMAN","num_fnib":4},"geometry":{"type":"Point","coordinates":[12.61259198,46.13476257]}},{"type":"Feature","id":397,"properties":{"anno":2021,"sigla_staz":"PNBAR","num_fnib":2},"geometry":{"type":"Point","coordinates":[12.68923902,46.12243619]}},{"type":"Feature","id":430,"properties":{"anno":2022,"sigla_staz":"PNBAR","num_fnib":1},"geometry":{"type":"Point","coordinates":[12.62209354,46.14597566]}}]}
