{"type": "FeatureCollection", "features": [{"type": "Feature", "properties": {"class": "hems", "name": "Braida de Poldo", "name:it": null, "source": "overpass", "osm_id": 14142706987, "emergency": "landing_site"}, "geometry": {"type": "Point", "coordinates": [12.657934, 46.1615264]}}, {"type": "Feature", "properties": {"class": "hems", "name": "Polisportiva Comunale", "name:it": null, "source": "overpass", "osm_id": 14142706988, "emergency": "landing_site"}, "geometry": {"type": "Point", "coordinates": [12.6594401, 46.1525382]}}, {"type": "Feature", "properties": {"class": "hems", "name": "Val della Roja", "name:it": null, "source": "overpass", "osm_id": 14142706989, "emergency": "landing_site"}, "geometry": {"type": "Point", "coordinates": [12.626771, 46.1569183]}}]}