{
  "type": "FeatureCollection",
  "metadata": {
    "title": "Censimento rii a rischio esondazione",
    "source": "Gruppo Comunale di Protezione Civile - Censimento RII (2013, ri-rilievo 2024); tracciati dei corsi d'acqua da OpenStreetMap (ODbL)",
    "disclaimer": "Ricognizione volontaria, non uno studio tecnico. Supporto conoscitivo, non un riferimento per decisioni in caso di allerta."
  },
  "features": [
    {
      "type": "Feature",
      "id": 1,
      "properties": {
        "id": "01",
        "nome": "Ru de Povoleit",
        "area": "Versante Monte Spia, loc. Chiaranda",
        "stato": "aggiornato_2024",
        "anno_rilievo": "27/04/2024",
        "pos_affidabilita": "media",
        "pos_fonte": "EXIF foto smartphone (Povoleit_8 valle.jpg, 27/04/2024)",
        "pos_approssimata": false,
        "descrizione": "Rio si forma a sud del M.Spia da acque di corrivazione. Tratto monte con rovi/schianti non ostruttivo. Tratto valle presso l'abitato: sede allargata, arginature naturali perse, pista forestale affiancata su via Chiaranda causa principale criticita.",
        "punti_critici": "Guado in cemento/rocce (rischio fuoriuscita acque su pista e cortili/orti abitazioni); grata di convogliamento in fognatura mista soggetta ad accumulo detritico; pista forestale che raccoglie acque non regimentate a monte.",
        "interventi": "Monte: rimozione schianti/rovi. Valle: rimozione detriti, arginatura/sbarramento al guado, canalizzazione acque dalla pista sterrata, manutenzione regolare griglia di scolo.",
        "eventi_recenti": "Allerta inizio nov.2023: pulizia urgenza grata via Chiaranda. Autunno 2024: nuovo intervento di asportazione materiale dalla grata.",
        "foto": "data/rescue/rii/01.jpg",
        "foto_evento": "data/rescue/rii/01_evento.jpg",
        "foto_evento_didascalia": "Strada allagata a Povoleit, notte dell'8 ottobre 2024",
        "role": "marker"
      },
      "geometry": {
        "type": "Point",
        "coordinates": [
          12.648461,
          46.154414
        ]
      }
    },
    {
      "type": "Feature",
      "id": 2,
      "properties": {
        "id": "02",
        "nome": "Ru de Spia",
        "area": "Versante Monte Spia, via Montenero / Borgo Alzetta",
        "stato": "aggiornato_2024",
        "anno_rilievo": "27/04/2024",
        "pos_affidabilita": "buona",
        "pos_fonte": "Tracciato OpenStreetMap - Rio Spia (way 51873081)",
        "pos_approssimata": false,
        "descrizione": "Tratto ispezionato fino a dove cessa la delimitazione rocciosa. Ridotta pendenza e arginatura: dopo uno stramazzo artificiale defluisce verso via Montenero/via Cadorna con scarsissima pendenza; deposito detritico favorisce tracimazione.",
        "punti_critici": "Briglia presso via Montenero saturata da detrito; attraversamento di pista forestale secondaria che abbassa le arginature e devia la piena verso Borgo Alzetta; sfogo verso terreni agricoli in loc. Pesciera ostruito da vegetazione; canalizzazione sotto via Montenero fortemente ridotta di sezione da accumulo ghiaioso.",
        "interventi": "Rimozione materiale detritico/organico sull'alveo; arginatura nei punti a minore pendenza; rimozione detrito al sottopasso di via Montenero; manutenzione verde e rimozione ceppaie lungo via Cadorna.",
        "eventi_recenti": "Intervento Regione 2023 (manutenzione forestale, non risolutivo); allerta 1-2 nov.2023: sbancamento urgente al guado (risolutivo ma effetti gia' persi); autunno 2024: rimozione vegetazione spontanea lungo via Cadorna.",
        "foto": "data/rescue/rii/02.jpg",
        "role": "line"
      },
      "geometry": {
        "type": "LineString",
        "coordinates": [
          [
            12.641408,
            46.160855
          ],
          [
            12.641682,
            46.160398
          ],
          [
            12.642189,
            46.16
          ],
          [
            12.64262,
            46.159533
          ],
          [
            12.643008,
            46.15916
          ],
          [
            12.643487,
            46.158952
          ],
          [
            12.64389,
            46.159137
          ],
          [
            12.644338,
            46.159188
          ],
          [
            12.645086,
            46.159081
          ],
          [
            12.645795,
            46.158986
          ],
          [
            12.64637,
            46.158821
          ],
          [
            12.646987,
            46.158575
          ],
          [
            12.647232,
            46.158336
          ],
          [
            12.647562,
            46.157961
          ],
          [
            12.647656,
            46.157644
          ],
          [
            12.647699,
            46.157502
          ],
          [
            12.647715,
            46.157417
          ],
          [
            12.647533,
            46.157209
          ],
          [
            12.647356,
            46.15709
          ],
          [
            12.646712,
            46.156362
          ],
          [
            12.646701,
            46.156354
          ],
          [
            12.646363,
            46.156124
          ],
          [
            12.646304,
            46.155868
          ],
          [
            12.646236,
            46.15554
          ],
          [
            12.646047,
            46.155314
          ],
          [
            12.646059,
            46.155087
          ],
          [
            12.64632,
            46.154675
          ],
          [
            12.646242,
            46.154266
          ],
          [
            12.646237,
            46.15424
          ],
          [
            12.646184,
            46.154075
          ],
          [
            12.645993,
            46.153928
          ],
          [
            12.645364,
            46.153607
          ],
          [
            12.645262,
            46.153508
          ],
          [
            12.645121,
            46.153375
          ],
          [
            12.64501,
            46.153244
          ],
          [
            12.644856,
            46.153069
          ],
          [
            12.644817,
            46.152991
          ],
          [
            12.644664,
            46.152543
          ],
          [
            12.644511,
            46.152375
          ],
          [
            12.644383,
            46.152162
          ],
          [
            12.644206,
            46.151954
          ],
          [
            12.643986,
            46.151848
          ],
          [
            12.64367,
            46.151678
          ],
          [
            12.643428,
            46.151618
          ],
          [
            12.643246,
            46.151513
          ],
          [
            12.643072,
            46.15123
          ],
          [
            12.64306,
            46.151067
          ],
          [
            12.642748,
            46.150816
          ],
          [
            12.642274,
            46.150623
          ],
          [
            12.641942,
            46.150647
          ],
          [
            12.641665,
            46.150703
          ],
          [
            12.641565,
            46.150666
          ],
          [
            12.641624,
            46.150496
          ],
          [
            12.641211,
            46.149716
          ],
          [
            12.640975,
            46.149303
          ],
          [
            12.640787,
            46.148974
          ],
          [
            12.640559,
            46.148668
          ],
          [
            12.640378,
            46.148542
          ],
          [
            12.64026,
            46.14856
          ],
          [
            12.639802,
            46.148741
          ],
          [
            12.639408,
            46.148801
          ],
          [
            12.639013,
            46.148664
          ],
          [
            12.638214,
            46.14813
          ],
          [
            12.637852,
            46.147832
          ],
          [
            12.637701,
            46.147698
          ],
          [
            12.637519,
            46.147537
          ],
          [
            12.63743,
            46.147495
          ],
          [
            12.637315,
            46.147498
          ],
          [
            12.637185,
            46.14755
          ],
          [
            12.636919,
            46.147716
          ],
          [
            12.636345,
            46.147982
          ]
        ]
      }
    },
    {
      "type": "Feature",
      "id": 2,
      "properties": {
        "id": "02",
        "nome": "Ru de Spia",
        "area": "Versante Monte Spia, via Montenero / Borgo Alzetta",
        "stato": "aggiornato_2024",
        "anno_rilievo": "27/04/2024",
        "pos_affidabilita": "buona",
        "pos_fonte": "Tracciato OpenStreetMap - Rio Spia (way 51873081)",
        "pos_approssimata": false,
        "descrizione": "Tratto ispezionato fino a dove cessa la delimitazione rocciosa. Ridotta pendenza e arginatura: dopo uno stramazzo artificiale defluisce verso via Montenero/via Cadorna con scarsissima pendenza; deposito detritico favorisce tracimazione.",
        "punti_critici": "Briglia presso via Montenero saturata da detrito; attraversamento di pista forestale secondaria che abbassa le arginature e devia la piena verso Borgo Alzetta; sfogo verso terreni agricoli in loc. Pesciera ostruito da vegetazione; canalizzazione sotto via Montenero fortemente ridotta di sezione da accumulo ghiaioso.",
        "interventi": "Rimozione materiale detritico/organico sull'alveo; arginatura nei punti a minore pendenza; rimozione detrito al sottopasso di via Montenero; manutenzione verde e rimozione ceppaie lungo via Cadorna.",
        "eventi_recenti": "Intervento Regione 2023 (manutenzione forestale, non risolutivo); allerta 1-2 nov.2023: sbancamento urgente al guado (risolutivo ma effetti gia' persi); autunno 2024: rimozione vegetazione spontanea lungo via Cadorna.",
        "foto": "data/rescue/rii/02.jpg",
        "role": "marker"
      },
      "geometry": {
        "type": "Point",
        "coordinates": [
          12.63743,
          46.147495
        ]
      }
    },
    {
      "type": "Feature",
      "id": 3,
      "properties": {
        "id": "03",
        "nome": "Ru de Cian",
        "area": "Sistema Cjasarile / galleria Monciaduda, via Chiasarile-via Montenero",
        "quota_m": "~330 (zona, non punto esatto)",
        "stato": "aggiornato_2024",
        "anno_rilievo": "11/05/2024",
        "pos_affidabilita": "approssimata",
        "pos_fonte": "Testa del sistema Rio Ciasarile (OpenStreetMap); nessun tracciato dedicato per il Ru de Cian",
        "pos_approssimata": true,
        "descrizione": "Nel 2024 risulta interessato da recenti interventi di disboscamento che hanno minimizzato, nel tratto finale, i rischi di eccessivo deflusso rispetto al 2013. Il rilievo 2024 si e' quindi concentrato sullo scarico del sistema 'Cjasarile'.",
        "punti_critici": "Le acque del Ru de Cian, unite a tracimazioni della presa Cjasarile, alimentano il deflusso preferenziale lungo la pista forestale verso via Chiasarile e via Montenero.",
        "interventi": "Valutare la possibilita' di canalizzare le acque di scolo provenienti da Ru de Cian verso l'alveo.",
        "eventi_recenti": "Allerte meteo inizio nov.2023 ed evento 10/10/2024 hanno motivato il rilievo 2024 sul sistema Cian/Cjasarile.",
        "foto": "data/rescue/rii/03.jpg",
        "role": "marker"
      },
      "geometry": {
        "type": "Point",
        "coordinates": [
          12.62783,
          46.15447
        ]
      }
    },
    {
      "type": "Feature",
      "id": 4,
      "properties": {
        "id": "04",
        "nome": "Ru de Cjasarile (Chiaserile)",
        "area": "Galleria 'Monciaduda', via Chiasarile / via Montenero, Borgo Alzetta",
        "quota_m": "~330 (zona, non punto esatto)",
        "stato": "aggiornato_2024",
        "anno_rilievo": "11/05/2024",
        "pos_affidabilita": "buona",
        "pos_fonte": "Tracciato OpenStreetMap - Rio Ciasarile (ways 51873079, 930646620)",
        "pos_approssimata": false,
        "descrizione": "Scarico del sistema di rii 'Cjasarile' in prossimita' della galleria 'Monciaduda'. La grata di filtraggio a monte dello scarico e la seconda grata sul cielo della galleria risultano completamente intasate da detriti rocciosi e vegetali. In caso di forte afflusso la presa si riempie e trascima lungo il sentiero e la pista forestale verso Borgo Alzetta.",
        "punti_critici": "Grata di filtraggio a monte scarico intasata; presa con deposito detritico interno, seconda grata ostruita; rio di by-pass invaso da vegetazione che aggrava il deposito; pista forestale trasformata in via preferenziale di deflusso verso via Chiasarile e via Montenero, senza sbocchi alternativi; trincee di deviazione temporanee create da PC in progressiva scomparsa.",
        "interventi": "Pulizia opera di presa (a monte prima grata e all'interno); rimozione materiale su rio di by-pass e manutenzione vegetazione; canalizzazioni per deflusso acque dalla pista sterrata (valutare inclusione anche acque Ru de Cian).",
        "eventi_recenti": "Fenomeni di intasamento grata di presa gia' spesso riscontrati dal Gruppo PC; allerte nov.2023 ed evento 10/10/2024 hanno motivato il rilievo mirato 2024.",
        "foto": "data/rescue/rii/04.jpg",
        "role": "line"
      },
      "geometry": {
        "type": "MultiLineString",
        "coordinates": [
          [
            [
              12.627832,
              46.154465
            ],
            [
              12.628625,
              46.154171
            ],
            [
              12.629352,
              46.154148
            ],
            [
              12.62991,
              46.154146
            ],
            [
              12.630119,
              46.154362
            ],
            [
              12.63027,
              46.154468
            ],
            [
              12.63039,
              46.1546
            ],
            [
              12.630628,
              46.154637
            ],
            [
              12.63085,
              46.154727
            ],
            [
              12.630915,
              46.154808
            ],
            [
              12.630974,
              46.154916
            ],
            [
              12.631152,
              46.155102
            ],
            [
              12.631255,
              46.155176
            ],
            [
              12.631536,
              46.15524
            ],
            [
              12.631862,
              46.155453
            ],
            [
              12.632026,
              46.155534
            ],
            [
              12.632379,
              46.155541
            ],
            [
              12.632732,
              46.155549
            ],
            [
              12.633114,
              46.155738
            ],
            [
              12.633629,
              46.155878
            ],
            [
              12.634295,
              46.155969
            ],
            [
              12.634649,
              46.155942
            ],
            [
              12.634873,
              46.155873
            ],
            [
              12.635023,
              46.155893
            ],
            [
              12.635102,
              46.155933
            ],
            [
              12.635189,
              46.155937
            ],
            [
              12.635322,
              46.155906
            ],
            [
              12.63548,
              46.155825
            ],
            [
              12.63565,
              46.155637
            ],
            [
              12.635883,
              46.155349
            ]
          ],
          [
            [
              12.635883,
              46.155349
            ],
            [
              12.636006,
              46.15523
            ]
          ],
          [
            [
              12.636006,
              46.15523
            ],
            [
              12.636049,
              46.155178
            ],
            [
              12.636109,
              46.155108
            ],
            [
              12.636235,
              46.155062
            ],
            [
              12.636356,
              46.155
            ],
            [
              12.636372,
              46.154909
            ],
            [
              12.63637,
              46.154881
            ],
            [
              12.636297,
              46.154761
            ],
            [
              12.636265,
              46.154623
            ],
            [
              12.636476,
              46.154321
            ],
            [
              12.63653,
              46.154075
            ],
            [
              12.636608,
              46.153999
            ],
            [
              12.636748,
              46.15388
            ],
            [
              12.636863,
              46.153733
            ],
            [
              12.637005,
              46.153661
            ],
            [
              12.637118,
              46.153549
            ],
            [
              12.637386,
              46.153462
            ],
            [
              12.637619,
              46.153413
            ],
            [
              12.637831,
              46.15334
            ],
            [
              12.637971,
              46.153293
            ],
            [
              12.638191,
              46.153203
            ],
            [
              12.638392,
              46.153088
            ],
            [
              12.638652,
              46.152858
            ],
            [
              12.639089,
              46.152458
            ]
          ]
        ]
      }
    },
    {
      "type": "Feature",
      "id": 4,
      "properties": {
        "id": "04",
        "nome": "Ru de Cjasarile (Chiaserile)",
        "area": "Galleria 'Monciaduda', via Chiasarile / via Montenero, Borgo Alzetta",
        "quota_m": "~330 (zona, non punto esatto)",
        "stato": "aggiornato_2024",
        "anno_rilievo": "11/05/2024",
        "pos_affidabilita": "buona",
        "pos_fonte": "Tracciato OpenStreetMap - Rio Ciasarile (ways 51873079, 930646620)",
        "pos_approssimata": false,
        "descrizione": "Scarico del sistema di rii 'Cjasarile' in prossimita' della galleria 'Monciaduda'. La grata di filtraggio a monte dello scarico e la seconda grata sul cielo della galleria risultano completamente intasate da detriti rocciosi e vegetali. In caso di forte afflusso la presa si riempie e trascima lungo il sentiero e la pista forestale verso Borgo Alzetta.",
        "punti_critici": "Grata di filtraggio a monte scarico intasata; presa con deposito detritico interno, seconda grata ostruita; rio di by-pass invaso da vegetazione che aggrava il deposito; pista forestale trasformata in via preferenziale di deflusso verso via Chiasarile e via Montenero, senza sbocchi alternativi; trincee di deviazione temporanee create da PC in progressiva scomparsa.",
        "interventi": "Pulizia opera di presa (a monte prima grata e all'interno); rimozione materiale su rio di by-pass e manutenzione vegetazione; canalizzazioni per deflusso acque dalla pista sterrata (valutare inclusione anche acque Ru de Cian).",
        "eventi_recenti": "Fenomeni di intasamento grata di presa gia' spesso riscontrati dal Gruppo PC; allerte nov.2023 ed evento 10/10/2024 hanno motivato il rilievo mirato 2024.",
        "foto": "data/rescue/rii/04.jpg",
        "role": "marker"
      },
      "geometry": {
        "type": "Point",
        "coordinates": [
          12.639089,
          46.152458
        ]
      }
    },
    {
      "type": "Feature",
      "id": 5,
      "properties": {
        "id": "05",
        "nome": "Bennata",
        "area": "Non specificata nei documenti disponibili",
        "quota_m": "~330 (zona, non punto esatto)",
        "stato": "storico_2013",
        "anno_rilievo": "NESSUNO - non ri-rilevato nel 2024",
        "pos_affidabilita": "buona",
        "pos_fonte": "Tracciato OpenStreetMap - Rio Bennata (ways 51873080, 930646624)",
        "pos_approssimata": false,
        "descrizione": "Faceva parte dei 10 corsi d'acqua del censimento originario 2013, ma non e' tra i 3 rii scelti per l'aggiornamento 2024.",
        "eventi_recenti": "Nessuno documentato.",
        "foto": "data/rescue/rii/05.jpg",
        "role": "line"
      },
      "geometry": {
        "type": "MultiLineString",
        "coordinates": [
          [
            [
              12.625666,
              46.150282
            ],
            [
              12.629497,
              46.151314
            ],
            [
              12.629929,
              46.151646
            ],
            [
              12.630483,
              46.151722
            ],
            [
              12.631043,
              46.151669
            ],
            [
              12.631811,
              46.151543
            ],
            [
              12.632523,
              46.151758
            ],
            [
              12.632663,
              46.151782
            ],
            [
              12.632832,
              46.151799
            ],
            [
              12.632912,
              46.151853
            ],
            [
              12.632958,
              46.151875
            ],
            [
              12.633178,
              46.151933
            ],
            [
              12.633306,
              46.151951
            ],
            [
              12.633443,
              46.15199
            ],
            [
              12.633532,
              46.15199
            ],
            [
              12.633644,
              46.152
            ],
            [
              12.633824,
              46.152096
            ],
            [
              12.633942,
              46.152115
            ],
            [
              12.634151,
              46.15217
            ],
            [
              12.634414,
              46.152248
            ],
            [
              12.634578,
              46.152278
            ],
            [
              12.634823,
              46.152287
            ]
          ],
          [
            [
              12.634823,
              46.152287
            ],
            [
              12.634957,
              46.152293
            ]
          ],
          [
            [
              12.634957,
              46.152293
            ],
            [
              12.635393,
              46.152314
            ],
            [
              12.635936,
              46.152325
            ]
          ]
        ]
      }
    },
    {
      "type": "Feature",
      "id": 5,
      "properties": {
        "id": "05",
        "nome": "Bennata",
        "area": "Non specificata nei documenti disponibili",
        "quota_m": "~330 (zona, non punto esatto)",
        "stato": "storico_2013",
        "anno_rilievo": "NESSUNO - non ri-rilevato nel 2024",
        "pos_affidabilita": "buona",
        "pos_fonte": "Tracciato OpenStreetMap - Rio Bennata (ways 51873080, 930646624)",
        "pos_approssimata": false,
        "descrizione": "Faceva parte dei 10 corsi d'acqua del censimento originario 2013, ma non e' tra i 3 rii scelti per l'aggiornamento 2024.",
        "eventi_recenti": "Nessuno documentato.",
        "foto": "data/rescue/rii/05.jpg",
        "role": "marker"
      },
      "geometry": {
        "type": "Point",
        "coordinates": [
          12.625666,
          46.150282
        ]
      }
    },
    {
      "type": "Feature",
      "id": 7,
      "properties": {
        "id": "07",
        "nome": "Rio Cao Malnisio",
        "area": "Loc. Cao Malnisio (poligono militare / zona ex centrale idroelettrica di Malnisio), versante ovest verso T.Cellina",
        "quota_m": "~309 (EXIF, da verificare)",
        "stato": "solo_foto_2024",
        "anno_rilievo": "11/05/2024 (stesso pomeriggio del rilievo 'Ru de Cian'/'Cjasarile', ma zona geografica diversa)",
        "pos_affidabilita": "buona",
        "pos_fonte": "Tracciato OpenStreetMap - rio senza nome presso loc. Cao Malnisio (way 355283888)",
        "pos_approssimata": false,
        "descrizione": "Le foto del sopralluogo mostrano una discesa lungo un impluvio boscoso; una foto ritrae una vasca/presa in muratura in pietra addossata a un edificio, verosimilmente legata alla ex centrale idroelettrica/opere idrauliche della zona.",
        "punti_critici": "Vasca/opera di presa in muratura di origine idroelettrica storica (non necessariamente un punto di rischio idraulico attuale - da verificare).",
        "eventi_recenti": "Nessuno documentato per nome.",
        "foto": "data/rescue/rii/07.jpg",
        "role": "line"
      },
      "geometry": {
        "type": "LineString",
        "coordinates": [
          [
            12.630362,
            46.150633
          ],
          [
            12.630442,
            46.150487
          ],
          [
            12.630714,
            46.150334
          ],
          [
            12.630734,
            46.150188
          ],
          [
            12.630824,
            46.150146
          ],
          [
            12.630864,
            46.149916
          ],
          [
            12.630985,
            46.149833
          ],
          [
            12.631116,
            46.149651
          ],
          [
            12.631206,
            46.149463
          ],
          [
            12.631206,
            46.149164
          ],
          [
            12.631023,
            46.148987
          ],
          [
            12.630833,
            46.148851
          ],
          [
            12.630753,
            46.148693
          ],
          [
            12.63085,
            46.148319
          ],
          [
            12.630862,
            46.147956
          ],
          [
            12.630726,
            46.147642
          ],
          [
            12.630465,
            46.147301
          ],
          [
            12.630319,
            46.146887
          ],
          [
            12.630042,
            46.146427
          ],
          [
            12.629811,
            46.146197
          ],
          [
            12.62962,
            46.146044
          ],
          [
            12.62955,
            46.145918
          ],
          [
            12.629541,
            46.145661
          ],
          [
            12.629541,
            46.145496
          ],
          [
            12.62952,
            46.145348
          ],
          [
            12.629463,
            46.145191
          ],
          [
            12.62937,
            46.145063
          ],
          [
            12.629253,
            46.144959
          ],
          [
            12.629136,
            46.14491
          ],
          [
            12.629061,
            46.144821
          ],
          [
            12.629015,
            46.14473
          ],
          [
            12.629015,
            46.144617
          ],
          [
            12.629054,
            46.144477
          ],
          [
            12.629017,
            46.144407
          ]
        ]
      }
    },
    {
      "type": "Feature",
      "id": 7,
      "properties": {
        "id": "07",
        "nome": "Rio Cao Malnisio",
        "area": "Loc. Cao Malnisio (poligono militare / zona ex centrale idroelettrica di Malnisio), versante ovest verso T.Cellina",
        "quota_m": "~309 (EXIF, da verificare)",
        "stato": "solo_foto_2024",
        "anno_rilievo": "11/05/2024 (stesso pomeriggio del rilievo 'Ru de Cian'/'Cjasarile', ma zona geografica diversa)",
        "pos_affidabilita": "buona",
        "pos_fonte": "Tracciato OpenStreetMap - rio senza nome presso loc. Cao Malnisio (way 355283888)",
        "pos_approssimata": false,
        "descrizione": "Le foto del sopralluogo mostrano una discesa lungo un impluvio boscoso; una foto ritrae una vasca/presa in muratura in pietra addossata a un edificio, verosimilmente legata alla ex centrale idroelettrica/opere idrauliche della zona.",
        "punti_critici": "Vasca/opera di presa in muratura di origine idroelettrica storica (non necessariamente un punto di rischio idraulico attuale - da verificare).",
        "eventi_recenti": "Nessuno documentato per nome.",
        "foto": "data/rescue/rii/07.jpg",
        "role": "marker"
      },
      "geometry": {
        "type": "Point",
        "coordinates": [
          12.629017,
          46.144407
        ]
      }
    },
    {
      "type": "Feature",
      "id": 8,
      "properties": {
        "id": "08",
        "nome": "Rio Bala Busa",
        "area": "Zona intermedia fra Cao Malnisio e Spia/Povoleit, presso canale/briglia in muratura",
        "quota_m": "~337 (EXIF, da verificare)",
        "stato": "solo_foto_2024",
        "anno_rilievo": "11/05/2024 (stesso pomeriggio, ~18 min a piedi dopo Cao Malnisio)",
        "pos_affidabilita": "buona",
        "pos_fonte": "EXIF GPS iPhone 13 (IMG_0621.HEIC, 11/05/2024 14:56)",
        "pos_approssimata": false,
        "descrizione": "Le foto del sopralluogo mostrano progressione lungo un canale/pista, un piccolo sbarramento/grata in legno semi-interrato nella ghiaia e un canale in muratura con due operatori PC, oltre a un tratto con acqua corrente visibile.",
        "punti_critici": "Grata/sbarramento ligneo semi-ostruito da ghiaia; canale in muratura ispezionato da personale PC in loco.",
        "eventi_recenti": "Nessuno documentato per nome.",
        "foto": "data/rescue/rii/08.jpg",
        "role": "marker"
      },
      "geometry": {
        "type": "Point",
        "coordinates": [
          12.635581,
          46.155783
        ]
      }
    }
  ]
}
