{"type": "FeatureCollection", "features": [{"type": "Feature", "properties": {"u": 375694438, "v": 4537840691, "key": 0, "osmid": "337440333", "lanes": null, "name": "MV 06", "highway": "cycleway", "maxspeed": null, "length": 245.867, "rule": "s3", "lts": 2, "slope": 0.34718379324602855, "slope_class": "0-3: flat", "lanes_assumed": null, "maxspeed_assumed": null, "message": "This way is a separated path because highway='cycleway'.", "short_message": "highway $=$ \"cycleway\"", "grade": -0.3263702377876}, "geometry": {"type": "LineString", "coordinates": [[12.6403763, 46.1360719], [12.6404961, 46.136106], [12.6406665, 46.13614689999998], [12.6412585, 46.1362423], [12.6416527, 46.1362869], [12.6422329, 46.1365037], [12.6423623, 46.1365884], [12.6429876, 46.1369976], [12.6430696, 46.137106]]}}, {"type": "Feature", "properties": {"u": 481334605, "v": 3506974439, "key": 0, "osmid": "178879019", "lanes": null, "name": null, "highway": "cycleway", "maxspeed": null, "length": 97.746, "rule": "s3", "lts": 1, "slope": 1.2687364763538438, "slope_class": "0-3: flat", "lanes_assumed": null, "maxspeed_assumed": null, "message": "This way is a separated path because highway='cycleway'.", "short_message": "highway $=$ \"cycleway\"", "grade": -1.4887150005839285}, "geometry": {"type": "LineString", "coordinates": [[12.633612, 46.11758], [12.6333641, 46.1174416], [12.6331609, 46.11731970000001], [12.6329703, 46.1171677], [12.6328307, 46.1170448], [12.6327309, 46.1169538]]}}, {"type": "Feature", "properties": {"u": 481334637, "v": 481334639, "key": 0, "osmid": "40032442", "lanes": null, "name": "Itinerario pedemontano pordenonese", "highway": "cycleway", "maxspeed": null, "length": 60.167, "rule": "s3", "lts": 1, "slope": 1.6479295150056736, "slope_class": "0-3: flat", "lanes_assumed": null, "maxspeed_assumed": null, "message": "This way is a separated path because highway='cycleway'.", "short_message": "highway $=$ \"cycleway\"", "grade": 1.6465002613068145}, "geometry": {"type": "LineString", "coordinates": [[12.6339095, 46.1342386], [12.6340335, 46.1341858], [12.6343099, 46.1340573], [12.634572, 46.13395269999999]]}}, {"type": "Feature", "properties": {"u": 481334639, "v": 481334646, "key": 0, "osmid": "40032442", "lanes": null, "name": "Itinerario pedemontano pordenonese", "highway": "cycleway", "maxspeed": null, "length": 444.467, "rule": "s3", "lts": 1, "slope": 0.023952645018557702, "slope_class": "0-3: flat", "lanes_assumed": null, "maxspeed_assumed": null, "message": "This way is a separated path because highway='cycleway'.", "short_message": "highway $=$ \"cycleway\"", "grade": -0.6652375984330253}, "geometry": {"type": "LineString", "coordinates": [[12.634572, 46.13395269999999], [12.6347529, 46.13391939999998], [12.6351316, 46.1337978], [12.63551, 46.1336853], [12.6359277, 46.13353379999999], [12.6363285, 46.133371799999985], [12.6366082, 46.13324609999999], [12.6368286, 46.1331127], [12.6371404, 46.1330384], [12.6383119, 46.1326985], [12.6388623, 46.13248709999998], [12.6396033, 46.13216229999998], [12.6396862, 46.1321736]]}}, {"type": "Feature", "properties": {"u": 481334639, "v": 481334637, "key": 0, "osmid": "40032442", "lanes": null, "name": "Itinerario pedemontano pordenonese", "highway": "cycleway", "maxspeed": null, "length": 60.167, "rule": "s3", "lts": 1, "slope": 1.6479295150060482, "slope_class": "0-3: flat", "lanes_assumed": null, "maxspeed_assumed": null, "message": "This way is a separated path because highway='cycleway'.", "short_message": "highway $=$ \"cycleway\"", "grade": -1.6465002613068147}, "geometry": {"type": "LineString", "coordinates": [[12.634572, 46.13395269999999], [12.6343099, 46.1340573], [12.6340335, 46.1341858], [12.6339095, 46.1342386]]}}, {"type": "Feature", "properties": {"u": 481334646, "v": 737610454, "key": 0, "osmid": "40032442", "lanes": null, "name": "Itinerario pedemontano pordenonese", "highway": "cycleway", "maxspeed": null, "length": 337.368, "rule": "s3", "lts": 1, "slope": 2.3466752360549377, "slope_class": "0-3: flat", "lanes_assumed": null, "maxspeed_assumed": null, "message": "This way is a separated path because highway='cycleway'.", "short_message": "highway $=$ \"cycleway\"", "grade": 2.356871195563582}, "geometry": {"type": "LineString", "coordinates": [[12.6396862, 46.1321736], [12.6397118, 46.13234649999998], [12.6397846, 46.13256009999998], [12.6398124, 46.132691], [12.6398959, 46.1327738], [12.6399599, 46.1328105], [12.6400585, 46.1328628], [12.6401835, 46.1329673], [12.6405095, 46.133294900000024], [12.6406744, 46.1334595], [12.6408873, 46.1336433], [12.641169, 46.133854], [12.6414482, 46.1340449], [12.6415691, 46.1341602], [12.6416709, 46.1342645], [12.6417934, 46.1344268], [12.6419209, 46.134582], [12.6420159, 46.1346636]]}}, {"type": "Feature", "properties": {"u": 481334646, "v": 481334639, "key": 0, "osmid": "40032442", "lanes": null, "name": "Itinerario pedemontano pordenonese", "highway": "cycleway", "maxspeed": null, "length": 444.467, "rule": "s3", "lts": 1, "slope": 0.023952645018545982, "slope_class": "0-3: flat", "lanes_assumed": null, "maxspeed_assumed": null, "message": "This way is a separated path because highway='cycleway'.", "short_message": "highway $=$ \"cycleway\"", "grade": 0.6652375984330254}, "geometry": {"type": "LineString", "coordinates": [[12.6396862, 46.1321736], [12.6396033, 46.13216229999998], [12.6388623, 46.13248709999998], [12.6383119, 46.1326985], [12.6371404, 46.1330384], [12.6368286, 46.1331127], [12.6366082, 46.13324609999999], [12.6363285, 46.133371799999985], [12.6359277, 46.13353379999999], [12.63551, 46.1336853], [12.6351316, 46.1337978], [12.6347529, 46.13391939999998], [12.634572, 46.13395269999999]]}}, {"type": "Feature", "properties": {"u": 737610454, "v": 481334646, "key": 0, "osmid": "40032442", "lanes": null, "name": "Itinerario pedemontano pordenonese", "highway": "cycleway", "maxspeed": null, "length": 337.368, "rule": "s3", "lts": 1, "slope": 2.3466752360550327, "slope_class": "0-3: flat", "lanes_assumed": null, "maxspeed_assumed": null, "message": "This way is a separated path because highway='cycleway'.", "short_message": "highway $=$ \"cycleway\"", "grade": -2.356871195563582}, "geometry": {"type": "LineString", "coordinates": [[12.6420159, 46.1346636], [12.6419209, 46.134582], [12.6417934, 46.1344268], [12.6416709, 46.1342645], [12.6415691, 46.1341602], [12.6414482, 46.1340449], [12.641169, 46.133854], [12.6408873, 46.1336433], [12.6406744, 46.1334595], [12.6405095, 46.133294900000024], [12.6401835, 46.1329673], [12.6400585, 46.1328628], [12.6399599, 46.1328105], [12.6398959, 46.1327738], [12.6398124, 46.132691], [12.6397846, 46.13256009999998], [12.6397118, 46.13234649999998], [12.6396862, 46.1321736]]}}, {"type": "Feature", "properties": {"u": 912306659, "v": 4144795322, "key": 0, "osmid": "130071811", "lanes": null, "name": null, "highway": "cycleway", "maxspeed": null, "length": 196.45, "rule": "s3", "lts": 1, "slope": 2.3761282350345243, "slope_class": "0-3: flat", "lanes_assumed": null, "maxspeed_assumed": null, "message": "This way is a separated path because highway='cycleway'.", "short_message": "highway $=$ \"cycleway\"", "grade": -2.1098475300532717}, "geometry": {"type": "LineString", "coordinates": [[12.6559519, 46.1546212], [12.6562798, 46.1543661], [12.6567331, 46.1540632], [12.6573391, 46.1537511], [12.6576528, 46.15359929999999], [12.6578914, 46.1534855]]}}, {"type": "Feature", "properties": {"u": 1894585978, "v": 1894585980, "key": 0, "osmid": "179118605", "lanes": null, "name": "Itinerario pedemontano pordenonese", "highway": "cycleway", "maxspeed": null, "length": 132.959, "rule": "s3", "lts": 1, "slope": 3.2313273314712267, "slope_class": "3-5: mild", "lanes_assumed": null, "maxspeed_assumed": null, "message": "This way is a separated path because highway='cycleway'.", "short_message": "highway $=$ \"cycleway\"", "grade": 2.8570472047778597}, "geometry": {"type": "LineString", "coordinates": [[12.6421578, 46.1346253], [12.6422652, 46.13469180000001], [12.642408, 46.1347861], [12.6430603, 46.1353298], [12.643208, 46.13543910000001], [12.6433232, 46.13550329999999]]}}, {"type": "Feature", "properties": {"u": 1894585980, "v": 1894586012, "key": 0, "osmid": "179118605", "lanes": null, "name": "Itinerario pedemontano pordenonese", "highway": "cycleway", "maxspeed": null, "length": 591.999, "rule": "s3", "lts": 3, "slope": 1.1938437304364664, "slope_class": "0-3: flat", "lanes_assumed": null, "maxspeed_assumed": null, "message": "This way is a separated path because highway='cycleway'.", "short_message": "highway $=$ \"cycleway\"", "grade": -0.28334335742610606}, "geometry": {"type": "LineString", "coordinates": [[12.6433232, 46.13550329999999], [12.6434056, 46.135535199999985], [12.6436936, 46.1356034], [12.6440184, 46.13566869999998], [12.6443666, 46.1357333], [12.6446732, 46.1358032], [12.6448025, 46.1358304], [12.6449132, 46.135905499999986], [12.6450022, 46.1359785], [12.645139, 46.1361465], [12.6452803, 46.1363351], [12.6455049, 46.1366129], [12.6456472, 46.1368022], [12.6457657, 46.136965], [12.6458165, 46.1370479], [12.6458549, 46.1371043], [12.6459329, 46.1371327], [12.6460333, 46.1371543], [12.6461914, 46.13716689999998], [12.6462998, 46.1371919], [12.6464098, 46.1372354], [12.6465415, 46.1373312], [12.6466603, 46.1374589], [12.6467741, 46.1375925], [12.6468464, 46.1377036], [12.6468893, 46.1377929], [12.6469187, 46.1380448], [12.6469345, 46.1381747], [12.646966, 46.1382604], [12.6470248, 46.1384219], [12.6471084, 46.1386582], [12.6471942, 46.1388053], [12.6473266, 46.1389889], [12.6474313, 46.1391481], [12.6475081, 46.1392466], [12.6475469, 46.13928969999998], [12.6475239, 46.139339], [12.6475385, 46.1394083]]}}, {"type": "Feature", "properties": {"u": 1894585980, "v": 1894585978, "key": 0, "osmid": "179118605", "lanes": null, "name": "Itinerario pedemontano pordenonese", "highway": "cycleway", "maxspeed": null, "length": 132.959, "rule": "s3", "lts": 1, "slope": 3.231327331471115, "slope_class": "3-5: mild", "lanes_assumed": null, "maxspeed_assumed": null, "message": "This way is a separated path because highway='cycleway'.", "short_message": "highway $=$ \"cycleway\"", "grade": -2.8570472047778597}, "geometry": {"type": "LineString", "coordinates": [[12.6433232, 46.13550329999999], [12.643208, 46.13543910000001], [12.6430603, 46.1353298], [12.642408, 46.1347861], [12.6422652, 46.13469180000001], [12.6421578, 46.1346253]]}}, {"type": "Feature", "properties": {"u": 1894585980, "v": 3445307415, "key": 0, "osmid": "457675572", "lanes": null, "name": "MV 06", "highway": "cycleway", "maxspeed": null, "length": 69.659, "rule": "s3", "lts": 2, "slope": 4.245114367486312, "slope_class": "3-5: mild", "lanes_assumed": null, "maxspeed_assumed": null, "message": "This way is a separated path because highway='cycleway'.", "short_message": "highway $=$ \"cycleway\"", "grade": 5.388421784439171}, "geometry": {"type": "LineString", "coordinates": [[12.6433232, 46.13550329999999], [12.6432485, 46.1355636], [12.6431361, 46.1356241], [12.6429913, 46.1356338], [12.6428699, 46.1356532], [12.6427158, 46.1356823], [12.6425991, 46.1357212], [12.6425617, 46.13577619999999]]}}, {"type": "Feature", "properties": {"u": 1894586012, "v": 1894586014, "key": 0, "osmid": "179118605", "lanes": null, "name": "Itinerario pedemontano pordenonese", "highway": "cycleway", "maxspeed": null, "length": 45.568, "rule": "s3", "lts": 2, "slope": 0.1405358992528369, "slope_class": "0-3: flat", "lanes_assumed": null, "maxspeed_assumed": null, "message": "This way is a separated path because highway='cycleway'.", "short_message": "highway $=$ \"cycleway\"", "grade": 0.2008584225596037}, "geometry": {"type": "LineString", "coordinates": [[12.6475385, 46.1394083], [12.6475962, 46.1394757], [12.6477265, 46.139627], [12.6478239, 46.13976679999998]]}}, {"type": "Feature", "properties": {"u": 1894586012, "v": 1894585980, "key": 0, "osmid": "179118605", "lanes": null, "name": "Itinerario pedemontano pordenonese", "highway": "cycleway", "maxspeed": null, "length": 591.999, "rule": "s3", "lts": 3, "slope": 1.1938437304365135, "slope_class": "0-3: flat", "lanes_assumed": null, "maxspeed_assumed": null, "message": "This way is a separated path because highway='cycleway'.", "short_message": "highway $=$ \"cycleway\"", "grade": 0.28334335742610606}, "geometry": {"type": "LineString", "coordinates": [[12.6475385, 46.1394083], [12.6475239, 46.139339], [12.6475469, 46.13928969999998], [12.6475081, 46.1392466], [12.6474313, 46.1391481], [12.6473266, 46.1389889], [12.6471942, 46.1388053], [12.6471084, 46.1386582], [12.6470248, 46.1384219], [12.646966, 46.1382604], [12.6469345, 46.1381747], [12.6469187, 46.1380448], [12.6468893, 46.1377929], [12.6468464, 46.1377036], [12.6467741, 46.1375925], [12.6466603, 46.1374589], [12.6465415, 46.1373312], [12.6464098, 46.1372354], [12.6462998, 46.1371919], [12.6461914, 46.13716689999998], [12.6460333, 46.1371543], [12.6459329, 46.1371327], [12.6458549, 46.1371043], [12.6458165, 46.1370479], [12.6457657, 46.136965], [12.6456472, 46.1368022], [12.6455049, 46.1366129], [12.6452803, 46.1363351], [12.645139, 46.1361465], [12.6450022, 46.1359785], [12.6449132, 46.135905499999986], [12.6448025, 46.1358304], [12.6446732, 46.1358032], [12.6443666, 46.1357333], [12.6440184, 46.13566869999998], [12.6436936, 46.1356034], [12.6434056, 46.135535199999985], [12.6433232, 46.13550329999999]]}}, {"type": "Feature", "properties": {"u": 1894586014, "v": 1894586012, "key": 0, "osmid": "179118605", "lanes": null, "name": "Itinerario pedemontano pordenonese", "highway": "cycleway", "maxspeed": null, "length": 45.568, "rule": "s3", "lts": 2, "slope": 0.14053589925242033, "slope_class": "0-3: flat", "lanes_assumed": null, "maxspeed_assumed": null, "message": "This way is a separated path because highway='cycleway'.", "short_message": "highway $=$ \"cycleway\"", "grade": -0.2008584225596037}, "geometry": {"type": "LineString", "coordinates": [[12.6478239, 46.13976679999998], [12.6477265, 46.139627], [12.6475962, 46.1394757], [12.6475385, 46.1394083]]}}, {"type": "Feature", "properties": {"u": 3445307007, "v": 3445307011, "key": 0, "osmid": "337440333", "lanes": null, "name": "MV 06", "highway": "cycleway", "maxspeed": null, "length": 98.012, "rule": "s3", "lts": 2, "slope": 1.4685722681848807, "slope_class": "0-3: flat", "lanes_assumed": null, "maxspeed_assumed": null, "message": "This way is a separated path because highway='cycleway'.", "short_message": "highway $=$ \"cycleway\"", "grade": 1.3649202588111709}, "geometry": {"type": "LineString", "coordinates": [[12.6446645, 46.1490931], [12.6446941, 46.1488093], [12.6447126, 46.1486941], [12.644879, 46.1484892], [12.6450022, 46.1482586]]}}, {"type": "Feature", "properties": {"u": 3445307011, "v": 6684814128, "key": 0, "osmid": "337440333", "lanes": null, "name": "MV 06", "highway": "cycleway", "maxspeed": null, "length": 63.126, "rule": "s3", "lts": 3, "slope": 1.7760770321533548, "slope_class": "0-3: flat", "lanes_assumed": null, "maxspeed_assumed": null, "message": "This way is a separated path because highway='cycleway'.", "short_message": "highway $=$ \"cycleway\"", "grade": -1.3809024193455148}, "geometry": {"type": "LineString", "coordinates": [[12.6450022, 46.1482586], [12.64507, 46.1480751], [12.6451878, 46.1478365], [12.645216, 46.14771189999998]]}}, {"type": "Feature", "properties": {"u": 3445307011, "v": 3445307007, "key": 0, "osmid": "337440333", "lanes": null, "name": "MV 06", "highway": "cycleway", "maxspeed": null, "length": 98.012, "rule": "s3", "lts": 2, "slope": 1.4685722681844726, "slope_class": "0-3: flat", "lanes_assumed": null, "maxspeed_assumed": null, "message": "This way is a separated path because highway='cycleway'.", "short_message": "highway $=$ \"cycleway\"", "grade": -1.3649202588111709}, "geometry": {"type": "LineString", "coordinates": [[12.6450022, 46.1482586], [12.644879, 46.1484892], [12.6447126, 46.1486941], [12.6446941, 46.1488093], [12.6446645, 46.1490931]]}}, {"type": "Feature", "properties": {"u": 3445307035, "v": 4537840705, "key": 0, "osmid": "337440333", "lanes": null, "name": "MV 06", "highway": "cycleway", "maxspeed": null, "length": 46.205, "rule": "s3", "lts": 1, "slope": 2.9662424638563207, "slope_class": "0-3: flat", "lanes_assumed": null, "maxspeed_assumed": null, "message": "This way is a separated path because highway='cycleway'.", "short_message": "highway $=$ \"cycleway\"", "grade": -2.895248401935509}, "geometry": {"type": "LineString", "coordinates": [[12.6450948, 46.1436283], [12.6450528, 46.1432853], [12.6450384, 46.14321469999999]]}}, {"type": "Feature", "properties": {"u": 3445307035, "v": 6684814180, "key": 0, "osmid": "337440333", "lanes": null, "name": "MV 06", "highway": "cycleway", "maxspeed": null, "length": 331.482, "rule": "s3", "lts": 2, "slope": 3.9767337755955854, "slope_class": "3-5: mild", "lanes_assumed": null, "maxspeed_assumed": null, "message": "This way is a separated path because highway='cycleway'.", "short_message": "highway $=$ \"cycleway\"", "grade": 2.5499358860286687}, "geometry": {"type": "LineString", "coordinates": [[12.6450948, 46.1436283], [12.6452022, 46.143816], [12.6453143, 46.144049], [12.6454217, 46.144275399999984], [12.6454917, 46.1444955], [12.6455571, 46.14469610000001], [12.6455851, 46.1448223], [12.6456505, 46.1449776], [12.6456879, 46.1452461], [12.6457112, 46.1454435], [12.6457719, 46.1455955], [12.645856, 46.14567969999998], [12.6459447, 46.1458317], [12.6459728, 46.1460291], [12.6459868, 46.146275], [12.645898, 46.1464465], [12.6458387, 46.1464849]]}}, {"type": "Feature", "properties": {"u": 3445307415, "v": 4537840691, "key": 0, "osmid": "418309985", "lanes": null, "name": null, "highway": "cycleway", "maxspeed": null, "length": 176.073, "rule": "s3", "lts": 2, "slope": 3.5112674808621334, "slope_class": "3-5: mild", "lanes_assumed": null, "maxspeed_assumed": null, "message": "This way is a separated path because highway='cycleway'.", "short_message": "highway $=$ \"cycleway\"", "grade": -3.197856326017714}, "geometry": {"type": "LineString", "coordinates": [[12.6425617, 46.13577619999999], [12.6423664, 46.1358686], [12.6422511, 46.1360394], [12.6424027, 46.1362652], [12.6425689, 46.1363919], [12.6426943, 46.1364963], [12.642749, 46.1365714], [12.6428021, 46.136622899999985], [12.6428316, 46.1367056], [12.6429141, 46.1368252], [12.6430417, 46.1369552], [12.6430644, 46.1370284], [12.6430696, 46.137106]]}}, {"type": "Feature", "properties": {"u": 3445307415, "v": 1894585980, "key": 0, "osmid": "457675572", "lanes": null, "name": "MV 06", "highway": "cycleway", "maxspeed": null, "length": 69.659, "rule": "s3", "lts": 2, "slope": 4.245114367486596, "slope_class": "3-5: mild", "lanes_assumed": null, "maxspeed_assumed": null, "message": "This way is a separated path because highway='cycleway'.", "short_message": "highway $=$ \"cycleway\"", "grade": -5.388421784439171}, "geometry": {"type": "LineString", "coordinates": [[12.6425617, 46.13577619999999], [12.6425991, 46.1357212], [12.6427158, 46.1356823], [12.6428699, 46.1356532], [12.6429913, 46.1356338], [12.6431361, 46.1356241], [12.6432485, 46.1355636], [12.6433232, 46.13550329999999]]}}, {"type": "Feature", "properties": {"u": 3506974439, "v": 481334605, "key": 0, "osmid": "178879019", "lanes": null, "name": null, "highway": "cycleway", "maxspeed": null, "length": 97.746, "rule": "s3", "lts": 1, "slope": 1.2687364763535711, "slope_class": "0-3: flat", "lanes_assumed": null, "maxspeed_assumed": null, "message": "This way is a separated path because highway='cycleway'.", "short_message": "highway $=$ \"cycleway\"", "grade": 1.4887150005839285}, "geometry": {"type": "LineString", "coordinates": [[12.6327309, 46.1169538], [12.6328307, 46.1170448], [12.6329703, 46.1171677], [12.6331609, 46.11731970000001], [12.6333641, 46.1174416], [12.633612, 46.11758]]}}, {"type": "Feature", "properties": {"u": 4144795322, "v": 912306659, "key": 0, "osmid": "130071811", "lanes": null, "name": null, "highway": "cycleway", "maxspeed": null, "length": 196.45, "rule": "s3", "lts": 1, "slope": 2.3761282350346997, "slope_class": "0-3: flat", "lanes_assumed": null, "maxspeed_assumed": null, "message": "This way is a separated path because highway='cycleway'.", "short_message": "highway $=$ \"cycleway\"", "grade": 2.1098475300532713}, "geometry": {"type": "LineString", "coordinates": [[12.6578914, 46.1534855], [12.6576528, 46.15359929999999], [12.6573391, 46.1537511], [12.6567331, 46.1540632], [12.6562798, 46.1543661], [12.6559519, 46.1546212]]}}, {"type": "Feature", "properties": {"u": 4230598338, "v": 4537840691, "key": 0, "osmid": "337440333", "lanes": null, "name": "MV 06", "highway": "cycleway", "maxspeed": null, "length": 480.649, "rule": "s3", "lts": 2, "slope": 3.260525890484208, "slope_class": "3-5: mild", "lanes_assumed": null, "maxspeed_assumed": null, "message": "This way is a separated path because highway='cycleway'.", "short_message": "highway $=$ \"cycleway\"", "grade": -2.7666508255814954}, "geometry": {"type": "LineString", "coordinates": [[12.6447451, 46.1412368], [12.644691, 46.1410884], [12.6446137, 46.14090810000001], [12.6445243, 46.140801], [12.6444592, 46.1406292], [12.6444308, 46.14051650000002], [12.6443617, 46.1403757], [12.6442763, 46.1402489], [12.644218, 46.1400875], [12.6441295, 46.1398472], [12.644041, 46.13961420000001], [12.6439809, 46.1394647], [12.6439066, 46.1392611], [12.6437756, 46.1390232], [12.6437544, 46.1388025], [12.6437024, 46.1385966], [12.6436593, 46.1383981], [12.6435515, 46.1382166], [12.6434806, 46.1380672], [12.6434498, 46.1378515], [12.6434217, 46.1377566], [12.6434005, 46.137685], [12.6433697, 46.1375099], [12.6432279, 46.1373178], [12.6430893, 46.1371321], [12.6430696, 46.137106]]}}, {"type": "Feature", "properties": {"u": 4230598338, "v": 4537840705, "key": 0, "osmid": "337440333", "lanes": null, "name": "MV 06", "highway": "cycleway", "maxspeed": null, "length": 222.115, "rule": "s3", "lts": 1, "slope": 1.469583698348859, "slope_class": "0-3: flat", "lanes_assumed": null, "maxspeed_assumed": null, "message": "This way is a separated path because highway='cycleway'.", "short_message": "highway $=$ \"cycleway\"", "grade": -1.4732890700149688}, "geometry": {"type": "LineString", "coordinates": [[12.6447451, 46.1412368], [12.6447885, 46.141356], [12.6448251, 46.1415278], [12.6448251, 46.1416377], [12.6448193, 46.141771], [12.6448846, 46.141949], [12.644894, 46.1421011], [12.6449267, 46.1423761], [12.6449874, 46.1425767], [12.6449734, 46.1428097], [12.6449967, 46.1430103], [12.6450384, 46.14321469999999]]}}, {"type": "Feature", "properties": {"u": 4417658388, "v": 5074943143, "key": 0, "osmid": "444279351", "lanes": null, "name": "MV 06", "highway": "cycleway", "maxspeed": null, "length": 403.245, "rule": "s3", "lts": 1, "slope": 0.43757682958625244, "slope_class": "0-3: flat", "lanes_assumed": null, "maxspeed_assumed": null, "message": "This way is a separated path because highway='cycleway'.", "short_message": "highway $=$ \"cycleway\"", "grade": 0.1987176414240949}, "geometry": {"type": "LineString", "coordinates": [[12.6437914, 46.1486173], [12.6437771, 46.1486999], [12.6437449, 46.1488494], [12.6437167, 46.148948899999986], [12.6436885, 46.1490529], [12.6436403, 46.149156], [12.6436027, 46.1492062], [12.6435169, 46.14931209999999], [12.6434002, 46.149421799999985], [12.6432594, 46.14951469999998], [12.6430287, 46.1496345], [12.6426666, 46.1498408], [12.642334, 46.1500861], [12.6420846, 46.1503035], [12.6419236, 46.1504503], [12.6417788, 46.150572900000014], [12.6415937, 46.150725299999976], [12.6414704, 46.15088880000001], [12.6413953, 46.1510114], [12.6413503, 46.1512493], [12.6413248, 46.1513793], [12.6413161, 46.15140390000001], [12.6412967, 46.1514304], [12.6412766, 46.1514736], [12.6412491, 46.1515113], [12.6412202, 46.1515503], [12.6411934, 46.1515749], [12.6411541, 46.1516052]]}}, {"type": "Feature", "properties": {"u": 4537840691, "v": 375694438, "key": 0, "osmid": "337440333", "lanes": null, "name": "MV 06", "highway": "cycleway", "maxspeed": null, "length": 245.867, "rule": "s3", "lts": 2, "slope": 0.347183793245967, "slope_class": "0-3: flat", "lanes_assumed": null, "maxspeed_assumed": null, "message": "This way is a separated path because highway='cycleway'.", "short_message": "highway $=$ \"cycleway\"", "grade": 0.3263702377876}, "geometry": {"type": "LineString", "coordinates": [[12.6430696, 46.137106], [12.6429876, 46.1369976], [12.6423623, 46.1365884], [12.6422329, 46.1365037], [12.6416527, 46.1362869], [12.6412585, 46.1362423], [12.6406665, 46.13614689999998], [12.6404961, 46.136106], [12.6403763, 46.1360719]]}}, {"type": "Feature", "properties": {"u": 4537840691, "v": 4230598338, "key": 0, "osmid": "337440333", "lanes": null, "name": "MV 06", "highway": "cycleway", "maxspeed": null, "length": 480.649, "rule": "s3", "lts": 2, "slope": 3.2605258904841823, "slope_class": "3-5: mild", "lanes_assumed": null, "maxspeed_assumed": null, "message": "This way is a separated path because highway='cycleway'.", "short_message": "highway $=$ \"cycleway\"", "grade": 2.7666508255814954}, "geometry": {"type": "LineString", "coordinates": [[12.6430696, 46.137106], [12.6430893, 46.1371321], [12.6432279, 46.1373178], [12.6433697, 46.1375099], [12.6434005, 46.137685], [12.6434217, 46.1377566], [12.6434498, 46.1378515], [12.6434806, 46.1380672], [12.6435515, 46.1382166], [12.6436593, 46.1383981], [12.6437024, 46.1385966], [12.6437544, 46.1388025], [12.6437756, 46.1390232], [12.6439066, 46.1392611], [12.6439809, 46.1394647], [12.644041, 46.13961420000001], [12.6441295, 46.1398472], [12.644218, 46.1400875], [12.6442763, 46.1402489], [12.6443617, 46.1403757], [12.6444308, 46.14051650000002], [12.6444592, 46.1406292], [12.6445243, 46.140801], [12.6446137, 46.14090810000001], [12.644691, 46.1410884], [12.6447451, 46.1412368]]}}, {"type": "Feature", "properties": {"u": 4537840691, "v": 3445307415, "key": 0, "osmid": "418309985", "lanes": null, "name": null, "highway": "cycleway", "maxspeed": null, "length": 176.073, "rule": "s3", "lts": 2, "slope": 3.511267480862222, "slope_class": "3-5: mild", "lanes_assumed": null, "maxspeed_assumed": null, "message": "This way is a separated path because highway='cycleway'.", "short_message": "highway $=$ \"cycleway\"", "grade": 3.1978563260177144}, "geometry": {"type": "LineString", "coordinates": [[12.6430696, 46.137106], [12.6430644, 46.1370284], [12.6430417, 46.1369552], [12.6429141, 46.1368252], [12.6428316, 46.1367056], [12.6428021, 46.136622899999985], [12.642749, 46.1365714], [12.6426943, 46.1364963], [12.6425689, 46.1363919], [12.6424027, 46.1362652], [12.6422511, 46.1360394], [12.6423664, 46.1358686], [12.6425617, 46.13577619999999]]}}, {"type": "Feature", "properties": {"u": 4537840705, "v": 4230598338, "key": 0, "osmid": "337440333", "lanes": null, "name": "MV 06", "highway": "cycleway", "maxspeed": null, "length": 222.115, "rule": "s3", "lts": 1, "slope": 1.4695836983490422, "slope_class": "0-3: flat", "lanes_assumed": null, "maxspeed_assumed": null, "message": "This way is a separated path because highway='cycleway'.", "short_message": "highway $=$ \"cycleway\"", "grade": 1.4732890700149688}, "geometry": {"type": "LineString", "coordinates": [[12.6450384, 46.14321469999999], [12.6449967, 46.1430103], [12.6449734, 46.1428097], [12.6449874, 46.1425767], [12.6449267, 46.1423761], [12.644894, 46.1421011], [12.6448846, 46.141949], [12.6448193, 46.141771], [12.6448251, 46.1416377], [12.6448251, 46.1415278], [12.6447885, 46.141356], [12.6447451, 46.1412368]]}}, {"type": "Feature", "properties": {"u": 4537840705, "v": 3445307035, "key": 0, "osmid": "337440333", "lanes": null, "name": "MV 06", "highway": "cycleway", "maxspeed": null, "length": 46.205, "rule": "s3", "lts": 1, "slope": 2.9662424638568536, "slope_class": "0-3: flat", "lanes_assumed": null, "maxspeed_assumed": null, "message": "This way is a separated path because highway='cycleway'.", "short_message": "highway $=$ \"cycleway\"", "grade": 2.895248401935509}, "geometry": {"type": "LineString", "coordinates": [[12.6450384, 46.14321469999999], [12.6450528, 46.1432853], [12.6450948, 46.1436283]]}}, {"type": "Feature", "properties": {"u": 5074943143, "v": 4417658388, "key": 0, "osmid": "444279351", "lanes": null, "name": "MV 06", "highway": "cycleway", "maxspeed": null, "length": 403.245, "rule": "s3", "lts": 1, "slope": 0.43757682958628225, "slope_class": "0-3: flat", "lanes_assumed": null, "maxspeed_assumed": null, "message": "This way is a separated path because highway='cycleway'.", "short_message": "highway $=$ \"cycleway\"", "grade": -0.19871764142409498}, "geometry": {"type": "LineString", "coordinates": [[12.6411541, 46.1516052], [12.6411934, 46.1515749], [12.6412202, 46.1515503], [12.6412491, 46.1515113], [12.6412766, 46.1514736], [12.6412967, 46.1514304], [12.6413161, 46.15140390000001], [12.6413248, 46.1513793], [12.6413503, 46.1512493], [12.6413953, 46.1510114], [12.6414704, 46.15088880000001], [12.6415937, 46.150725299999976], [12.6417788, 46.150572900000014], [12.6419236, 46.1504503], [12.6420846, 46.1503035], [12.642334, 46.1500861], [12.6426666, 46.1498408], [12.6430287, 46.1496345], [12.6432594, 46.14951469999998], [12.6434002, 46.149421799999985], [12.6435169, 46.14931209999999], [12.6436027, 46.1492062], [12.6436403, 46.149156], [12.6436885, 46.1490529], [12.6437167, 46.148948899999986], [12.6437449, 46.1488494], [12.6437771, 46.1486999], [12.6437914, 46.1486173]]}}, {"type": "Feature", "properties": {"u": 6684814128, "v": 6684814180, "key": 0, "osmid": "337440333", "lanes": null, "name": "MV 06", "highway": "cycleway", "maxspeed": null, "length": 146.688, "rule": "s3", "lts": 3, "slope": 0.7426098846186809, "slope_class": "0-3: flat", "lanes_assumed": null, "maxspeed_assumed": null, "message": "This way is a separated path because highway='cycleway'.", "short_message": "highway $=$ \"cycleway\"", "grade": 0.9452527317705662}, "geometry": {"type": "LineString", "coordinates": [[12.645216, 46.14771189999998], [12.6452256, 46.1476695], [12.6453127, 46.14751729999998], [12.6453883, 46.1473171], [12.6454637, 46.1470903], [12.6455291, 46.1468703], [12.6456318, 46.1466697], [12.6457533, 46.1465403], [12.6458387, 46.1464849]]}}, {"type": "Feature", "properties": {"u": 6684814128, "v": 3445307011, "key": 0, "osmid": "337440333", "lanes": null, "name": "MV 06", "highway": "cycleway", "maxspeed": null, "length": 63.126, "rule": "s3", "lts": 3, "slope": 1.7760770321531476, "slope_class": "0-3: flat", "lanes_assumed": null, "maxspeed_assumed": null, "message": "This way is a separated path because highway='cycleway'.", "short_message": "highway $=$ \"cycleway\"", "grade": 1.3809024193455148}, "geometry": {"type": "LineString", "coordinates": [[12.645216, 46.14771189999998], [12.6451878, 46.1478365], [12.64507, 46.1480751], [12.6450022, 46.1482586]]}}, {"type": "Feature", "properties": {"u": 6684814180, "v": 3445307035, "key": 0, "osmid": "337440333", "lanes": null, "name": "MV 06", "highway": "cycleway", "maxspeed": null, "length": 331.482, "rule": "s3", "lts": 2, "slope": 3.9767337755956103, "slope_class": "3-5: mild", "lanes_assumed": null, "maxspeed_assumed": null, "message": "This way is a separated path because highway='cycleway'.", "short_message": "highway $=$ \"cycleway\"", "grade": -2.5499358860286687}, "geometry": {"type": "LineString", "coordinates": [[12.6458387, 46.1464849], [12.645898, 46.1464465], [12.6459868, 46.146275], [12.6459728, 46.1460291], [12.6459447, 46.1458317], [12.645856, 46.14567969999998], [12.6457719, 46.1455955], [12.6457112, 46.1454435], [12.6456879, 46.1452461], [12.6456505, 46.1449776], [12.6455851, 46.1448223], [12.6455571, 46.14469610000001], [12.6454917, 46.1444955], [12.6454217, 46.144275399999984], [12.6453143, 46.144049], [12.6452022, 46.143816], [12.6450948, 46.1436283]]}}, {"type": "Feature", "properties": {"u": 6684814180, "v": 6684814128, "key": 0, "osmid": "337440333", "lanes": null, "name": "MV 06", "highway": "cycleway", "maxspeed": null, "length": 146.688, "rule": "s3", "lts": 3, "slope": 0.7426098846184925, "slope_class": "0-3: flat", "lanes_assumed": null, "maxspeed_assumed": null, "message": "This way is a separated path because highway='cycleway'.", "short_message": "highway $=$ \"cycleway\"", "grade": -0.9452527317705665}, "geometry": {"type": "LineString", "coordinates": [[12.6458387, 46.1464849], [12.6457533, 46.1465403], [12.6456318, 46.1466697], [12.6455291, 46.1468703], [12.6454637, 46.1470903], [12.6453883, 46.1473171], [12.6453127, 46.14751729999998], [12.6452256, 46.1476695], [12.645216, 46.14771189999998]]}}]}