{"type": "FeatureCollection", "features": [{"type": "Feature", "properties": {"class": "bike_parking", "name": null, "name:it": null, "source": "overpass", "osm_id": 3092250324, "amenity": "bicycle_parking", "bicycle": null, "operator": null, "capacity": "10"}, "geometry": {"type": "Point", "coordinates": [12.6589357, 46.1483238]}}, {"type": "Feature", "properties": {"class": "bike_parking", "name": null, "name:it": null, "source": "overpass", "osm_id": 6532811591, "amenity": "bicycle_parking", "bicycle": null, "operator": null, "capacity": "5"}, "geometry": {"type": "Point", "coordinates": [12.6616228, 46.1608094]}}]}