{"type": "FeatureCollection", "features": [{"type": "Feature", "properties": {"class": "drinking_water", "name": null, "name:it": null, "source": "overpass", "osm_id": 1978418936, "amenity": "drinking_water"}, "geometry": {"type": "Point", "coordinates": [12.70466, 46.1016496]}}, {"type": "Feature", "properties": {"class": "drinking_water", "name": null, "name:it": null, "source": "overpass", "osm_id": 2301211822, "amenity": "drinking_water"}, "geometry": {"type": "Point", "coordinates": [12.6611503, 46.1676256]}}, {"type": "Feature", "properties": {"class": "drinking_water", "name": null, "name:it": null, "source": "overpass", "osm_id": 2642222081, "amenity": "drinking_water"}, "geometry": {"type": "Point", "coordinates": [12.6630519, 46.1599053]}}, {"type": "Feature", "properties": {"class": "spring", "name": null, "name:it": null, "source": "overpass", "osm_id": 3452104936, "natural": "spring"}, "geometry": {"type": "Point", "coordinates": [12.6348588, 46.1559772]}}, {"type": "Feature", "properties": {"class": "picnic_site", "name": "Alla taulo dal Zep", "name:it": null, "source": "overpass", "osm_id": 5353385983, "tourism": "picnic_site"}, "geometry": {"type": "Point", "coordinates": [12.6580802, 46.1684043]}}, {"type": "Feature", "properties": {"class": "drinking_water", "name": null, "name:it": null, "source": "overpass", "osm_id": 6532003756, "amenity": "drinking_water"}, "geometry": {"type": "Point", "coordinates": [12.6629282, 46.160094]}}, {"type": "Feature", "properties": {"class": "drinking_water", "name": null, "name:it": null, "source": "overpass", "osm_id": 6532011398, "amenity": "drinking_water"}, "geometry": {"type": "Point", "coordinates": [12.6635555, 46.1583192]}}, {"type": "Feature", "properties": {"class": "drinking_water", "name": null, "name:it": null, "source": "overpass", "osm_id": 6532334117, "amenity": "drinking_water"}, "geometry": {"type": "Point", "coordinates": [12.6611885, 46.1642904]}}, {"type": "Feature", "properties": {"class": "picnic_site", "name": null, "name:it": null, "source": "overpass", "osm_id": 10692836516, "tourism": "picnic_site"}, "geometry": {"type": "Point", "coordinates": [12.6847914, 46.0992434]}}, {"type": "Feature", "properties": {"class": "picnic_area", "name": null, "name:it": null, "source": "overpass", "osm_id": 11989820198, "leisure": "picnic_table"}, "geometry": {"type": "Point", "coordinates": [12.6369005, 46.1484997]}}, {"type": "Feature", "properties": {"class": "drinking_water", "name": null, "name:it": null, "source": "overpass", "osm_id": 12703097739, "amenity": "drinking_water"}, "geometry": {"type": "Point", "coordinates": [12.6631667, 46.1599722]}}, {"type": "Feature", "properties": {"class": "picnic_site", "name": null, "name:it": null, "source": "overpass", "osm_id": 12811142901, "tourism": "picnic_site"}, "geometry": {"type": "Point", "coordinates": [12.6638659, 46.1603986]}}]}